code,lat,lon,state,name,x,y
USC00010008,31.5703,-85.2483,139,AL,ABBEVILLE,316,51
USC00010140,32.2322,-87.4103,53.3,AL,ALBERTA,298,56
USC00010160,32.9453,-85.9481,195.1,AL,ALEXANDER CITY,310,62
USC00010184,33.21,-88.2878,50.3,AL,ALICEVILLE L&D,291,64
USC00010505,33.4528,-87.3572,85.3,AL,BANKHEAD LOCK & DAM,299,66
USC00010583,30.8839,-87.7853,82.6,AL,BAY MINETTE,295,46
USC00010764,33.3953,-87.0078,135.6,AL,BESSEMER 3 WSW,301,66
USC00011080,31.1414,-87.0486,48.8,AL,BREWTON 3 ENE,301,48
USC00011084,31.0581,-87.0547,25.9,AL,BREWTON 3 SSE,301,47
USC00011620,33.285,-86.3431,127.4,AL,CHILDERSBURG WTR PL,307,65
USC00011810,31.7556,-88.1283,14,AL,COFFEEVILLE L&D,292,53
USC00012245,32.5192,-87.88,30.5,AL,DEMOPOLIS L&D,294,59
USC00012758,31.445,-86.9533,88.4,AL,EVERGREEN,302,50
USC00012813,30.5467,-87.8808,7,AL,FAIRHOPE 2 NE,295,43
USC00013160,32.8347,-88.1342,38.1,AL,GAINESVILLE LOCK,292,61
USC00013251,31.0383,-85.8708,44.2,AL,GENEVA 2,311,47
USC00013511,32.7019,-87.5817,67.1,AL,GREENSBORO,297,60
USC00013519,31.79,-86.6086,104.2,AL,GREENVILLE,305,53
USC00013645,34.0967,-87.9914,132.6,AL,HAMILTON 3 S,294,71
USC00013761,31.3625,-85.3397,112.8,AL,HEADLAND,315,49
USC00013775,33.6483,-85.6006,259.1,AL,HEFLIN,313,68
USC00013930,33.2533,-87.45,59.4,AL,HOLT LOCK & DAM,298,65
USC00014274,32.3236,-86.7828,44.5,AL,JONES BLUFF L&D,303,57
USC00015121,32.4714,-87.2314,61,AL,MARION JUNCTION 2 NE,300,58
USC00015420,32.1003,-87.3983,35.1,AL,MILLERS FERRY L&D,298,55
USC00015635,34.4883,-87.2989,189.6,AL,MOULTON 2,299,74
USC00016246,33.745,-86.6417,220.1,AL,PALMERDALE,304,68
USC00016436,31.8817,-86.9861,80.8,AL,PINE APPLE,302,54
USC00016478,33.6906,-86.685,185.3,AL,PINSON,304,68
USC00016847,33.3753,-88.02,72.5,AL,REFORM,293,66
USC00017366,32.4111,-87.0144,44.8,AL,SELMA,301,58
USC00017999,33.2053,-86.2114,149.4,AL,SYLACAUGA 4 NE,308,64
USC00018038,32.4392,-86.2025,53.9,AL,TALLAPOOSA WTP,308,58
USC00018178,31.9172,-87.7347,118.9,AL,THOMASVILLE,296,54
USC00018380,33.2119,-87.6161,51.5,AL,TUSCALOOSA ACFD,297,64
USC00018385,33.2097,-87.5936,46.3,AL,TUSCALOOSA OLIVER DAM,297,64
USC00018438,32.0142,-85.7464,134.1,AL,UNION SPRINGS 9 S,312,55
USC00018469,34.5667,-85.6128,323.7,AL,VALLEY HEAD,313,75
USC00018673,32.7744,-87.8306,33.5,AL,WARRIOR L&D,295,61
USC00018809,33.1186,-87.1267,152.4,AL,WEST BLOCTON,300,63
USC00018859,32.5906,-86.2103,78.3,AL,WETUMPKA,308,59
USC00018998,33.9111,-87.8475,142.6,AL,WINFIELD 2 SW,295,70
USC00020100,34.2281,-113.578,393.2,AZ,ALAMO DAM,89,72
USC00020808,33.4783,-109.752,1848.6,AZ,BLACK RIVER PUMPS,119,66
USC00020949,33.9431,-114.024,281.9,AZ,BOUSE,85,70
USC00020958,32.325,-109.492,1151.2,AZ,BOWIE,122,57
USC00021050,35.1411,-114.569,161.8,AZ,BULLHEAD CITY,81,80
USC00021314,32.9947,-111.537,432.5,AZ,CASA GRANDE NM,105,62
USC00021330,32.3222,-110.415,973.5,AZ,CASCABEL,114,57
USC00021920,36.9936,-112.972,1524.3,AZ,COLORADO CITY,94,94
USC00022109,34.305,-112.165,1149.4,AZ,CORDES,100,73
USC00022754,32.7481,-109.121,1115.6,AZ,DUNCAN,125,60
USC00023150,33.0094,-109.985,864.1,AZ,FT THOMAS 2 SW,118,63
USC00023190,33.6028,-111.713,481.6,AZ,FOUNTAIN HILLS,104,67
USC00023393,32.9481,-112.713,224,AZ,GILA BEND,96,62
USC00023448,34.1111,-111.276,883.9,AZ,GISELA,107,71
USC00024182,33.9825,-111.714,615.7,AZ,HORSESHOE DAM,104,70
USC00024702,33.2742,-113.965,541,AZ,KOFA MINE,86,65
USC00024829,33.3369,-112.147,345.9,AZ,LAVEEN 3 SSE,100,65
USC00025270,33.1139,-112.03,353.6,AZ,MARICOPA 4 N,101,63
USC00025412,34.1142,-109.859,2237.2,AZ,MC NARY 2N,119,71
USC00025418,31.6017,-109.669,1271,AZ,MC NEAL,120,51
USC00025635,34.6106,-111.838,969.3,AZ,MONTEZUMA CASTLE NM,103,75
USC00025924,31.4553,-110.968,1054.9,AZ,NOGALES 6 N,110,50
USC00026119,32.6025,-110.734,1374.6,AZ,ORACLE 2 SE,112,59
USC00026282,31.5481,-110.752,1277.1,AZ,PATAGONIA 2,111,51
USC00026471,36.1383,-112.096,771.1,AZ,PHANTOM RANCH,101,88
USC00026601,34.1242,-109.922,2194.6,AZ,PINETOP 2E,118,71
USC00026796,34.5706,-112.432,1586.5,AZ,PRESCOTT,98,75
USC00027036,32.3903,-110.467,896.1,AZ,REDINGTON,114,58
USC00027281,33.6731,-111.151,672.1,AZ,ROOSEVELT 1 WNW,108,68
USC00027334,31.7561,-109.413,1636.8,AZ,RUCKER CANYON,122,53
USC00027390,32.815,-109.681,900.4,AZ,SAFFORD AGRICULTRL CTR,120,61
USC00027530,32.6014,-110.634,1054.6,AZ,SAN MANUEL,112,59
USC00027708,34.8956,-111.764,1286.3,AZ,SEDONA,103,78
USC00027716,35.3322,-112.88,1600.2,AZ,SELIGMAN,94,81
USC00027855,34.2639,-110.007,1954.1,AZ,SHOW LOW AP,117,73
USC00028012,34.5081,-110.084,1719.7,AZ,SNOWFLAKE,117,75
USC00028214,33.5575,-111.536,433.4,AZ,STEWART MOUNTAIN,105,67
USC00028396,32.7225,-113.919,98.8,AZ,TACNA 3 NE,86,60
USC00028499,33.4258,-111.922,355.7,AZ,TEMPE ASU,102,66
USC00028598,33.4519,-112.243,312.4,AZ,TOLLESON 1 E,100,66
USC00028619,31.7119,-110.069,1420.1,AZ,TOMBSTONE,117,52
USC00028796,32.2817,-110.944,710.2,AZ,TUCSON CAMP AVE EXP,110,57
USC00028817,32.2581,-111.005,705.6,AZ,TUCSON U OF A 1,109,57
USC00028904,34.7706,-112.026,1057.7,AZ,TUZIGOOT,101,77
USC00029158,34.9281,-112.81,1551.4,AZ,WALNUT CREEK,95,78
USC00029166,34.3117,-112.562,1147.3,AZ,WALNUT GROVE,97,73
USC00029287,33.9792,-112.74,638.6,AZ,WICKENBURG,96,70
USC00029334,32.2553,-109.837,1271,AZ,WILLCOX,119,57
USC00029359,35.2406,-112.19,2057.4,AZ,WILLIAMS,100,80
USC00029634,33.595,-112.301,345.9,AZ,YOUNGTOWN,99,67
USC00029645,34.8775,-114.134,594.4,AZ,YUCCA 1 NNE,84,78
USC00030130,34.7961,-92.8417,212.8,AR,ALUM FORK,255,77
USC00030150,34.2808,-93.4614,140.2,AR,AMITY 1N,250,73
USC00030234,33.6061,-91.2186,44.2,AR,ARKANSAS CITY,268,67
USC00030286,33.6194,-94.0994,97.5,AR,ASHDOWN 4 SSE,245,67
USC00030300,34.3253,-93.9811,292.6,AR,ATHENS,246,73
USC00030326,35.2894,-91.3533,59.4,AR,AUGUSTA,267,81
USC00030458,35.8306,-91.7944,174,AR,BATESVILLE LVSTK,263,85
USC00030460,35.76,-91.6389,88.4,AR,BATESVILLE L&D 1,264,85
USC00030664,34.4619,-93.9983,365.8,AR,BIG FORK 1 SSE,246,74
USC00030746,36.1067,-91.1039,73.2,AR,BLACK ROCK,269,87
USC00030798,35.1161,-93.6506,129.8,AR,BLUE MTN DAM,248,79
USC00030806,35.9239,-89.9044,76.8,AR,BLYTHEVILLE,278,86
USC00030832,35.0931,-93.9258,182.9,AR,BOONEVILLE 3 SSE,246,79
USC00030936,34.8822,-91.2153,56.4,AR,BRINKLEY,268,78
USC00031152,33.59,-92.8236,35.4,AR,CAMDEN 1,255,67
USC00031632,36.4197,-90.5858,91.4,AR,CORNING,273,90
USC00031666,34.4314,-94.4175,323.1,AR,COVE,242,74
USC00031750,34.6886,-92.45,108.2,AR,CRYSTAL VALLEY,258,76
USC00031829,35.4033,-92.3828,207.3,AR,DAMASCUS 2 NNE,258,82
USC00031834,35.0375,-93.3947,114.3,AR,DANVILLE,250,79
USC00031900,35.8272,-93.2044,723.9,AR,DEER,252,85
USC00031948,34.0464,-94.3481,124.1,AR,DEQUEEN,243,71
USC00031962,33.5597,-91.385,44.2,AR,DERMOTT 3 NE,266,67
USC00032015,34.1267,-94.0172,143.3,AR,DIERKS,245,72
USC00032148,33.8847,-91.5317,49.7,AR,DUMAS,265,70
USC00032355,33.1144,-91.2628,41.1,AR,EUDORA,267,63
USC00032540,33.8228,-92.3989,70.1,AR,FORDYCE,258,69
USC00032842,34.3217,-93.5617,178.3,AR,GLENWOOD,249,73
USC00032922,34.8758,-93.6761,140.5,AR,GRAVELLY 1 ESE,248,78
USC00032930,36.4261,-94.4481,384,AR,GRAVETTE,242,90
USC00033428,33.7089,-93.5561,114.3,AR,HOPE 3 NE,249,68
USC00033438,34.3608,-93.6817,219.5,AR,HOPPER,248,73
USC00033442,33.935,-94.3586,102.7,AR,HORATIO,243,70
USC00033466,34.5128,-93.0486,190.8,AR,HOT SPRINGS 1 NNE,253,75
USC00033821,35.6872,-90.0964,70.7,AR,KEISER,277,84
USC00033862,34.6033,-91.9928,70.4,AR,KEO,262,75
USC00034010,34.8511,-92.4889,93,AR,LAKE MAUMELLE,258,77
USC00034548,33.295,-93.2325,99.1,AR,MAGNOLIA,252,65
USC00034638,34.7392,-90.7664,71.3,AR,MARIANNA 2 S,271,76
USC00034746,36.0822,-91.9822,152.4,AR,MELBOURNE 5W,262,87
USC00034756,34.5731,-94.2494,344.4,AR,MENA,244,75
USC00034988,34.5408,-93.5878,212.4,AR,MT IDA 3 SE,249,75
USC00035036,36.3458,-92.3939,243.8,AR,MTN HOME 1 NNW,258,89
USC00035112,33.9294,-93.8583,121.9,AR,NASHVILLE,247,70
USC00035186,35.6042,-91.2744,69.5,AR,NEWPORT,267,83
USC00035354,35.7803,-94.4161,457.2,AR,ODELL 2 N,242,85
USC00035358,34.6008,-93.7667,243.8,AR,ODEN 1 SE,247,75
USC00035563,36.0336,-90.4978,82.3,AR,PARAGOULD 1S,274,87
USC00035591,34.7844,-93.9786,184.7,AR,PARKS,246,77
USC00035691,35.0442,-92.7956,91.4,AR,PERRY,255,79
USC00035754,34.2256,-92.0189,65.5,AR,PINE BLUFF,261,72
USC00035760,34.5833,-93.9011,256,AR,PINE RIDGE,246,75
USC00035908,33.8203,-93.3878,93.9,AR,PRESCOTT 2 NNW,250,69
USC00036008,35.305,-93.8767,141.1,AR,RATCLIFF,246,81
USC00036403,36.3561,-91.8036,207.3,AR,SALEM,263,89
USC00036506,35.2683,-91.7164,70.1,AR,SEARCY,264,81
USC00036562,34.3019,-92.3914,76.2,AR,SHERIDAN,258,73
USC00036918,34.4764,-91.5381,68,AR,STUTTGART,265,74
USC00036920,34.4744,-91.4172,60.4,AR,STUTTGART 9 ESE,266,74
USC00036928,35.3028,-93.6369,152.4,AR,SUBIACO,248,81
USC00037582,33.6044,-92.0997,64,AR,WARREN 2 WSW,261,67
USC00040212,38.5731,-122.441,522.7,CA,ANGWIN PAC UNION COL,18,107
USC00040379,37.0919,-119.513,637,CA,AUBERRY 2 NW,41,95
USC00040521,34.8928,-117.022,676.7,CA,BARSTOW,61,78
USC00040673,37.0856,-122.08,128,CA,BEN LOMOND 4,21,95
USC00040983,33.2314,-116.414,245.4,CA,BORREGO DESERT PARK,66,64
USC00041149,40.8669,-121.846,1158.2,CA,BUCKHORN,23,125
USC00041244,35.4047,-119.473,82,CA,BUTTONWILLOW,42,82
USC00041253,34.5825,-119.982,238.7,CA,CACHUMA LAKE,38,75
USC00041288,32.6881,-115.464,3.7,CA,CALEXICO 2 NE,74,60
USC00041316,41.3111,-122.804,970.8,CA,CALLAHAN,15,129
USC00041428,38.2486,-120.843,200.6,CA,CAMP PARDEE,31,104
USC00041497,40.1703,-121.088,1389.9,CA,CANYON DAM,29,120
USC00041614,41.5306,-120.18,1408.5,CA,CEDARVILLE,36,131
USC00041864,36.1356,-120.361,204.2,CA,COALINGA,35,88
USC00041907,40.4,-122.143,128,CA,COLEMAN FISHERIES STN,20,122
USC00041912,39.0911,-120.948,725.4,CA,COLFAX,30,111
USC00041916,39.3308,-121.192,181.4,CA,COLGATE PH,28,113
USC00041990,41.9797,-122.338,823.9,CA,COPCO 1 DAM,19,134
USC00042012,36.0975,-119.582,61,CA,CORCORAN IRRIG DIST,41,87
USC00042081,39.8158,-123.244,430.7,CA,COVELO,12,117
USC00042239,32.9897,-116.587,1414.3,CA,CUYAMACA,65,62
USC00042294,38.535,-121.776,18.3,CA,DAVIS 2 WSW EXP FARM,23,107
USC00042319,36.4622,-116.867,-59.1,CA,DEATH VALLEY,63,90
USC00042346,35.7683,-119.26,92,CA,DELANO,43,85
USC00042500,39.5633,-120.824,888.5,CA,DOWNIEVILLE,31,115
USC00042504,40.0244,-120.104,1292.4,CA,DOYLE,37,119
USC00042506,39.9717,-120.083,1338.1,CA,DOYLE 4 SSE,37,118
USC00042598,33.8089,-115.451,296.6,CA,EAGLE MTN,74,69
USC00042713,32.7669,-115.562,-9.1,CA,EL CENTRO 2 SSW,73,61
USC00042771,34.5892,-117.63,899.2,CA,EL MIRAGE,56,75
USC00042920,37.585,-120.267,134.7,CA,EXCHEQUER DAM,35,99
USC00042934,38.2736,-122.068,12.2,CA,FAIRFIELD,21,105
USC00043038,38.5236,-120.706,658.4,CA,FIDDLETOWN DEXTER RCH,32,107
USC00043261,36.9969,-119.707,125,CA,FRIANT GOVERNMENT CAMP,40,94
USC00043357,41.8453,-123.965,118,CA,GASQUET RS,6,133
USC00043463,35.7269,-118.701,957.1,CA,GLENNVILLE,48,84
USC00043491,39.165,-120.857,1011.9,CA,GOLD RUN 2 SW,31,112
USC00043573,39.2042,-121.068,731.5,CA,GRASS VALLEY 2,29,112
USC00043578,38.4306,-122.865,61,CA,GRATON,15,106
USC00043710,36.1389,-117.953,1165.9,CA,HAIWEE,54,88
USC00043747,36.3158,-119.637,72.2,CA,HANFORD 1 S,40,89
USC00043800,39.2372,-121.267,243.8,CA,HARRY L ENGLEBRIGHT DM,27,112
USC00043855,33.7044,-115.629,417.6,CA,HAYFIELD PUMPING PLT,72,68
USC00043875,38.6175,-122.873,32.9,CA,HEALDSBURG,15,107
USC00043896,33.7381,-116.894,552,CA,HEMET,62,68
USC00043914,33.2372,-116.761,823,CA,HENSHAW DAM,63,64
USC00043939,37.9614,-119.783,1179.6,CA,HETCH HETCHY,39,102
USC00044223,32.8489,-115.567,-19.5,CA,IMPERIAL,73,61
USC00044232,36.7981,-118.204,1204,CA,INDEPENDENCE,52,93
USC00044297,34.1472,-115.122,281,CA,IRON MTN,77,72
USC00044422,34.4908,-119.507,682.8,CA,JUNCAL DAM,41,74
USC00044500,37.9569,-122.544,44.2,CA,KENTFIELD,17,102
USC00044555,36.2069,-121.138,97.5,CA,KING CITY,28,88
USC00044710,32.8536,-116.895,210.3,CA,LAKESIDE 2 E,62,61
USC00044712,38.4919,-122.004,57.9,CA,LAKE SOLANO,21,106
USC00044890,36.3817,-119.026,156.4,CA,LEMON COVE,45,90
USC00044957,36.2033,-119.054,132.6,CA,LINDSAY,45,88
USC00044997,37.6922,-121.769,146.3,CA,LIVERMORE,23,100
USC00045064,34.6539,-120.451,29,CA,LOMPOC,34,76
USC00045118,37.0564,-120.867,36.6,CA,LOS BANOS,31,95
USC00045119,36.875,-120.939,256.9,CA,LOS BANOS ARBURUA RCH,30,94
USC00045360,38.4917,-122.124,146.3,CA,MARKLEY COVE,21,106
USC00045378,38.0131,-122.114,12.2,CA,MARTINEZ WTP,21,103
USC00045795,36.5903,-121.91,117.3,CA,MONTEREY,22,91
USC00045915,37.8792,-121.93,661.4,CA,MT DIABLO JUNCTION,22,102
USC00045933,37.3436,-121.643,1282,CA,MT HAMILTON,24,97
USC00046006,34.2308,-118.071,1740.4,CA,MT WILSON CBS,53,72
USC00046074,38.2778,-122.265,10.7,CA,NAPA STATE HOSPITAL,19,105
USC00046136,39.2467,-121.001,847.6,CA,NEVADA CITY,29,112
USC00046144,37.5147,-122.033,3,CA,NEWARK,21,99
USC00046194,38.9261,-121.545,13.1,CA,NICOLAUS 2,25,110
USC00046399,34.4478,-119.228,227.1,CA,OJAI,44,74
USC00046506,39.7458,-122.2,77.4,CA,ORLAND,20,116
USC00046508,41.3089,-123.532,122.8,CA,ORLEANS,9,129
USC00046597,38.7583,-120.503,1051.6,CA,PACIFIC HOUSE,33,109
USC00046624,34.5883,-118.094,794.3,CA,PALMDALE,53,75
USC00046635,33.8275,-116.51,129.5,CA,PALM SPRINGS,65,69
USC00046675,36.6067,-120.884,426.7,CA,PANOCHE 2 W,30,91
USC00046685,39.7536,-121.624,533.4,CA,PARADISE,25,117
USC00046699,34.2903,-114.171,224.9,CA,PARKER RSVR,84,73
USC00046719,34.1481,-118.144,263.3,CA,PASADENA,52,72
USC00046730,35.6278,-120.686,222.5,CA,PASO ROBLES,32,84
USC00046826,38.2578,-122.608,6.1,CA,PETALUMA AP,17,105
USC00046896,36.8211,-119.338,187.5,CA,PINE FLAT DAM,43,93
USC00046946,40.9867,-121.977,444.4,CA,PIT RIVER PH 5,22,126
USC00047109,39.3619,-123.129,310.3,CA,POTTER VALLEY P H,12,113
USC00047150,36.1883,-120.695,701,CA,PRIEST VALLEY,32,88
USC00047306,34.0528,-117.189,401.7,CA,REDLANDS,60,71
USC00047370,38.6944,-121.161,89.9,CA,REPRESA,28,108
USC00047473,33.9669,-117.361,300.5,CA,RIVERSIDE CITRUS EXP,59,70
USC00047672,35.3372,-120.504,416.1,CA,SALINAS DAM,33,81
USC00047681,34.5853,-120.408,77.7,CA,SALSIPUEDES GAGING STN,34,75
USC00047731,36.4375,-121.709,182.9,CA,SAN CLEMENTE DAM,24,90
USC00047776,34.1553,-117.908,226.8,CA,SAN GABRIEL CANYON PH,54,72
USC00047785,34.1061,-118.1,137.2,CA,SAN GABRIEL FIRE DEPT,53,71
USC00047821,37.3592,-121.924,15.5,CA,SAN JOSE,22,97
USC00047851,35.3039,-120.665,93.9,CA,SAN LUIS OBISPO POLY U,32,81
USC00047888,33.7442,-117.867,41.1,CA,SANTA ANA FIRE STN,55,68
USC00047916,36.9906,-121.991,39.6,CA,SANTA CRUZ,22,94
USC00047933,35.3742,-120.637,349.9,CA,SANTA MARGARITA BOOST,32,81
USC00047965,38.4381,-122.698,53,CA,SANTA ROSA,16,106
USC00048014,34.5894,-118.455,636.7,CA,SAUGUS PWR PLT 1,50,75
USC00048045,40.4831,-124.104,41.5,CA,SCOTIA,5,122
USC00048135,40.7142,-122.416,327.7,CA,SHASTA DAM,18,124
USC00048587,39.5858,-122.534,243.8,CA,STONY GORGE RSVR,17,115
USC00048606,39.5631,-121.108,1160.7,CA,STRAWBERRY VALLEY,29,115
USC00048758,39.1678,-120.143,1898.9,CA,TAHOE CITY,36,112
USC00049026,40.7264,-122.795,567.2,CA,TRINITY RIVER HATCHERY,15,124
USC00049035,35.7636,-117.391,516.6,CA,TRONA,58,85
USC00049043,39.3331,-120.173,1774.9,CA,TRUCKEE RS,36,113
USC00049053,41.96,-121.474,1229.9,CA,TULELAKE,26,134
USC00049073,37.5006,-120.855,35.1,CA,TURLOCK 2,31,99
USC00049099,34.1281,-116.037,602,CA,TWENTYNINE PALMS,69,72
USC00049122,39.1467,-123.21,193.9,CA,UKIAH,12,112
USC00049152,34.0697,-118.443,131.1,CA,U C L A,50,71
USC00049185,37.7719,-122.168,120.1,CA,UPPER SAN LEANDRO FILTERS,20,101
USC00049351,39.8056,-120.186,1508.8,CA,VINTON,36,117
USC00049390,40.4583,-121.866,676.7,CA,VOLTA PH,23,122
USC00049452,35.5892,-119.352,88.7,CA,WASCO,43,83
USC00049473,36.9308,-121.769,29,CA,WATSONVILLE WTR WKS,23,94
USC00049621,40.6117,-122.528,394.7,CA,WHISKEYTOWN RSVR,17,123
USC00049742,38.5228,-121.968,41.1,CA,WINTERS,22,107
USC00050109,40.155,-103.142,1383.8,CO,AKRON 4 E,172,120
USC00050214,39.5008,-108.379,1730.3,CO,ALTENBERN,130,115
USC00050263,38.9933,-105.892,2718.8,CO,ANTERO RSVR,150,110
USC00050454,39.4047,-105.477,2356.1,CO,BAILEY,154,114
USC00050848,39.9919,-105.267,1671.5,CO,BOULDER,155,118
USC00051071,38.8247,-106.128,2421.9,CO,BUENA VISTA 2S,148,109
USC00051179,39.7403,-104.128,1554.5,CO,BYERS 5 ENE,164,116
USC00051268,37.0158,-102.555,1255.2,CO,CAMPO 7 S,177,95
USC00051294,38.46,-105.226,1635.6,CO,CANON CITY,156,106
USC00051528,39.2203,-105.278,2097,CO,CHEESMAN,155,112
USC00051564,38.8219,-102.351,1313.7,CO,CHEYENNE WELLS,179,109
USC00051713,38.4461,-106.761,2439,CO,COCHETOPA CREEK,143,106
USC00051886,37.3444,-108.593,1879.7,CO,CORTEZ,129,97
USC00051959,38.8739,-106.977,2702.1,CO,CRESTED BUTTE,142,109
USC00051964,37.9806,-105.69,2439.6,CO,CRESTONE 2 SE,152,102
USC00052184,37.6742,-106.325,2396.9,CO,DEL NORTE 2E,147,100
USC00052281,39.6261,-106.035,2763,CO,DILLON 1 E,149,116
USC00052494,39.1092,-104.6,2197.6,CO,EASTONVILLE 2 NNW,161,111
USC00053005,40.6147,-105.131,1525.2,CO,FT COLLINS,156,123
USC00053079,38.1236,-104.008,1319.8,CO,FOWLER 1 SE,165,103
USC00053489,39.0422,-108.466,1450.8,CO,GRAND JUNCTION 6 ESE,130,111
USC00053500,40.185,-105.867,2526.2,CO,GRAND LAKE 6 SSW,151,120
USC00053553,40.4022,-104.699,1437.1,CO,GREELEY UNC,160,122
USC00053629,39.9364,-105.35,2429.3,CO,GROSS RSVR,155,118
USC00053828,38.4467,-103.161,1378.3,CO,HASWELL,172,106
USC00053867,40.4928,-107.255,1971.1,CO,HAYDEN,139,122
USC00054082,40.5453,-102.341,1152.1,CO,HOLYOKE,179,123
USC00054444,38.7411,-103.543,1546.9,CO,KARVAL,169,108
USC00054452,39.49,-105.095,1702.9,CO,KASSLER,157,114
USC00054726,37.7511,-103.478,1283.2,CO,LA JUNTA 20 S,170,101
USC00054742,38.9075,-105.471,2606,CO,LAKE GEORGE 8 SW,154,110
USC00054770,38.0936,-102.631,1105.5,CO,LAMAR,176,103
USC00054834,38.0636,-103.215,1185.7,CO,LAS ANIMAS,172,103
USC00054934,37.3769,-107.656,2549.7,CO,LEMON DAM,136,98
USC00054945,40.4897,-103.082,1386.8,CO,LEROY 9 WSW,173,122
USC00055531,37.1986,-108.488,2160.1,CO,MESA VERDE NP,130,96
USC00055722,38.4858,-107.879,1764.5,CO,MONTROSE 2,134,106
USC00056136,38.53,-103.706,1453,CO,ORDWAY 21 N,168,107
USC00056266,39.1136,-108.351,1448.1,CO,PALISADE,131,111
USC00056306,38.8522,-107.624,1699.6,CO,PAONIA 1 SW,137,109
USC00056765,38.2597,-104.717,1479.8,CO,PUEBLO RSVR,160,105
USC00056816,39.8297,-105.235,1798.3,CO,RALSTON RSVR,156,117
USC00056832,40.0894,-108.772,1610.9,CO,RANGELY 1 E,127,119
USC00057167,38.0392,-103.693,1271,CO,ROCKY FORD 2 SE,168,103
USC00057460,38.4039,-106.424,2578.6,CO,SARGENTS,146,106
USC00057510,39.4036,-104.952,1821.2,CO,SEDALIA 4 SSE,158,114
USC00057515,40.8592,-102.517,1216.2,CO,SEDGWICK 5 S,177,125
USC00058157,38.3422,-104.057,1488,CO,TACONY 13 SE,165,105
USC00058184,38.8183,-106.609,2797.8,CO,TAYLOR PARK,145,109
USC00058204,37.9492,-107.874,2635.6,CO,TELLURIDE 4WNW,135,102
USC00058560,38.3761,-108.742,1530.4,CO,URAVAN,128,106
USC00058756,40.7442,-106.279,2455.5,CO,WALDEN,147,124
USC00058781,37.6303,-104.796,1920.2,CO,WALSENBURG 1 NW,159,100
USC00058793,37.3822,-102.299,1212.5,CO,WALSH 1 W,179,98
USC00058995,39.775,-105.117,1645.3,CO,WHEAT RIDGE 2,157,117
USC00059096,40.0375,-106.204,2322,CO,WILLIAMS FORK DAM,148,119
USC00059265,40.1561,-106.909,2394.8,CO,YAMPA,142,120
USC00060299,41.9211,-72.9644,214.9,CT,BARKHAMSTED,414,134
USC00062658,41.95,-73.3667,167.6,CT,FALLS VILLAGE,411,134
USC00063207,41.3511,-72.0389,12.2,CT,GROTON,421,130
USC00065445,41.9725,-73.2208,408.4,CT,NORFOLK 2 SW,412,134
USC00065910,41.5269,-72.0642,6.1,CT,NORWICH PUB UTIL PLT,421,131
USC00069775,41.5536,-73.2297,198.1,CT,WOODBURY,412,131
USC00072730,39.2583,-75.5167,9.1,DE,DOVER,393,113
USC00079605,39.7739,-75.5414,82.3,DE,WILMINGTON PORTER RES,393,117
USC00080236,27.1819,-81.3508,42.7,FL,ARCHBOLD BIO STN,347,16
USC00080369,27.5947,-81.5267,46.9,FL,AVON PARK 2 W,345,19
USC00080945,27.4467,-82.5014,6.1,FL,BRADENTON 5 ESE,337,18
USC00081276,26.8639,-80.6256,9.1,FL,CANAL POINT USDA,353,13
USC00081544,30.7836,-85.4847,39.6,FL,CHIPLEY,314,45
USC00082229,29.0181,-81.3106,7.6,FL,DELAND 1 SSE,347,31
USC00082288,27.3697,-81.5136,25.9,FL,DESOTO CITY 8 SW,345,17
USC00082944,30.6589,-81.4636,4,FL,FERNANDINA BEACH,345,44
USC00083163,26.1019,-80.2011,4.9,FL,FT LAUDERDALE,356,7
USC00083207,27.4417,-80.3508,7.6,FL,FT PIERCE,355,18
USC00083874,29.7653,-81.4697,3,FL,HASTINGS 4NE,346,37
USC00083956,29.8286,-82.5972,19.8,FL,HIGH SPRINGS,337,37
USC00084289,28.8028,-82.3125,12.2,FL,INVERNESS 3 SE,339,29
USC00084366,30.2875,-81.3928,3,FL,JACKSONVILLE BEACH,346,41
USC00084394,30.5228,-82.9447,44.8,FL,JASPER,334,43
USC00084731,30.1853,-82.5942,59.4,FL,LAKE CITY 2 E,337,40
USC00085076,28.8728,-81.7844,20.7,FL,LISBON,343,29
USC00085275,30.4517,-83.4119,36.6,FL,MADISON,330,42
USC00085539,30.1064,-83.1819,19.8,FL,MAYO,332,39
USC00085895,26.84,-81.0872,10.7,FL,MOORE HAVEN LOCK 1,349,13
USC00085973,27.9378,-81.5992,38.1,FL,MTN LAKE,345,22
USC00086065,27.2417,-82.3161,6.1,FL,MYAKKA RIVER SP,339,16
USC00086406,25.8603,-81.0331,2.4,FL,OASIS RS,349,5
USC00086414,29.1636,-82.0778,22.9,FL,OCALA,341,32
USC00086842,30.2492,-85.6606,1.5,FL,PANAMA CITY 5N,312,40
USC00086880,27.6089,-82.3478,18.3,FL,PARRISH,339,19
USC00087025,30.0986,-83.5742,13.7,FL,PERRY,329,39
USC00087205,28.0236,-82.1422,36.6,FL,PLANT CITY,340,23
USC00087397,26.9164,-81.9983,6.1,FL,PUNTA GORDA 4 ESE,342,14
USC00087760,25.3867,-80.5936,2.1,FL,ROYAL PALM RS,353,2
USC00087826,29.8875,-81.2917,3.7,FL,ST AUGUSTINE LH,347,38
USC00087851,28.3378,-82.26,57.9,FL,SAINT LEO,339,25
USC00088824,28.1522,-82.7539,2.4,FL,TARPON SPGS SEWAGE PL,336,24
USC00088942,28.6242,-80.8158,1.5,FL,TITUSVILLE,351,27
USC00089120,29.4083,-82.8186,10.1,FL,USHER TWR,335,34
USC00089176,27.1006,-82.4364,2.4,FL,VENICE,338,15
USC00089566,30.1192,-85.2042,12.8,FL,WEWAHITCHKA,316,39
USC00090010,31.9381,-83.3078,73.2,GA,ABBEVILLE 4S,331,54
USC00090140,31.5339,-84.1489,54.9,GA,ALBANY 3 SE,324,51
USC00090444,33.8264,-84.4961,276.5,GA,ATLANTA 9NW,322,69
USC00090969,34.8544,-83.9444,594.1,GA,BLAIRSVILLE EXP STN,326,77
USC00091340,31.1681,-81.5022,4,GA,BRUNSWICK,345,48
USC00091372,32.3178,-84.5203,196.9,GA,BUENA VISTA,321,57
USC00091500,31.1903,-84.2036,53.3,GA,CAMILLA 3SE,324,48
USC00091640,33.5972,-85.0806,303.3,GA,CARROLLTON,317,67
USC00091670,34.1825,-84.7958,234.7,GA,CARTERSVILLE 2,319,72
USC00091863,34.7589,-84.765,216.4,GA,CHATSWORTH 2,319,77
USC00092006,34.5858,-83.7658,477.6,GA,CLEVELAND,327,75
USC00092180,34.2625,-83.4894,228.6,GA,COMMERCE 4 NNW,330,73
USC00092266,31.985,-83.7747,93.9,GA,CORDELE,327,54
USC00092283,34.5181,-83.5286,448.1,GA,CORNELIA,329,75
USC00092361,31.8453,-83.9408,74.7,GA,CRISP CO PWR DAM,326,53
USC00092485,33.9881,-84.7475,335.3,GA,DALLAS 7 NE,320,70
USC00092839,32.5575,-82.9036,70.1,GA,DUBLIN,334,59
USC00092966,32.2003,-83.2058,121.9,GA,EASTMAN 1 W,332,56
USC00093060,34.1406,-82.855,164.6,GA,ELBERTON 2 N,335,72
USC00093115,34.6936,-84.4936,414.2,GA,ELLIJAY,322,76
USC00093147,33.875,-85.0008,388,GA,EMBRY,317,70
USC00093465,30.74,-82.1278,36.6,GA,FOLKSTON 9 SW,340,44
USC00093538,31.8717,-81.6289,28,GA,FT STEWART,344,53
USC00093621,34.3006,-83.86,356.6,GA,GAINESVILLE,327,73
USC00093695,33.2261,-82.595,126.8,GA,GIBSON,337,64
USC00094429,31.0767,-82.8003,57,GA,HOMERVILLE 5 N,335,47
USC00094648,34.4758,-84.4461,446.5,GA,JASPER 1 NNW,322,74
USC00094700,33.5311,-84.3544,283.5,GA,JONESBORO,323,67
USC00094728,33.1139,-83.7881,137.2,GA,JULIETTE,327,63
USC00095314,33.0125,-82.3914,98.1,GA,LOUISVILLE 1 E,338,63
USC00095979,32.2903,-84.0314,99.7,GA,MONTEZUMA,325,57
USC00096043,31.6061,-84.6453,83.2,GA,MORGAN 5 NW,320,51
USC00096087,31.1769,-83.7492,103.6,GA,MOULTRIE 2 ESE,328,48
USC00097087,32.0467,-84.3711,152.4,GA,PLAINS SW GA EXP STN,323,55
USC00097201,32.0547,-84.5239,123.4,GA,PRESTON,321,55
USC00097600,34.2453,-85.1514,200.9,GA,ROME,316,72
USC00097777,32.9744,-82.8045,137.5,GA,SANDERSVILLE,335,62
USC00098064,33.5636,-83.0767,211.8,GA,SILOAM 3N,333,67
USC00098600,34.0861,-84.9828,219.8,GA,TAYLORSVILLE,318,71
USC00098703,31.4461,-83.4767,115.8,GA,TIFTON,330,50
USC00098740,34.5786,-83.3319,308.5,GA,TOCCOA,331,75
USC00098950,33.8722,-83.5358,256,GA,U OF GA PLT SCI,329,69
USC00099157,33.7264,-82.7058,189,GA,WASHINGTON 2 ESE,336,68
USC00099186,31.2514,-82.3128,44.2,GA,WAYCROSS 4 NE,339,49
USC00099506,32.9708,-84.6103,222.5,GA,WOODBURY,321,62
USC00100010,42.9536,-112.825,1342.6,ID,ABERDEEN EXP STN,95,142
USC00101017,43.7383,-116.202,1184.1,ID,BOISE 7 N,68,148
USC00101514,44.5228,-116.048,1492.3,ID,CASCADE 1 NW,69,155
USC00101636,43.9592,-115.845,1353.3,ID,CENTERVILLE ARBAUGH RC,71,150
USC00102159,46.0336,-116.392,1202.4,ID,COTTONWOOD 2 WSW,66,167
USC00102707,44.2436,-112.201,1661.2,ID,DUBOIS EXP STN,100,152
USC00102845,46.5022,-116.322,303.3,ID,DWORSHAK FISH HATCH,67,171
USC00102942,43.8544,-116.466,728.5,ID,EMMETT 2 E,66,149
USC00103732,42.5872,-111.728,1691.6,ID,GRACE,104,139
USC00104140,42.5972,-114.138,1237.5,ID,HAZELTON,84,139
USC00104456,43.3456,-111.785,1776.4,ID,IDAHO FALLS 16 SE,103,145
USC00104670,42.7325,-114.519,1140,ID,JEROME,81,140
USC00105275,42.1231,-111.314,1806.2,ID,LIFTON PUMPING STN,107,135
USC00105708,44.8869,-116.105,1531.6,ID,MC CALL,69,158
USC00106152,46.7281,-116.956,810.8,ID,MOSCOW U OF I,62,172
USC00106305,43.6039,-116.575,752.9,ID,NAMPA SUGAR FACTORY,65,147
USC00106424,46.2358,-116.247,987.6,ID,NEZPERCE,68,168
USC00106542,42.2342,-113.898,1389.6,ID,OAKLEY,86,136
USC00107648,43.2064,-116.749,1197.9,ID,REYNOLDS,64,144
USC00107673,43.0528,-114.158,1305.2,ID,RICHFIELD,84,143
USC00109303,42.5458,-114.346,1207,ID,TWIN FALLS 6 E,83,139
USC00110187,37.4814,-89.2344,195.1,IL,ANNA 2 NNE,284,98
USC00110356,40.7086,-90.3628,195.1,IL,AVON 5 NE,275,124
USC00110598,40.3436,-91.1125,198.1,IL,BENTLEY,269,121
USC00110868,41.1492,-89.6233,237.7,IL,BRADFORD 3SSE,281,128
USC00110993,37.1275,-88.6531,100.6,IL,BROOKPORT DAM 52,288,96
USC00111265,37.7308,-89.1658,118.9,IL,CARBONDALE SEWAGE PLT,284,100
USC00111420,41.3978,-88.2819,153.9,IL,CHANNAHON DRESDEN ISL DAM,291,130
USC00111491,37.9022,-89.8308,130.5,IL,CHESTER,279,102
USC00111497,42.1406,-87.7867,192,IL,CHICAGO BOTANIC GARDEN,295,136
USC00111700,38.6058,-88.3117,140.2,IL,CLAY CITY 6SSE,291,107
USC00111743,40.1375,-88.9675,213.4,IL,CLINTON 1SSW,286,120
USC00112140,40.1392,-87.6481,170.1,IL,DANVILLE,296,120
USC00112145,40.1019,-87.5961,160.6,IL,DANVILLE SEWAGE PLT,297,119
USC00112223,41.9342,-88.7756,266.1,IL,DE KALB,287,134
USC00112348,41.8472,-89.5047,213.4,IL,DIXON 1 NW,281,133
USC00112483,37.9878,-89.1931,128,IL,DU QUOIN 4 SE,284,102
USC00112923,40.7511,-88.4983,210.3,IL,FAIRBURY WWTP,290,125
USC00112931,38.3806,-88.3264,131.1,IL,FAIRFIELD RADIO WFIW,291,106
USC00113109,38.7103,-88.5758,152.4,IL,FLORA 5 NW,289,108
USC00113262,42.2972,-89.6039,228.6,IL,FREEPORT WASTE WTP,281,137
USC00113312,42.3994,-90.3861,229.5,IL,GALENA,274,138
USC00113320,40.9464,-90.3856,235,IL,GALESBURG,274,126
USC00113666,39.3425,-90.2056,167,IL,GREENFIELD,276,113
USC00114089,38.7583,-89.6556,160,IL,HIGHLAND,280,109
USC00114198,40.4742,-87.6564,216.4,IL,HOOPESTON 1NE,296,122
USC00114355,41.4256,-91.0094,167.6,IL,ILLINOIS CITY DAM 16,269,130
USC00114442,39.7347,-90.1978,185.9,IL,JACKSONVILLE 2E,276,116
USC00114489,39.1053,-90.3419,192,IL,JERSEYVILLE 2 SW,275,111
USC00114530,41.5033,-88.1028,165.5,IL,JOLIET BRANDON RD DAM,293,131
USC00114603,41.1381,-87.8856,195.1,IL,KANKAKEE WASTEWATER,294,128
USC00114805,41.0411,-89.4061,140.2,IL,LACON 1N,282,127
USC00114823,40.5839,-90.9686,210.3,IL,LA HARPE,270,123
USC00114957,38.7267,-87.69,134.7,IL,LAWRENCEVILLE,296,108
USC00115372,41.3286,-88.7533,149.4,IL,MARSEILLES LOCK,287,129
USC00115430,39.4725,-88.3544,219.5,IL,MATTOON,291,114
USC00115768,40.9442,-90.6381,219.5,IL,MONMOUTH,272,126
USC00115841,39.4158,-89.4614,192,IL,MORRISONVILLE,282,114
USC00115901,42.0981,-89.9842,195.1,IL,MT CARROLL,278,135
USC00115943,38.3483,-88.8533,149.4,IL,MT VERNON 3 NE,287,105
USC00116011,38.3431,-89.3586,156.4,IL,NASHVILLE 1 E,283,105
USC00116080,41.1922,-91.0578,167,IL,NEW BOSTON DAM 17,269,128
USC00116200,40.5492,-88.9497,243.8,IL,NORMAL 4NE,286,123
USC00116446,38.7003,-88.0817,146.3,IL,OLNEY 2S,293,108
USC00116526,41.3283,-88.9106,160,IL,OTTAWA 5SW,286,129
USC00116610,39.6186,-87.6672,199,IL,PARIS STP,296,115
USC00116616,41.4947,-87.6803,216.4,IL,PARK FOREST,296,130
USC00116725,41.3269,-87.7858,219.5,IL,PEOTONE,295,129
USC00116753,41.3503,-89.1072,189,IL,PERU,285,129
USC00117126,39.1483,-89.1022,182.9,IL,RAMSEY,285,112
USC00117157,38.1853,-89.9283,131.1,IL,RED BUD 5 SE,278,104
USC00117354,41.9117,-89.0708,236.2,IL,ROCHELLE,285,134
USC00117603,38.9364,-88.0228,152.4,IL,STE MARIE (RIVER),293,110
USC00117636,38.6453,-88.9461,167.6,IL,SALEM,286,108
USC00117952,39.9811,-87.8769,205.7,IL,SIDELL 5NW,294,118
USC00118020,37.1644,-88.4311,108.8,IL,SMITHLAND L&D,290,96
USC00118293,42.4006,-89.9958,295.7,IL,STOCKTON 3 NNE,278,138
USC00118740,40.0839,-88.2403,219.8,IL,URBANA,292,119
USC00118870,39.9494,-90.2083,189,IL,VIRGINIA,276,118
USC00118932,38.2133,-89.085,155.8,IL,WALTONVILLE,285,104
USC00119241,39.4411,-90.3789,176.8,IL,WHITE HALL 1 E,274,114
USC00120182,40.105,-85.6717,265.2,IN,ANDERSON WTR WKS,312,119
USC00120200,41.6397,-84.9897,307.8,IN,ANGOLA,318,132
USC00120784,39.1742,-86.5214,253,IN,BLOOMINGTON IN UNIV,305,112
USC00120830,40.7475,-85.1739,251.5,IN,BLUFFTON 1 N,316,124
USC00121030,39.4239,-85.0128,192,IN,BROOKVILLE,317,114
USC00121747,39.1661,-85.9228,186.8,IN,COLUMBUS,310,112
USC00122096,40.8483,-84.93,249.9,IN,DECATUR 1 N,318,125
USC00122605,39.0311,-86.9369,179.8,IN,ELLISTON,302,111
USC00122825,40.2539,-85.1483,294.1,IN,FARMLAND 5 NNW,316,121
USC00123082,40.2986,-86.5067,251.2,IN,FRANKFORT DISPOSAL PLT,305,121
USC00123104,38.8672,-87.3083,167.6,IN,FREELANDVILLE,299,109
USC00123513,39.6439,-86.8767,224,IN,GREENCASTLE 1 W,302,116
USC00123527,39.7858,-85.7611,263.7,IN,GREENFIELD,311,117
USC00124662,40.4583,-86.1758,249.9,IN,KOKOMO 3 WSW,308,122
USC00124837,41.6117,-86.7297,257.6,IN,LAPORTE,304,131
USC00125117,40.7478,-86.3878,182.9,IN,LOGANSPORT CICOTT ST,306,124
USC00125337,40.58,-85.6586,240.8,IN,MARION 2 N,312,123
USC00126023,40.1825,-85.3497,292.6,IN,MUNCIE,315,120
USC00126164,39.8942,-85.3953,303.6,IN,NEW CASTLE 3 SW,314,118
USC00126580,38.8894,-86.5519,198.1,IN,OOLITIC PURDUE EX FRM,305,110
USC00126830,40.0739,-87.5067,193.2,IN,PERRYSVILLE 4 WNW,297,119
USC00127370,39.8544,-84.8778,309.4,IN,RICHMOND WTR WKS,318,117
USC00127482,41.0664,-86.2097,231.6,IN,ROCHESTER,308,127
USC00127724,38.1642,-86.8094,155.4,IN,SAINT MEINRAD,303,104
USC00127935,38.9822,-85.8989,173.7,IN,SEYMOUR 2 N,310,110
USC00128036,38.5528,-86.7944,154.2,IN,SHOALS 8 S,303,107
USC00129222,41.4439,-86.9294,224,IN,WANATAH 2 WNW,302,130
USC00129430,40.475,-86.9919,217.9,IN,WEST LAFAYETTE 6 NW,302,122
USC00129557,39.9961,-86.3542,289,IN,WHITESTOWN,307,118
USC00130112,41.0656,-92.7867,268.2,IA,ALBIA 3 NNE,255,127
USC00130203,41.9519,-93.5656,265.2,IA,AMES 5 SE,249,134
USC00130608,42.2614,-90.4233,183.8,IA,BELLEVUE L&D 12,274,137
USC00130745,40.6189,-94.505,341.4,IA,BLOCKTON 1W,241,123
USC00130753,40.7597,-92.4394,247.5,IA,BLOOMFIELD 1 WNW,258,125
USC00130807,42.0417,-93.8906,320.3,IA,BOONE,246,135
USC00130999,42.4172,-93.3775,350.5,IA,BUCKEYE,250,138
USC00131060,40.7747,-91.1164,210.3,IA,BURLINGTON 2S,269,125
USC00131319,42.05,-91.5881,246.9,IA,CEDAR RAPIDS NO 1,265,135
USC00131394,41.0164,-93.2792,286.5,IA,CHARITON 1 E,251,127
USC00131402,43.0775,-92.6714,309.1,IA,CHARLES CITY,256,143
USC00131442,42.7572,-95.5378,359.7,IA,CHEROKEE,233,141
USC00131533,40.7244,-95.0192,298.7,IA,CLARINDA,237,124
USC00131635,41.7947,-90.2639,178.3,IA,CLINTON 1,275,133
USC00131954,43.3894,-92.0939,382.5,IA,CRESCO 1 NE,261,146
USC00132171,42.0364,-95.3289,427,IA,DENISON,235,135
USC00132299,40.6458,-91.5639,214.9,IA,DONNELLSON,265,124
USC00132364,42.5397,-90.6464,189,IA,DUBUQUE L&D 11,272,139
USC00132864,42.8503,-91.8158,344.4,IA,FAYETTE,263,141
USC00133120,42.09,-92.6756,278,IA,GARWIN,256,135
USC00133239,41.8781,-92.7786,317,IA,GILMAN,255,134
USC00133438,41.2981,-94.4561,408.4,IA,GREENFIELD,242,129
USC00133473,41.7203,-92.7489,275.8,IA,GRINNELL 3 SW,256,132
USC00133487,42.3647,-92.7594,318.5,IA,GRUNDY CTR,255,137
USC00133517,42.7858,-91.0958,188.4,IA,GUTTENBERG L&D 10,269,141
USC00133632,41.6783,-95.3247,396.2,IA,HARLAN 1N,235,132
USC00133909,42.4897,-95.5489,417.6,IA,HOLSTEIN,233,138
USC00134063,41.3656,-93.6481,287.1,IA,INDIANOLA 2W,248,129
USC00134101,41.6092,-91.505,195.1,IA,IOWA CITY,265,131
USC00134228,42.0347,-94.4114,321.6,IA,JEFFERSON,242,135
USC00134308,42.9311,-93.7933,361.2,IA,KANAWHA,247,142
USC00134381,40.3967,-91.375,160.6,IA,KEOKUK LOCK DAM 19,267,122
USC00134557,43.4178,-93.5347,384,IA,LAKE MILLS,249,146
USC00134585,40.6233,-93.9508,343.8,IA,LAMONI,246,123
USC00134758,40.7244,-93.6453,304.8,IA,LEON 6 ESE,248,124
USC00134894,41.6381,-95.7883,301.8,IA,LOGAN,231,132
USC00135086,42.4733,-91.4517,301.8,IA,MANCHESTER 2,266,138
USC00135198,42.0647,-92.9244,265.2,IA,MARSHALLTOWN,254,135
USC00135230,43.1631,-93.1953,336.8,IA,MASON CITY,252,144
USC00135650,41.5836,-92.5497,294.1,IA,MONTEZUMA 1 W,257,131
USC00135837,41.4075,-91.0725,167.3,IA,MUSCATINE,269,130
USC00135952,43.0453,-92.3122,349.9,IA,NEW HAMPTON,259,143
USC00136243,42.0697,-96.1258,323.1,IA,ONAWA 3NW,228,135
USC00136527,41.3761,-92.9203,237.7,IA,PELLA 1S,254,130
USC00136755,42.5864,-93.4364,358.1,IA,POPEJOY 1S,250,139
USC00136891,40.8744,-95.5667,298.7,IA,RANDOLPH,233,125
USC00136940,41.0036,-95.2419,317,IA,RED OAK,236,127
USC00137386,43.1792,-95.6603,472.7,IA,SANBORN,232,144
USC00137594,43.1808,-95.8528,432.8,IA,SHELDON,231,144
USC00137700,43.0558,-96.1525,414.5,IA,SIOUX CTR 2 SE,228,143
USC00137726,42.8931,-95.0653,432.8,IA,SIOUX RAPIDS 4 E,237,142
USC00137844,43.1653,-95.1467,404.2,IA,SPENCER 1 N,236,144
USC00138296,42.0356,-92.5806,289.3,IA,TOLEDO 3N,257,135
USC00138568,42.1703,-92.0078,259.1,IA,VINTON,261,136
USC00139750,42.1669,-93.3097,340.2,IA,ZEARING,251,136
USC00140010,38.9267,-97.2128,356.6,KS,ABILENE,220,110
USC00140135,38.4694,-99.5519,630.9,KS,ALEXANDER,201,106
USC00140195,38.8619,-96.4892,441.7,KS,ALTA VISTA,226,109
USC00140313,37.0631,-97.04,340.8,KS,ARKANSAS CITY,221,95
USC00140365,37.1942,-99.7633,600.5,KS,ASHLAND,199,96
USC00140405,39.5756,-95.1108,288,KS,ATCHISON,237,115
USC00140439,39.7997,-101.042,894.3,KS,ATWOOD,189,117
USC00140443,38.9089,-95.815,328.9,KS,AUBURN,231,110
USC00140447,37.6983,-96.9706,374.9,KS,AUGUSTA,222,100
USC00140676,37.8264,-99.6542,723.9,KS,BELLEFONT 3S,200,101
USC00140693,39.4575,-98.1125,428.2,KS,BELOIT,213,114
USC00140836,39.6194,-101.544,1036.3,KS,BIRD CITY 10S,185,115
USC00140957,39.0636,-94.8958,253,KS,BONNER SPRINGS,238,111
USC00141003,39.9028,-96.7683,398.1,KS,BREMEN 1 E,223,118
USC00141104,37.5433,-99.6383,734.6,KS,BUCKLIN,200,99
USC00141141,38.2006,-99.5344,641.3,KS,BURDETT 1 NW,201,104
USC00141202,38.6453,-96.3506,381.9,KS,BUSHONG 5 W,227,108
USC00141233,37.0247,-97.6092,347.5,KS,CALDWELL,217,95
USC00141371,39.5067,-98.4305,448.1,KS,CAWKER CITY,210,115
USC00141395,37.0347,-96.4631,268.2,KS,CEDAR VALE 5SSE,226,95
USC00141452,38.3314,-98.3131,518.2,KS,CHASE 3 SE,211,105
USC00141522,37.8131,-100.346,819.9,KS,CIMARRON,195,101
USC00141536,38.5214,-98.5358,547.1,KS,CLAFLIN,209,107
USC00141559,39.3739,-97.1275,367.9,KS,CLAY CTR,220,113
USC00141593,39.5642,-97.2875,388.9,KS,CLIFTON,219,115
USC00141699,39.3925,-101.069,966.2,KS,COLBY 1SW,189,114
USC00141704,37.2706,-99.3272,634.9,KS,COLDWATER,203,97
USC00141730,38.8972,-100.114,733.7,KS,COLLYER 10 S,197,110
USC00141740,37.1764,-94.8397,275.8,KS,COLUMBUS,239,96
USC00141795,37.3842,-97.6431,417.6,KS,CONWAY SPRINGS,216,98
USC00141858,38.3703,-96.5483,371.9,KS,COTTONWOOD FALLS,225,105
USC00141867,38.6758,-96.5097,402.3,KS,COUNCIL GROVE LAKE,225,108
USC00141875,39.2425,-98.8678,573,KS,COVERT,207,112
USC00141999,39.3214,-99.5886,640.1,KS,DAMAR,201,113
USC00142086,39.6689,-99.7319,669.3,KS,DENSMORE 2N,200,116
USC00142135,38.5658,-96.8478,445.9,KS,BURDICK DIAMOND SPGS,223,107
USC00142213,39.625,-100.423,832.1,KS,DRESDEN,194,116
USC00142267,38.5967,-96.3806,367.9,KS,DUNLAP 2 N,226,107
USC00142401,37.8183,-96.8444,393.2,KS,EL DORADO,223,101
USC00142432,37.0058,-101.887,1097,KS,ELKHART,182,95
USC00142452,38.9486,-99.5647,652.3,KS,ELLIS,201,110
USC00142622,37.8253,-96.2644,335.3,KS,EUREKA 1E,227,101
USC00142835,37.8428,-94.7086,257.6,KS,FT SCOTT,240,101
USC00142848,39.525,-96.5572,374,KS,FOSTORIA 7 NW,225,115
USC00143008,38.28,-95.2178,305.1,KS,GARNETT 1 E,236,105
USC00143138,39.6539,-95.9808,424,KS,GOFF 3 WSW,230,116
USC00143175,38.9581,-100.553,818.4,KS,GOVE 4W,193,110
USC00143218,38.3758,-98.7803,566.9,KS,GREAT BEND,207,106
USC00143239,37.6025,-99.3022,683.7,KS,GREENSBURG,203,99
USC00143248,37.3589,-96.4483,352,KS,GRENOLA 1 N,226,97
USC00143323,39.8586,-97.2936,438.9,KS,HADDAM,219,117
USC00143527,38.8586,-99.3358,612.6,KS,HAYS 1 S,203,109
USC00143554,38.6003,-100.62,868.7,KS,HEALY,193,107
USC00143665,39.3617,-99.8278,654.4,KS,HILL CITY 1E,199,113
USC00143667,38.3569,-97.2025,435.9,KS,HILLSBORO,220,105
USC00143810,39.6678,-95.52,313.9,KS,HORTON,233,116
USC00143822,37.4603,-96.2869,313.9,KS,HOWARD 1W,227,98
USC00143837,39.3533,-100.44,824.8,KS,HOXIE,194,113
USC00143847,38.1042,-98.6592,569.1,KS,HUDSON,208,103
USC00143855,37.1644,-101.34,947.9,KS,HUGOTON,187,96
USC00143930,37.9311,-98.0297,478.5,KS,HUTCHINSON 10 SW,213,102
USC00143954,37.2364,-95.7003,245.4,KS,INDEPENDENCE,232,96
USC00143974,38.1869,-97.8417,464.8,KS,INMAN,215,104
USC00143984,37.9233,-95.4242,290.8,KS,IOLA 1 W,234,102
USC00143997,39.6611,-98.3483,481.6,KS,IONIA,211,116
USC00144089,39.6678,-98.1567,487.7,KS,JEWELL,212,116
USC00144161,38.0586,-100.299,813.8,KS,KALVESTA 1 W,195,103
USC00144313,37.6361,-98.1136,470.9,KS,KINGMAN,213,100
USC00144333,37.9283,-99.3656,658.1,KS,KINSLEY 2E,203,102
USC00144464,37.9411,-101.249,913.8,KS,LAKIN,188,102
USC00144598,39.8125,-98.5558,571.2,KS,LEBANON,209,117
USC00144608,38.4161,-95.8511,360,KS,LEBO,231,106
USC00144613,39.0464,-95.3919,271.9,KS,LECOMPTON,234,111
USC00144695,37.0222,-100.929,863.8,KS,LIBERAL,190,95
USC00144708,39.5942,-96.3331,409,KS,LILLIS,227,115
USC00144712,39.0294,-98.13,423.7,KS,LINCOLN 1 SE,212,111
USC00144735,38.5753,-97.6753,405.4,KS,LINDSBORG,216,107
USC00144775,39.6658,-99.5772,591.3,KS,LOGAN,201,116
USC00144807,39.9694,-99.5339,643.1,KS,LONG ISLAND 1N,201,118
USC00144812,37.3833,-96.0814,286.5,KS,LONGTON,229,98
USC00144821,38.6539,-99.1797,609.6,KS,LORETTA,204,108
USC00144857,39.9,-98.0256,488.3,KS,LOVEWELL DAM,213,118
USC00144937,38.1353,-96.14,356.6,KS,MADISON,228,104
USC00144972,39.1972,-96.5814,324.6,KS,MANHATTAN,225,112
USC00145039,38.3778,-97.0753,417.3,KS,MARION RSVR,221,106
USC00145063,39.8383,-96.6364,358.1,KS,MARYSVILLE,224,117
USC00145069,38.1847,-96.5692,396.2,KS,MATFIELD GREEN 2 N,225,104
USC00145127,39.7844,-101.369,1025.3,KS,MC DONALD,187,117
USC00145132,39.0542,-96.2367,313.9,KS,MC FARLAND,228,111
USC00145152,38.3772,-97.6097,463.3,KS,MCPHERSON,217,106
USC00145306,39.0744,-96.8983,368.8,KS,MILFORD LAKE,222,111
USC00145335,39.3506,-97.4547,433.1,KS,MILTONVALE,218,113
USC00145355,39.2767,-100.839,922,KS,MINGO 6E,191,113
USC00145463,37.9192,-95.175,335.3,KS,MORAN,236,102
USC00145539,37.8658,-97.6647,438.9,KS,MT HOPE,216,101
USC00145628,39.185,-99.025,557.8,KS,NATOMA,205,112
USC00145744,38.0344,-97.3431,438.9,KS,NEWTON,219,103
USC00145856,39.7411,-99.8361,719.3,KS,NORTON 9SSE,199,116
USC00145906,39.8183,-100.533,795.5,KS,OBERLIN,193,117
USC00145920,37.8167,-99.5611,685.8,KS,OFFERLE 5 S,201,101
USC00145972,38.8875,-94.7603,321.6,KS,OLATHE 3E,239,110
USC00146084,38.5019,-94.9597,262.1,KS,OSAWATOMIE,238,107
USC00146115,37.175,-95.1039,254.5,KS,OSWEGO 1 N,237,96
USC00146128,38.6133,-95.2808,280.1,KS,OTTAWA,235,107
USC00146209,38.5911,-94.8778,262.1,KS,PAOLA,238,107
USC00146217,39.5533,-96.8753,398.7,KS,PARALLEL,222,115
USC00146305,37.4347,-97.3922,374,KS,PECK 2 S,218,98
USC00146787,39.4572,-100.758,899.2,KS,REXFORD 1SW,191,114
USC00146813,37.2294,-101.951,1075.9,KS,RICHFIELD 10 WSW,182,96
USC00146979,37.8072,-96.6797,448.1,KS,ROSALIA 3W,224,101
USC00147007,39.1333,-95.9486,282.9,KS,ROSSVILLE,230,112
USC00147093,39.7675,-101.807,1024.7,KS,SAINT FRANCIS,183,117
USC00147095,39.8303,-101.919,1100.9,KS,ST FRANCIS 8NW,182,117
USC00147140,39.2044,-100.027,762,KS,SAINT PETER 4ENE,197,112
USC00147271,38.4819,-100.919,905.3,KS,SCOTT CITY,190,106
USC00147305,37.1317,-96.1861,274.3,KS,SEDAN,228,96
USC00147397,38.8961,-101.751,1051.6,KS,SHARON SPRINGS,183,110
USC00147542,39.7772,-98.7783,542.5,KS,SMITH CTR,207,117
USC00147796,38.2144,-98.2078,498.7,KS,STERLING,212,104
USC00147809,38.7694,-94.6683,335.3,KS,STILWELL,240,109
USC00147922,37.4414,-100.979,898.9,KS,SUBLETTE 7WSW,190,98
USC00148038,37.9928,-101.742,1008.3,KS,SYRACUSE 1NE,184,102
USC00148086,39.0175,-97.8814,399.3,KS,TESCOTT,214,111
USC00148156,39.0314,-95.0522,253,KS,TONGANOXIE 5SE,237,111
USC00148235,38.4661,-101.776,1108.3,KS,TRIBUNE 1W,183,106
USC00148245,37.8236,-99.0781,624.8,KS,TROUSDALE 1 NE,205,101
USC00148250,39.8283,-95.0881,317,KS,TROY 3N,237,117
USC00148287,37.5983,-101.291,932.7,KS,ULYSSES 3NE,187,99
USC00148323,38.6397,-100.168,798.6,KS,UTICA,196,108
USC00148341,39.3033,-95.4861,321.9,KS,VALLEY FALLS 3 SW,234,113
USC00148495,39.0297,-99.8831,749.8,KS,WAKEENEY,198,111
USC00148498,39.23,-99.88,722.4,KS,WAKEENEY 16N,198,112
USC00148549,37.5578,-95.06,275.8,KS,WALNUT 4S,237,99
USC00148563,39.2142,-96.3703,348.7,KS,WAMEGO 4 W,227,112
USC00148578,39.8089,-97.055,399.9,KS,WASHINGTON,221,117
USC00148670,37.2778,-97.4097,374.9,KS,WELLINGTON,218,97
USC00148802,38.7975,-96.7286,449.9,KS,WHITE CITY,224,109
USC00148964,37.2889,-96.9408,376.4,KS,WINFIELD 3NE,222,97
USC00150012,37.2317,-86.6867,149.4,KY,ABERDEEN,304,96
USC00150381,36.8825,-83.8819,301.8,KY,BARBOURVILLE,326,94
USC00150422,36.8978,-86.1247,189,KY,BARREN RIVER LAKE,309,94
USC00150450,36.8583,-83.3303,354.8,KY,BAXTER,331,93
USC00150700,36.7833,-83.5167,347.5,KY,BLACKMONT,329,93
USC00150875,37.7436,-85.7483,259.1,KY,BOSTON 6 SW,312,100
USC00150940,37.495,-85.1517,201.2,KY,BRADFORDSVILLE,316,98
USC00151227,37.5319,-87.2669,122.5,KY,CALHOUN LOCK 2,299,99
USC00151640,36.8833,-83.0167,548.6,KY,CLOSPLINT 4 ESE,333,94
USC00151725,37.0897,-85.3045,257.6,KY,COLUMBIA STATE POLICE,315,95
USC00152040,37.6528,-84.7708,274.3,KY,DANVILLE,319,100
USC00152072,37.1594,-87.6881,140.2,KY,DAWSON SPRINGS,296,96
USC00152791,38.1228,-83.5328,256,KY,CAVE RUN LAKE,329,103
USC00153246,37.0014,-85.9072,234.7,KY,GLASGOW,310,95
USC00153252,37.6011,-85.9067,216.4,KY,GLENDALE,310,99
USC00153398,38.2514,-82.9886,217.9,KY,GRAYSON LAKE,334,105
USC00153430,37.2592,-85.5022,179.8,KY,GREENSBURG,313,97
USC00154369,37.9397,-84.6597,265.2,KY,KEENE 1 WSW,320,102
USC00154848,38.6439,-82.8628,163.7,KY,LLOYD GREENUP DAM,335,108
USC00154955,38.2778,-85.7917,134.1,KY,LOUISVILLE MCALPINE,311,105
USC00155067,37.3475,-87.5239,129.5,KY,MADISONVILLE,297,97
USC00155524,36.8667,-84.8275,298.4,KY,MONTICELLO 3 NE,319,93
USC00155648,37.3542,-84.3369,353.6,KY,MT VERNON,323,97
USC00155694,36.6122,-88.3083,160.6,KY,MURRAY,291,91
USC00156170,38.2053,-84.2383,242.3,KY,PARIS,324,104
USC00156580,37.1244,-87.8672,151.5,KY,PRINCETON 1 SE,295,95
USC00156988,37.6178,-86.5044,170.7,KY,ROUGH RIVER LAKE,305,99
USC00157234,37.6031,-87.5222,146.3,KY,SEBREE 1 E,297,99
USC00157431,37.0875,-82.9925,365.8,KY,SKYLINE 1 SE,334,95
USC00157604,37.7161,-85.2342,231.6,KY,SPRINGFIELD,316,100
USC00157800,36.8861,-85.7067,263.3,KY,SUMMER SHADE,312,94
USC00158824,37.1842,-86.6353,141.7,KY,WOODBURY,304,96
USC00160007,29.9689,-92.1169,3,LA,ABBEVILLE,261,38
USC00160021,30.4372,-90.0519,9.1,LA,ABITA SPRING FIRE TWR,277,42
USC00160098,31.3206,-92.4611,26.5,LA,ALEXANDRIA,258,49
USC00160205,30.7094,-90.525,51.8,LA,AMITE,273,44
USC00160349,32.1633,-93.1331,73.2,LA,ASHLAND,252,56
USC00160462,30.5669,-91.1633,21.3,LA,BAKER,268,43
USC00160558,30.4494,-91.0478,16.8,LA,BATON ROUGE SHERWOOD,269,42
USC00160565,30.1328,-91.3228,4.6,LA,BAYOU SORREL LOCK,267,40
USC00160617,30.7925,-92.4953,32,LA,BEAVER FIRE TWR,258,45
USC00160800,32.3744,-92.9433,93.6,LA,BIENVILLE 3 NE,254,57
USC00161232,31.3944,-92.7164,33.5,LA,BOYCE 3 WNW,256,50
USC00161287,30.9594,-92.1786,24.4,LA,BUNKIE,260,46
USC00161411,32.5133,-92.3486,54.9,LA,CALHOUN RSCH STN,259,59
USC00161565,30.1981,-91.1256,7.6,LA,CARVILLE 2 SW,268,40
USC00161899,30.8178,-90.9733,61,LA,CLINTON 5 SE,270,45
USC00161979,32.1667,-92.1072,24.4,LA,COLUMBIA LOCK,261,56
USC00162121,32.8869,-93.4569,78.6,LA,COTTON VALLEY 5 NNW,250,62
USC00162151,30.5272,-90.1114,12.2,LA,COVINGTON 4 NNW,277,43
USC00162212,30.2408,-92.3478,7.6,LA,CROWLEY 2 NE,259,40
USC00162350,30.4803,-90.9614,10.7,LA,DENHAM SPRINGS,270,42
USC00162367,30.8428,-93.2869,57.9,LA,DE RIDDER,251,45
USC00162534,30.0719,-91.0278,9.1,LA,DONALDSONVILLE 4 SW,269,39
USC00162981,30.4917,-92.4303,15.2,LA,EUNICE,258,42
USC00163313,29.8233,-91.5442,3.7,LA,FRANKLIN 3 NW,265,37
USC00163433,29.4631,-90.3072,1.5,LA,GALLIANO,275,34
USC00163695,30.2033,-90.9225,3,LA,GONZALES,270,40
USC00163800,30.4192,-92.0439,16.8,LA,GRAND COTEAU,261,42
USC00164030,30.5031,-90.3772,10.7,LA,HAMMOND 5 E,274,43
USC00164355,32.81,-93.0625,65.5,LA,HOMER 1N,253,61
USC00164398,32.4508,-93.8372,75,LA,HOSSTON,247,58
USC00164674,29.9592,-91.7108,6.1,LA,JEANERETTE 5 NW,264,38
USC00164700,30.2003,-92.6642,7.6,LA,JENNINGS,256,40
USC00164732,32.255,-92.6544,100.6,LA,JONESBORO 4 ENE,256,57
USC00164739,31.4825,-91.8628,21.3,LA,JONESVILLE LOCKS,263,50
USC00164816,32.355,-93.8619,61,LA,KEITHVILLE,247,57
USC00165074,30.2544,-93.2186,1.5,LA,LAKE CHARLES 2 N,252,41
USC00165090,32.8067,-91.173,30.5,LA,LAKE PROVIDENCE,268,61
USC00165266,31.1417,-93.2397,8.5,LA,LEESVILLE,252,48
USC00165438,30.5197,-90.7544,13.1,LA,LIVINGSTON,271,43
USC00165620,30.3644,-91.1672,6.4,LA,LSU BEN-HUR FARM,268,41
USC00165630,31.1783,-92.4108,21.3,LA,LSU DEAN LEE RSCH STN,258,48
USC00165892,31.5769,-93.4817,77.7,LA,MANY,250,51
USC00166244,32.6053,-93.2947,56.4,LA,MINDEN,251,59
USC00166364,32.705,-93.9608,61,LA,MOORINGSPORT 1 N,246,60
USC00166394,29.6833,-91.1761,1.5,LA,MORGAN CITY,268,36
USC00166582,31.7722,-93.0956,39.6,LA,NATCHITOCHES,253,53
USC00166686,30.7267,-91.3672,13.7,LA,NEW ROADS 5 NE,267,44
USC00166836,30.8214,-92.6697,33.5,LA,OAKDALE,256,45
USC00166866,32.8642,-91.38,39.3,LA,OAK GROVE,266,61
USC00166911,30.7531,-90.9939,45.7,LA,OAKNOLIA 2N,270,45
USC00166938,30.6036,-92.7739,19.8,LA,OBERLIN FIRE TWR,255,43
USC00166995,30.5081,-92.0925,17.1,LA,OPELOUSAS,261,43
USC00167096,29.7892,-90.4286,1.5,LA,PARADIS 7 S,274,37
USC00167304,30.7111,-90.7525,57.9,LA,PINE GROVE FIRE TWR,271,44
USC00167366,30.3214,-91.2517,6.1,LA,PLAQUEMINE 2 N,267,41
USC00167448,30.4508,-91.2183,4.6,LA,PORT ALLEN,268,42
USC00167738,32.4219,-93.6381,47.2,LA,RED RIVER RSCH STN,248,58
USC00167767,30.0564,-90.5803,4.6,LA,RESERVE,273,39
USC00168046,30.9461,-93.2789,72.5,LA,ROSEPINE RSCH STN,251,46
USC00168067,32.5344,-92.6889,79.2,LA,RUSTON LA TECH,256,59
USC00168136,30.7775,-91.3769,35.1,LA,ST FRANCISVILLE,266,45
USC00168163,31.9497,-91.2336,23.8,LA,ST JOSEPH 3 N,268,54
USC00168436,32.5158,-93.7447,54.9,LA,SHREVEPORT DWTN,248,59
USC00168539,30.265,-89.7697,3,LA,SLIDELL,279,41
USC00168831,30.2383,-93.3447,3,LA,SULPHUR,251,40
USC00168923,32.3994,-91.1842,25.9,LA,TALLULAH,268,58
USC00169806,32.0997,-91.7022,24.4,LA,WINNSBORO 5 SSE,264,55
USC00170814,45.6603,-69.812,323.1,ME,BRASSUA DAM,439,164
USC00171628,44.9197,-69.2417,90.5,ME,CORINNA,444,158
USC00171975,45.1872,-69.1839,112.8,ME,DOVER-FOXCROFT WWTP,444,160
USC00172238,43.8786,-70.7539,160.9,ME,EAST HIRAM,431,150
USC00172765,44.6889,-70.1567,128,ME,FARMINGTON,436,156
USC00172878,47.2386,-68.6136,185.9,ME,FT KENT,449,176
USC00173261,45.1775,-67.7742,88.4,ME,GRAND LAKE STREAM,455,160
USC00173567,44.9442,-69.5458,97.5,ME,HARMONY,441,158
USC00173588,45.4589,-69.8631,253,ME,HARRIS STN,439,162
USC00174086,45.6233,-70.255,362.7,ME,JACKMAN,435,163
USC00174324,44.9656,-70.1711,192,ME,KINGFIELD,436,158
USC00174566,44.1,-70.2167,54.9,ME,LEWISTON,436,151
USC00174781,45.2219,-70.1983,353.6,ME,LONG FALLS DAM,436,160
USC00174878,44.72,-67.4539,6.1,ME,MACHIAS,458,156
USC00174927,44.7983,-69.8878,79.2,ME,MADISON,438,157
USC00175261,44.7931,-70.9167,445,ME,MIDDLE DAM,430,157
USC00175304,45.6503,-68.705,109.7,ME,MILLINOCKET,448,164
USC00175460,45.5869,-69.7161,313.3,ME,MOOSEHEAD,440,163
USC00175675,44.0461,-69.5367,57.9,ME,NEWCASTLE,441,151
USC00176937,46.6539,-68.0089,182.6,ME,PRESQUE ISLE,453,172
USC00177037,44.9892,-70.6719,466.3,ME,RANGELEY,432,158
USC00178965,47.1664,-67.9397,139,ME,VAN BUREN 2,454,176
USC00179314,43.6878,-70.6128,67.1,ME,WEST BUXTON 2 NNW,433,148
USC00181750,39.2167,-76.0519,12.2,MD,CHESTERTOWN,389,112
USC00182282,39.6419,-78.7561,222.5,MD,CUMBERLAND 2,367,116
USC00182325,38.9344,-77.1022,45.7,MD,DALECARLIA RSVR,381,110
USC00182906,39.6811,-77.2914,122.8,MD,EMMITSBURG 2 SE,379,116
USC00183415,39.66,-78.9358,661.4,MD,FROSTBURG 2,366,116
USC00185865,38.4617,-76.6992,30.5,MD,MECHANICSVILLE 5 NE,384,106
USC00187806,38.7144,-76.1897,3,MD,ROYAL OAK 2 SSW,388,109
USC00188000,38.365,-75.5892,3,MD,SALISBURY,393,105
USC00188380,38.2364,-75.3789,9.1,MD,SNOW HILL 4 N,394,104
USC00190120,42.3861,-72.5375,43.3,MA,AMHERST,417,138
USC00190190,42.6178,-71.9158,337.7,MA,ASHBURNHAM,422,139
USC00190213,42.5133,-72.8508,408.4,MA,ASHFIELD,415,139
USC00190408,42.4283,-72.0275,253,MA,BARRE FALLS DAM,421,138
USC00190535,42.4833,-71.2833,48.8,MA,BEDFORD,427,138
USC00190562,42.2794,-72.3483,166.7,MA,BELCHERTOWN,419,137
USC00190860,42.0478,-71.005,24.4,MA,BROCKTON,429,135
USC00191386,41.6569,-69.9589,12.2,MA,CHATHAM,437,132
USC00192451,41.7653,-70.6697,9.1,MA,EAST WAREHAM,432,133
USC00192501,41.3853,-70.5181,9.1,MA,EDGARTOWN,432,130
USC00192997,42.0792,-71.4094,76.2,MA,FRANKLIN,426,135
USC00193624,42.2269,-70.9125,10.7,MA,HINGHAM,430,136
USC00194580,42.4292,-71.4425,62.5,MA,MAYNARD 2,426,138
USC00194744,42.5947,-71.0208,27.4,MA,MIDDLETON,429,139
USC00195175,42.2825,-71.3439,54.9,MA,NATICK,427,137
USC00195285,42.8633,-70.8997,25.9,MA,NEWBURYPORT 4 NNW,430,141
USC00195524,42.115,-71.6758,96,MA,NORTHBRIDGE 2,424,135
USC00195984,41.9928,-71.1667,29,MA,NORTON WEST,428,134
USC00196486,41.9819,-70.6961,13.7,MA,PLYMOUTH-KINGSTON,432,134
USC00196783,42.5242,-71.1264,27.4,MA,READING,428,139
USC00196938,41.785,-70.9175,19.8,MA,ROCHESTER,430,133
USC00198278,42.4444,-72.5528,68.6,MA,SUNDERLAND,417,138
USC00198757,42.1608,-71.2461,50.3,MA,WALPOLE 2,428,136
USC00198793,42.2622,-72.2483,121.9,MA,WARE,420,137
USC00200032,41.9164,-84.0158,231.6,MI,ADRIAN 2 NNE,325,134
USC00200146,43.3864,-84.6492,224,MI,ALMA,320,146
USC00200230,42.2947,-83.7108,274.3,MI,ANN ARBOR U OF MICH,328,137
USC00200417,43.8081,-82.9939,217.9,MI,BAD AXE,334,149
USC00200779,43.7072,-85.4822,283.5,MI,BIG RAPIDS WTR WKS,314,148
USC00200864,42.3842,-85.9625,221,MI,BLOOMINGDALE,310,138
USC00200925,45.1672,-84.9139,221.9,MI,BOYNE FALLS,318,160
USC00201361,43.5861,-83.1805,212.8,MI,CASS CITY 1 SSW,332,147
USC00201492,45.6528,-84.4725,179.2,MI,CHEBOYGAN,321,164
USC00202094,45.9983,-83.9014,181.4,MI,DETOUR VILLAGE,325,167
USC00202250,41.9856,-86.1319,225.6,MI,DOWAGIAC 1 W,308,134
USC00202381,45.1519,-85.1322,178.3,MI,EAST JORDAN,316,160
USC00202423,44.2839,-83.5036,178.6,MI,EAST TAWAS,329,153
USC00202445,42.0147,-86.2408,265.2,MI,EAU CLAIRE 4 NE,308,135
USC00203429,43.2025,-85.2422,268.8,MI,GREENVILLE 2 NNE,316,144
USC00203661,42.6422,-85.2875,249.9,MI,HASTINGS,315,140
USC00203744,46.665,-88.375,509,MI,HERMAN,290,172
USC00203947,42.5939,-83.9325,279.5,MI,HOWELL WWTP,326,139
USC00204090,45.7858,-88.0842,326.4,MI,IRON MT KINGSFORD WWTP,293,165
USC00204257,44.7281,-85.1728,315.5,MI,KALKASKA,316,156
USC00204502,44.3089,-85.205,374.9,MI,LAKE CITY EXP FARM,316,153
USC00204944,42.9292,-85.3403,195.1,MI,LOWELL,315,142
USC00205603,41.7217,-84.2147,234.7,MI,MORENCI,324,132
USC00205892,41.8406,-86.2658,198.1,MI,NILES,307,133
USC00207812,46.0556,-88.6275,442,MI,STAMBAUGH 2SSE,288,167
USC00208184,41.9297,-85.6383,246.9,MI,THREE RIVERS,312,134
USC00208800,44.2542,-84.2011,269.7,MI,WEST BRANCH 3SE,324,153
USC00210075,43.6064,-93.3019,374.9,MN,ALBERT LEA 3 SE,251,147
USC00210252,48.3311,-96.8253,258.2,MN,ARGYLE,223,185
USC00210287,45.3783,-96.1542,333.1,MN,ARTICHOKE LAKE,228,162
USC00210667,45.3167,-95.6167,317,MN,BENSON,233,161
USC00210939,46.3433,-94.2086,359.7,MN,BRAINERD,244,169
USC00210989,47.2472,-91.8625,452.9,MN,BRIMSON 2S,263,176
USC00211263,44.7183,-96.2697,378.9,MN,CANBY,227,156
USC00211630,46.7047,-92.5253,385.6,MN,CLOQUET,257,172
USC00211691,45.5872,-94.4047,373.4,MN,COLLEGEVILLE ST JOHN,242,163
USC00212486,44.0969,-92.2703,338.3,MN,ELGIN 2SSW,259,151
USC00212721,44.3075,-93.265,286.5,MN,FARIBAULT,251,153
USC00213290,43.7047,-92.5644,411.5,MN,GRAND MEADOW,257,148
USC00213303,47.2436,-93.4975,399.3,MN,GRAND RPDS FOREST LAB,250,176
USC00213520,43.5458,-92.0122,411.5,MN,HARMONY,261,147
USC00213793,45.9919,-92.9928,315.5,MN,HINCKLEY,254,166
USC00214418,43.8658,-91.31,197.2,MN,LA CRESCENT DAM 7,267,149
USC00214546,44.2394,-95.3153,348.7,MN,LAMBERTON SW EXP STN,235,152
USC00214563,43.7203,-91.9717,291.1,MN,LANESBORO,262,148
USC00214652,47.2467,-94.2228,396.8,MN,LEECH LAKE,244,176
USC00214793,45.9933,-94.3508,341.4,MN,LITTLE FALLS 1 N,243,166
USC00214861,45.9647,-94.8892,408.4,MN,LONG PRAIRIE,238,166
USC00215488,44.16,-91.8122,204.2,MN,MINNESOTA CITY DAM 5,263,152
USC00215598,46.4378,-92.7578,338.3,MN,MOOSE LAKE 1 SSE,255,170
USC00215638,45.5903,-95.8747,347.5,MN,MORRIS WC EXP STN,231,163
USC00215842,45.305,-94.9392,381,MN,NEW LONDON,238,161
USC00216287,44.0981,-93.2308,350.5,MN,OWATONNA,252,151
USC00216405,46.5689,-96.0886,417.6,MN,PELICAN RAPIDS,229,171
USC00216547,46.6694,-94.1089,381,MN,PINE RIVER DAM,245,172
USC00216612,47.2508,-93.5861,390.1,MN,POKEGAMA DAM,249,177
USC00216654,43.6725,-92.0747,283.5,MN,PRESTON,261,148
USC00216787,47.8881,-96.2658,332.2,MN,RED LAKE FALLS,227,182
USC00216817,44.5714,-92.5283,209.7,MN,RED WING,257,155
USC00217502,45.5461,-93.7572,307.8,MN,SANTIAGO 3 E,247,163
USC00217907,44.2469,-94.9864,324.9,MN,SPRINGFIELD 1 NW,238,152
USC00218419,47.0258,-91.6653,190.5,MN,TWO HARBORS,264,175
USC00218552,44.385,-92.0486,213.4,MN,WABASHA,261,154
USC00218579,46.3939,-95.3939,418.2,MN,WADENA 3 S,234,170
USC00218692,44.0708,-93.5264,351.4,MN,WASECA EXP STN,249,151
USC00219004,45.1078,-95.0358,335.3,MN,WILLMAR WWTP,237,159
USC00219046,43.7639,-94.1661,338.3,MN,WINNEBAGO,244,149
USC00219059,47.4306,-94.0586,400.8,MN,WINNIBIGOSHISH DAM,245,178
USC00219072,44.0875,-91.6703,202.1,MN,WINONA DAM 5 A,264,151
USC00219170,43.645,-95.5803,478.5,MN,WORTHINGTON 2 NNE,233,148
USC00219249,44.2992,-92.6661,300.2,MN,ZUMBROTA,256,153
USC00220008,34.5011,-89.5008,123.7,MS,ABBEVILLE,281,75
USC00220021,33.83,-88.5214,60.4,MS,ABERDEEN,289,69
USC00220237,34.7497,-90.1336,73.2,MS,ARKABUTLA DAM,276,76
USC00220290,34.8492,-89.1597,183.8,MS,ASHLAND,284,77
USC00220955,34.6344,-88.5622,149.4,MS,BOONEVILLE,289,76
USC00221094,31.5447,-90.4581,132.6,MS,BROOKHAVEN CITY,274,51
USC00221152,33.9917,-89.3736,82.3,MS,BRUCE 2 W,283,70
USC00221174,31.5475,-88.5172,45.7,MS,BUCKATUNNA 1 NE,289,51
USC00221489,32.7506,-89.5389,112.8,MS,CARTHAGE,281,61
USC00221804,33.9803,-89.6714,73.5,MS,COFFEEVILLE,280,70
USC00221860,32.42,-88.7603,94.5,MS,COLLINSVILLE 7 SE,287,58
USC00221865,31.2503,-89.8361,45.7,MS,COLUMBIA,279,49
USC00221880,33.4678,-88.3847,44.2,MS,COLUMBUS,290,66
USC00222385,31.9544,-89.9328,101.8,MS,D'LO 2 SW,278,54
USC00222773,34.1606,-89.9019,92,MS,ENID DAM,278,72
USC00223208,34.2614,-88.4569,106.7,MS,FULTON 3 W,290,73
USC00223340,32.9267,-88.8536,151.8,MS,GHOLSON 8 W,287,62
USC00223700,34.4839,-88.7036,131.1,MS,GUNTOWN 3NW,288,74
USC00223887,31.2547,-89.3392,117.3,MS,HATTIESBURG 5SW,283,49
USC00223920,31.8328,-90.4542,182.9,MS,HAZLEHURST 5 SW,274,53
USC00224173,34.8219,-89.4347,147.2,MS,HOLLY SPRINGS 4 N,282,77
USC00224377,34.6989,-89.8214,105.2,MS,INDEPENDENCE 1W,279,76
USC00224776,33.0583,-89.5797,125,MS,KOSCIUSKO,281,63
USC00224939,31.6756,-89.1236,68.6,MS,LAUREL,285,52
USC00224966,31.1494,-88.555,32,MS,LEAKESVILLE,289,48
USC00225943,31.8375,-89.5975,121.9,MS,MIZE 3SW,281,53
USC00225987,31.5519,-90.1058,58.2,MS,MONTICELLO,277,51
USC00226009,33.4517,-90.5097,35.7,MS,MOORHEAD,273,66
USC00226084,34.9056,-89.562,131.1,MS,MT PLEASANT 4SW,281,78
USC00226177,31.5889,-91.3408,59.4,MS,NATCHEZ,267,51
USC00226256,34.4739,-89.0022,115.8,MS,NEW ALBANY,285,74
USC00226308,32.3378,-89.0817,106.4,MS,NEWTON EXP STN,285,57
USC00226894,32.7692,-89.1303,125.9,MS,PHILADELPHIA 1 WSW,284,61
USC00227106,34.2486,-88.9975,143.3,MS,PONTOTOC,286,72
USC00227111,34.1381,-88.9983,123.4,MS,PONTOTOC EXP STN,286,72
USC00227128,30.8408,-89.5453,95.4,MS,POPLARVILLE EXP STN,281,45
USC00227132,31.985,-90.9719,36.6,MS,PORT GIBSON 1 NE,270,54
USC00227220,31.1775,-89.4156,115.2,MS,PURVIS 2N,282,48
USC00227807,34.5369,-90.1933,102.1,MS,SARAH 3 SE,276,75
USC00227815,34.3961,-89.7903,92.4,MS,SARDIS DAM,279,74
USC00227840,30.6264,-89.055,69.8,MS,SAUCIER EXP FOREST,285,44
USC00227921,34.6314,-89.9592,73.2,MS,SENATOBIA,278,76
USC00228053,31.8606,-88.6964,61,MS,SHUBUTA,288,53
USC00228374,33.4692,-88.7822,56.4,MS,STATE UNIV,287,66
USC00228445,33.4311,-90.9108,38.7,MS,STONEVILLE EXP STA,270,66
USC00228556,31.4222,-89.5386,88.4,MS,SUMRALL,281,50
USC00229048,31.08,-90.0603,116.4,MS,TYLERTOWN 5ESE,277,47
USC00229114,33.3253,-89.7539,123.1,MS,VAIDEN 1 SSW,279,65
USC00229326,32.5972,-89.4606,96.9,MS,WALNUT GROVE,282,59
USC00229426,30.2947,-89.3831,2.4,MS,WAVELAND,282,41
USC00229597,32.0844,-89.7056,113.7,MS,WHITE OAK 2 N,280,55
USC00229743,33.4847,-89.6244,119.5,MS,WINONA 5 E,281,66
USC00229860,32.9028,-90.3817,32.6,MS,YAZOO CITY 5 NNE,274,62
USC00230143,39.8914,-94.36,296.9,MO,AMITY 4 NE,243,118
USC00230164,36.6519,-94.4386,320,MO,ANDERSON,242,92
USC00230204,38.1869,-94.0281,259.7,MO,APPLETON CITY,245,104
USC00230789,37.6167,-93.3911,315.2,MO,BOLIVAR 1 NE,250,99
USC00230980,39.765,-93.0594,233.8,MO,BROOKFIELD,253,117
USC00231145,38.2611,-94.405,240.8,MO,BUTLER 4W,242,105
USC00231340,39.3594,-93.4886,214.9,MO,CARROLLTON,250,113
USC00231773,39.5317,-93.5289,254.2,MO,COLOMA,249,115
USC00231837,38.9783,-93.5703,233.2,MO,CONCORDIA,249,110
USC00232289,36.6206,-90.8125,88.1,MO,DONIPHAN,271,91
USC00232482,40.1692,-92.1678,237.7,MO,EDINA,260,120
USC00232591,39.1506,-90.7847,137.2,MO,ELSBERRY 1 S,271,112
USC00233038,37.5739,-90.3086,219.2,MO,FREDERICKTOWN,275,99
USC00233079,38.8472,-91.9414,239,MO,FULTON,262,109
USC00233568,39.7425,-94.0347,274.3,MO,HAMILTON 2W,245,116
USC00233601,39.7233,-91.3719,217,MO,HANNIBAL WTR WKS,267,116
USC00234023,37.3344,-92.0058,327.7,MO,HOUSTON 2 W,261,97
USC00234271,38.5853,-92.1825,204.2,MO,JEFFERSON CITY WTP,260,107
USC00234919,37.5544,-91.8831,359.7,MO,LICKING 4N,262,99
USC00235027,37.3908,-93.9489,326.1,MO,LOCKWOOD,246,98
USC00235098,39.4514,-91.0464,156.1,MO,LOUISIANA,269,114
USC00235253,37.3036,-89.9664,118.9,MO,MARBLE HILL,278,97
USC00235307,37.3339,-92.9097,454.2,MO,MARSHFIELD,254,97
USC00235578,40.2211,-93.1097,256,MO,MILAN,253,120
USC00235834,37.1542,-92.2617,442,MO,MTN GROVE 2 N,259,96
USC00235987,37.8394,-94.3736,249.9,MO,NEVADA WTP,243,101
USC00236012,39.0172,-92.7558,195.4,MO,NEW FRANKLIN 1W,255,111
USC00236045,36.5869,-89.5325,92,MO,NEW MADRID,281,91
USC00236402,38.0492,-93.7036,217,MO,OSCEOLA,248,103
USC00236460,36.6597,-93.1261,213.4,MO,OZARK BEACH,252,92
USC00236493,39.7683,-91.5139,189,MO,PALMYRA,265,117
USC00236563,40.0147,-94.1294,251.5,MO,PATTONSBURG 2S,244,119
USC00236678,36.9494,-94.0078,374.9,MO,PIERCE CITY,245,94
USC00236804,36.4136,-89.6997,85.3,MO,PORTAGEVILLE,280,90
USC00237263,37.9572,-91.7758,355.7,MO,ROLLA UNI OF MISSOURI,263,102
USC00237632,38.6753,-93.2228,237.7,MO,SEDALIA WTP,252,108
USC00237963,40.2472,-93.7158,266.7,MO,SPICKARD 7 W,248,120
USC00238051,39.9714,-91.8872,210.3,MO,STEFFENVILLE,262,118
USC00238223,38.9664,-93.4194,205.7,MO,SWEET SPRINGS,250,110
USC00238313,36.5967,-92.2617,182.9,MO,TECUMSEH 1NE,259,91
USC00238515,38.4444,-91.0042,164.6,MO,UNION,269,106
USC00238561,38.5572,-90.4922,161.8,MO,VALLEY PARK,274,107
USC00238620,38.2017,-91.9811,234.7,MO,VIENNA 2 WNW,262,104
USC00238984,36.9708,-90.5586,155.4,MO,WILLIAMSVILLE,273,94
USC00240199,46.1314,-112.957,1609.3,MT,ANACONDA,94,168
USC00240412,46.3647,-104.275,894,MT,BAKER 1 E,163,169
USC00241008,46.2314,-112.114,1494.7,MT,BOULDER,101,168
USC00241044,45.6622,-111.045,1497.5,MT,BOZEMAN MONTANA ST U,109,164
USC00241047,45.675,-111.155,1455.4,MT,BOZEMAN 6 W EXP FARM,108,164
USC00241088,48.5475,-105.271,804.1,MT,BREDETTE,155,187
USC00241231,47.4647,-107.311,906.5,MT,BRUSETT 3 N,139,178
USC00241297,45.5397,-106.96,1045.5,MT,BUSBY,142,163
USC00241518,46.7447,-104.309,957.1,MT,CARLYLE 13 NW,163,172
USC00241525,47.7919,-111.219,1051.6,MT,CARTER 14 W,108,181
USC00241552,47.2194,-111.71,1024.1,MT,CASCADE 5 S,104,176
USC00241557,46.9956,-111.577,1402.1,MT,CASCADE 20 SSE,105,174
USC00241722,48.5883,-109.226,737.6,MT,CHINOOK,124,187
USC00241758,47.4122,-105.595,754.4,MT,CIRCLE,153,178
USC00241905,45.8944,-106.634,980.8,MT,COLSTRIP,144,166
USC00241938,45.6444,-109.268,1097.9,MT,COLUMBUS,123,164
USC00241974,48.1794,-111.961,1082,MT,CONRAD,102,184
USC00242122,48.1503,-104.509,591.9,MT,CULBERTSON,161,184
USC00242409,45.2128,-112.645,1593.5,MT,DILLION U OF MONTANA WESTERN,96,160
USC00242438,48.3919,-108.244,694.9,MT,DODSON,132,186
USC00242689,45.8903,-104.546,1043.9,MT,EKALAKA,161,166
USC00242793,45.3394,-111.711,1509.7,MT,ENNIS,104,161
USC00242827,48.8978,-115.064,771.8,MT,EUREKA RS,77,190
USC00242857,47.6153,-111.985,1214,MT,FAIRFIELD,102,179
USC00243098,46.2719,-106.674,766.6,MT,FORSYTH,144,169
USC00243176,48.0119,-106.412,630.9,MT,FT PECK PWR PLT,146,183
USC00243346,48.2922,-111.567,1082,MT,GALATA 16 SW,105,185
USC00243570,45.4686,-112.656,1511.8,MT,GLEN 2 E,96,162
USC00243617,48.9761,-111.399,1066.2,MT,GOLDBUTTE 7 N,106,190
USC00243707,44.9411,-113.028,1761.7,MT,GRANT 5 SE,93,158
USC00243727,47.0258,-108.803,1063.8,MT,GRASS RANGE,127,175
USC00244084,48.08,-116.001,682.8,MT,HERON 2 NW,69,183
USC00244174,48.7261,-110.455,899.2,MT,HINGHAM 12 N,114,188
USC00244241,46.9914,-112.012,1062.8,MT,HOLTER DAM,101,174
USC00244364,45.9353,-107.137,944.9,MT,HYSHAM 25 SSE,140,166
USC00244386,46.7392,-107.208,851.9,MT,INGOMAR 14 NE,140,172
USC00244558,48.3042,-114.264,901.3,MT,KALISPELL GLACIER AP,83,185
USC00244715,45.8728,-104.158,940.6,MT,KNOBS 4 SW,164,165
USC00244954,46.3619,-110.6,1706.9,MT,LENNEP 5 SW,113,169
USC00244978,46.9056,-109.411,1513.3,MT,LEWISTOWN 11 SSE,122,174
USC00245020,47.9733,-115.224,1056.1,MT,LIBBY 32 SSE,76,182
USC00245043,47.4083,-113.713,1316.7,MT,LINDBERGH LAKE,88,178
USC00245080,45.4836,-110.569,1484.4,MT,LIVINGSTON 12 S,113,162
USC00245153,47.9442,-110.531,786.4,MT,LOMA 1 WNW,113,182
USC00245303,46.1422,-104.735,856.5,MT,MAC KENZIE,160,168
USC00245387,46.5,-110.338,1463,MT,MARTINSDALE 3 NNW,115,171
USC00245596,46.6008,-107.869,890,MT,MELSTONE,135,171
USC00245603,46.1047,-110.05,1635.3,MT,MELVILLE 4 W,117,167
USC00245668,46.7614,-104.962,757.1,MT,MILDRED 5 N,158,173
USC00245735,46.8983,-113.968,1042.4,MT,MISSOULA 2 NE,86,174
USC00245754,46.2858,-105.292,755.9,MT,MIZPAH 4 NNW,155,169
USC00245761,47.0575,-109.951,1310.6,MT,MOCCASIN EXP STN,118,175
USC00245961,45.2436,-109.731,1994.6,MT,MYSTIC LAKE,120,160
USC00246238,48.6956,-106.315,894.9,MT,OPHEIM 12 SSE,147,188
USC00246640,47.6775,-114.242,832.1,MT,POLSON KERR DAM,84,180
USC00246700,47.6544,-111.598,1143,MT,POWER 6 SE,105,180
USC00246902,47.2972,-110.746,1284.7,MT,RAYNESFORD 2 NNW,112,177
USC00247128,45.3753,-109.17,1423.4,MT,ROBERTS 1 N,124,162
USC00247382,47.4536,-104.338,602,MT,SAVAGE,163,178
USC00247448,47.2142,-113.52,1249.7,MT,SEELEY LAKE RS,89,176
USC00247560,47.7283,-104.147,588.6,MT,SIDNEY,164,180
USC00247620,48.9992,-110.215,858,MT,SIMPSON 6 N WILDHORSE,116,190
USC00247740,45.4183,-105.868,1188.7,MT,SONNETTE 2 WNW,151,162
USC00247800,45.7375,-110.226,1286.6,MT,SPRINGDALE,116,164
USC00247894,46.5136,-114.091,1028.7,MT,STEVENSVILLE,85,171
USC00247964,45.8478,-113.927,1364,MT,SULA 3 ENE,86,165
USC00248169,47.07,-105.495,957.7,MT,TERRY 21 NNW,154,175
USC00248211,47.5933,-115.359,725.4,MT,THOMPSON FALLS PH,75,179
USC00248324,46.3308,-111.538,1170.4,MT,TOWNSEND,105,169
USC00248430,45.5472,-112.326,1409.7,MT,TWIN BRIDGES,99,163
USC00248501,48.3089,-112.251,1161.3,MT,VALIER,99,185
USC00248732,46.0558,-104.185,957.1,MT,WEBSTER 3 E,164,167
USC00248809,48.5003,-113.985,961.3,MT,WEST GLACIER,86,187
USC00248939,48.7597,-107.625,711.1,MT,WHITEWATER,137,189
USC00249023,46.0306,-110.506,1787.7,MT,WILSALL 8 ENE,113,167
USC00249082,45.8031,-113.014,1746.5,MT,WISE RIVER 3 WNW,93,165
USC00249240,45.3128,-107.938,1007.4,MT,YELLOWTAIL DAM,134,161
USC00250050,42.5522,-99.8556,765,NE,AINSWORTH,199,139
USC00250245,41.5975,-99.8258,794,NE,ANSELMO 2 SE,199,131
USC00250320,41.4261,-99.1272,658.4,NE,ARCADIA,204,130
USC00250365,41.5697,-101.691,1066.8,NE,ARTHUR,184,131
USC00250375,41.0408,-96.3775,326.1,NE,ASHLAND NO 2,226,127
USC00250435,40.3706,-95.7469,283.5,NE,AUBURN 5 ESE,232,121
USC00250640,40.1306,-99.8278,658.4,NE,BEAVER CITY,199,120
USC00250760,40.0525,-101.539,922,NE,BENKELMAN,185,119
USC00250781,41.3536,-96.2094,379.5,NE,BENNINGTON 3WSW,228,129
USC00250810,40.5283,-99.6353,768.1,NE,BERTRAND,200,123
USC00250945,42.5939,-97.6436,530.4,NE,BLOOMFIELD,216,139
USC00250961,40.3058,-98.5047,609.6,NE,BLUE HILL 4 SW,209,121
USC00251065,40.8836,-97.7497,524.3,NE,BRADSHAW,216,126
USC00251145,41.6681,-103.104,1117.4,NE,BRIDGEPORT,173,132
USC00251240,40.3328,-97.5653,481.6,NE,BRUNING,217,121
USC00251345,41.7769,-99.1433,663.2,NE,BURWELL,204,133
USC00251365,42.9131,-98.8511,552,NE,BUTTE,207,142
USC00251560,41.1156,-98.0064,516.6,NE,CENTRAL CITY,213,127
USC00251680,40.5033,-97.9372,528.5,NE,CLAY CTR 6 ESE,214,123
USC00251825,41.4639,-97.3278,442,NE,COLUMBUS 3 NE,219,130
USC00252065,40.2333,-100.829,796.7,NE,CULBERTSON,191,120
USC00252145,41.4086,-102.966,1303.9,NE,DALTON,174,130
USC00252205,41.2492,-97.1328,490.7,NE,DAVID CITY,220,128
USC00252380,41.7233,-96.8828,426.7,NE,DODGE,222,132
USC00252595,41.9872,-98.0747,589.8,NE,ELGIN,213,134
USC00252645,42.0633,-102.282,1190.2,NE,ELLSWORTH,179,135
USC00252680,42.1717,-100.011,808.9,NE,ELSMERE 9 ENE,197,136
USC00252690,40.4767,-99.8861,731.5,NE,ELWOOD 8 S,198,122
USC00252790,40.6864,-100.054,819.9,NE,EUSTIS 2 NW,197,124
USC00252820,40.0739,-97.1669,411.5,NE,FAIRBURY 5S,220,119
USC00252840,40.6422,-97.5928,499.9,NE,FAIRMONT,217,124
USC00253050,41.43,-96.4669,359.7,NE,FREMONT,226,130
USC00253065,40.6558,-97.2208,467.9,NE,FRIEND 3E,220,124
USC00253185,41.4514,-97.7644,484.6,NE,GENOA 2 W,215,130
USC00253365,40.94,-100.152,787.9,NE,GOTHENBURG,196,126
USC00253461,41.0311,-97.4703,495,NE,GRESHAM 3W,218,127
USC00253515,40.0136,-101.941,998.2,NE,HAIGLER,182,119
USC00253589,40.0136,-97.9289,463.3,NE,HARDY,214,119
USC00253605,41.6331,-103.954,1386.8,NE,HARRISBURG 12WNW,166,132
USC00253660,40.6472,-98.3836,590.7,NE,HASTINGS 4N,210,124
USC00253755,42.3208,-103.073,1301.5,NE,HEMINGFORD,173,137
USC00253825,40.6219,-96.6283,396.2,NE,HICKMAN,224,123
USC00253910,40.4517,-99.3803,707.1,NE,HOLDREGE,202,122
USC00254035,41.7175,-97.0031,463.3,NE,HOWELLS,221,132
USC00254043,40.01,-97.4978,448.1,NE,HUBBELL,218,119
USC00254335,40.7258,-99.0133,649.2,NE,KEARNEY 4 NE,205,124
USC00254440,41.2453,-103.634,1435,NE,KIMBALL 2NE,168,128
USC00254455,41.2097,-101.671,1011.3,NE,KINGSLEY DAM,184,128
USC00254900,41.1489,-102.636,1168,NE,LODGEPOLE,176,128
USC00255050,41.9378,-96.4789,390.1,NE,LYONS,226,134
USC00255105,40.9081,-96.865,399.3,NE,MALCOLM,223,126
USC00255250,41.22,-99.2981,688.8,NE,MASON CITY,203,128
USC00255311,40.4389,-100.696,836.7,NE,MC COOK 17 NNW,192,122
USC00255565,40.5156,-98.9514,658.4,NE,MINDEN,206,123
USC00255780,40.0783,-99.1386,573.9,NE,NAPONEE,204,119
USC00255810,40.6986,-95.8867,321.6,NE,NEBRASKA CITY 2NW,230,124
USC00255830,42.1303,-98.0275,536.4,NE,NELIGH,213,136
USC00255840,40.1983,-98.0733,522.7,NE,NELSON,213,120
USC00255925,42.6008,-99.3333,679.7,NE,NEWPORT,203,139
USC00256075,41.0569,-100.749,922,NE,NORTH PLATTE EXP FARM,192,127
USC00256135,42.0678,-97.9675,521.2,NE,OAKDALE,214,135
USC00256336,41.6028,-98.9269,624.8,NE,ORD 2,206,131
USC00256365,40.1314,-99.4558,597.4,NE,ORLEANS 2 W,202,120
USC00256375,41.1839,-97.55,499.9,NE,OSCEOLA,217,128
USC00256385,41.4014,-102.346,1033.3,NE,OSHKOSH,179,130
USC00256390,41.3039,-102.438,1167.4,NE,OSHKOSH 8 SW,178,129
USC00256480,40.3492,-101.109,844.3,NE,PALISADE,189,121
USC00256795,41.0267,-95.8828,306.3,NE,PLATTSMOUTH 1E,230,127
USC00257032,42.2944,-97.3647,541,NE,RANDOLPH 6 S,219,137
USC00257070,40.0978,-98.5197,524.3,NE,RED CLOUD,209,119
USC00257515,41.2078,-98.4608,547.4,NE,SAINT PAUL,210,128
USC00257640,41.4425,-97.0656,411.5,NE,SCHUYLER,221,130
USC00257715,40.8997,-97.0908,440.4,NE,SEWARD,221,126
USC00258040,42.8103,-98.6558,466.3,NE,SPENCER 5 SSE,208,141
USC00258320,40.0314,-97.9842,493.8,NE,SUPERIOR 4E,214,119
USC00258395,40.6661,-96.1892,335.3,NE,SYRACUSE,228,124
USC00258410,40.2353,-96.0861,338.3,NE,TABLE ROCK 4 N,229,120
USC00258455,41.7708,-99.3814,691.9,NE,TAYLOR,202,133
USC00258465,40.3544,-96.1939,338.3,NE,TECUMSEH 1S,228,121
USC00258628,40.1739,-101.061,856.5,NE,TRENTON DAM,189,120
USC00258735,40.3436,-98.8664,696.8,NE,UPLAND 4NE,207,121
USC00258745,40.8972,-97.3464,487.7,NE,UTICA,219,126
USC00258875,40.2444,-96.4983,470.9,NE,VIRGINIA,226,120
USC00258915,42.2647,-96.8667,423.7,NE,WAKEFIELD,223,137
USC00259045,42.2361,-97.0108,446.5,NE,WAYNE,221,136
USC00259090,40.8639,-96.1414,335.3,NE,WEEPING WATER,228,125
USC00259115,40.7558,-100.73,858.3,NE,WELLFLEET,192,125
USC00259200,41.845,-96.7142,399.3,NE,WEST POINT,224,133
USC00259325,40.1119,-100.105,701,NE,WILSONVILLE,197,119
USC00259475,40.1269,-96.6711,382.5,NE,WYMORE,224,120
USC00262243,36.4378,-115.36,890,NV,DESERT NWR,75,90
USC00264698,40.1906,-118.477,1211.6,NV,LOVELOCK,50,120
USC00265168,38.3844,-118.106,1391.7,NV,MINA,53,106
USC00265890,36.2786,-116.003,815,NV,PAHRUMP,69,89
USC00267369,35.4661,-114.922,1079,NV,SEARCHLIGHT,78,82
USC00267612,38.8822,-119.351,1524,NV,SMITH 6 N,43,110
USC00270681,44.0342,-71.9486,365.8,NH,BENTON 5 SW,422,151
USC00270690,44.4486,-71.1842,283.5,NH,BERLIN,428,154
USC00272842,44.7889,-71.1231,390.1,NH,ERROL,429,157
USC00272999,45.0875,-71.2872,506,NH,FIRST CONNECTICUT LAKE,427,159
USC00273626,43.0167,-70.8333,25.9,NH,GREENLAND,431,143
USC00273850,43.7033,-72.2847,183.8,NH,HANOVER,419,148
USC00274329,44.4169,-71.5008,376.4,NH,JEFFERSON,425,154
USC00274399,42.9389,-72.3247,155.8,NH,KEENE,419,142
USC00274480,43.5492,-71.4642,152.4,NH,LAKEPORT 2,426,147
USC00274556,44.4911,-71.5725,262.1,NH,LANCASTER,425,154
USC00275150,43.1175,-72.2003,359.7,NH,MARLOW,420,143
USC00275868,43.3836,-72.1753,240.8,NH,NEWPORT,420,146
USC00275995,44.0303,-71.1383,165.8,NH,NORTH CONWAY,428,151
USC00278858,43.0739,-72.4053,283.5,NH,WALPOLE 3,418,143
USC00280927,40.5603,-74.575,15.2,NJ,BOUND BROOK 2W,401,123
USC00281327,41.1086,-74.4817,335.3,NJ,CANISTEAR RSVR,402,127
USC00281335,40.7436,-74.3539,54.9,NJ,CANOE BROOK,403,124
USC00281351,38.9536,-74.9358,6.1,NJ,CAPE MAY 2 NW,399,111
USC00282023,40.6669,-74.3231,22.9,NJ,CRANFORD,403,124
USC00283516,41.1386,-74.3244,143.3,NJ,GREENWOOD LAKE,403,128
USC00283951,40.265,-74.5642,30.5,NJ,HIGHTSTOWN 2 W,401,121
USC00284229,39.8144,-74.7883,30.5,NJ,INDIAN MILLS 2 W,399,117
USC00284635,40.3667,-74.9472,20.7,NJ,LAMBERTVILLE,398,121
USC00285728,39.9511,-74.9697,13.7,NJ,MOORESTOWN,398,118
USC00286055,40.4719,-74.4364,26.2,NJ,NEW BRUNSWICK 3 SE,402,122
USC00286146,40.9611,-74.0158,3.7,NJ,NEW MILFORD,405,126
USC00287301,40.7369,-74.7322,111.3,NJ,POTTERSVILLE 2 NNW,400,124
USC00289832,41.0139,-74.0425,31.4,NJ,WOODCLIFF LAKE,405,127
USC00290041,36.2403,-106.428,1944.6,NM,ABIQUIU DAM,146,88
USC00290600,32.7547,-104.384,1026,NM,ARTESIA 6S,162,61
USC00291252,33.0389,-108.714,1464,NM,BUCKHORN,128,63
USC00291286,32.8967,-107.309,1277.1,NM,CABALLO DAM,139,62
USC00291469,32.3478,-104.223,951,NM,CARLSBAD,164,57
USC00291664,36.9178,-106.578,2392.7,NM,CHAMA,145,94
USC00291910,32.8331,-108.504,1455.7,NM,CLIFF 11 SE,129,61
USC00291982,35.6414,-106.332,1694.7,NM,COCHITI DAM,147,84
USC00292030,35.4072,-104.191,1293.6,NM,CONCHAS DAM,164,82
USC00292510,35.1842,-105.057,1569.7,NM,DILIA,157,80
USC00292608,36.9358,-107,2070.5,NM,DULCE,141,94
USC00292837,36.5928,-106.73,2054.4,NM,EL VADO DAM,144,91
USC00292848,33.1461,-107.184,1394.8,NM,ELEPHANT BUTTE DAM,140,64
USC00292854,33.9403,-103.657,1339.6,NM,ELIDA,168,70
USC00293060,34.8242,-106.034,1871.5,NM,ESTANCIA 4N,149,77
USC00293142,36.6897,-108.309,1714.5,NM,FARMINGTON AG SCI CTR,131,92
USC00293265,32.7939,-108.151,1859,NM,FT BAYARD,132,61
USC00293294,34.4667,-104.232,1226.8,NM,FT SUMNER,164,74
USC00293296,34.3942,-104.25,1234.4,NM,FT SUMNER 5 S,163,74
USC00293511,36.3336,-106.474,1981.2,NM,GHOST RCH,146,89
USC00293592,35.2656,-106.214,2042.2,NM,GOLDEN,148,81
USC00294009,32.9203,-107.566,1605.4,NM,HILLSBORO,137,62
USC00294175,34.6344,-103.89,1470.7,NM,HOUSE,166,76
USC00294346,32.1103,-103.187,930.9,NM,JAL,172,55
USC00294398,35.9547,-107.086,2195.5,NM,JOHNSON RCH,141,86
USC00294461,34.0311,-107.125,2041.9,NM,KELLY RCH,141,71
USC00294742,36.9825,-104.375,2255.5,NM,LAKE MALOYA,163,94
USC00295150,34.7675,-106.761,1475.2,NM,LOS LUNAS 3 SSW,143,77
USC00295617,34.4278,-103.625,1401.8,NM,MELROSE,169,74
USC00295937,35.8022,-103.944,1665.7,NM,MOSQUERO 1 NE,166,85
USC00296275,36.1839,-105.061,2333.2,NM,OCATE 2 NW,157,88
USC00296619,36.2994,-103.741,1722.1,NM,PASAMONTE,168,89
USC00296687,34.6153,-105.474,1874.5,NM,PEDERNAL 9 E,154,75
USC00297008,34.1742,-103.352,1222.2,NM,PORTALES,171,72
USC00297280,36.8864,-104.443,2023.9,NM,RATON KRTN RADIO,162,94
USC00297340,32.7047,-108.728,1236.3,NM,REDROCK 1 NNE,128,60
USC00297423,33.7528,-107.209,1661.2,NM,RIENHARDT RCH,140,69
USC00298107,34.9358,-104.68,1405.1,NM,SANTA ROSA,160,78
USC00298535,32.2822,-106.76,1184.5,NM,STATE UNIV,143,57
USC00298596,34.6033,-104.381,1312.5,NM,SUMNER LAKE,162,75
USC00299156,35.2006,-103.687,1245.4,NM,TUCUMCARI 4 NE,168,80
USC00299165,33.0719,-106.042,1350.3,NM,TULAROSA,149,63
USC00300183,42.3033,-78.0189,452,NY,ANGELICA,373,137
USC00300331,42.7339,-76.6592,253,NY,AURORA RSCH FARM,384,140
USC00300343,42.9203,-77.7558,166.1,NY,AVON,375,142
USC00300668,43.8,-74.8667,536.4,NY,BIG MOOSE 3 SE,399,149
USC00300889,40.9461,-72.3069,18.3,NY,BRIDGEHAMPTON,419,126
USC00301152,42.8453,-77.2808,219.5,NY,CANANDAIGUA 3 S,379,141
USC00301168,42.1944,-76.3128,280.4,NY,CANDOR 2SE,387,136
USC00301413,42.0025,-76.6383,250.5,NY,CHEMUNG,384,135
USC00301752,42.7167,-74.9267,383.1,NY,COOPERSTOWN,398,140
USC00302060,42.0628,-75.4264,304.8,NY,DEPOSIT,394,135
USC00302129,41.0072,-73.8344,61,NY,DOBBS FERRY ARDSLEY,407,127
USC00302574,44.9131,-73.8222,289.6,NY,ELLENBURG DEPOT,407,158
USC00302610,42.0997,-76.8358,288.6,NY,ELMIRA,383,135
USC00303025,42.3297,-78.4633,484.6,NY,FRANKLINVILLE,370,137
USC00303065,42.1378,-78.2372,499.9,NY,FRIENDSHIP 7 SW,372,136
USC00303184,42.8767,-77.0308,218.8,NY,GENEVA RSCH FARM,381,142
USC00303284,43.3333,-73.7333,153.6,NY,GLENS FALLS FARM,408,145
USC00303346,44.3539,-75.5122,128,NY,GOUVERNEUR 3 NW,393,153
USC00303773,42.7442,-77.6083,274.9,NY,HEMLOCK,377,140
USC00303851,43.5753,-75.5208,537.4,NY,HIGHMARKET,393,147
USC00303983,42.3489,-77.7044,403.9,NY,HORNELL ALMOND DAM,376,137
USC00304102,43.755,-74.2692,506,NY,INDIAN LAKE 2SW,403,149
USC00304174,42.4492,-76.4492,292.6,NY,ITHACA CORNELL UNIV,386,138
USC00304555,44.2444,-73.9855,591.3,NY,LAKE PLACID 2 S,406,152
USC00304772,42.0636,-77.1467,317,NY,LINDLEY 2N,380,135
USC00304836,42.6703,-76.4722,365.8,NY,LOCKE 2 W,386,140
USC00304912,43.7975,-75.4817,262.1,NY,LOWVILLE,394,149
USC00304996,44.8419,-74.3081,268.2,NY,MALONE,403,157
USC00305310,41.4603,-74.4489,213.4,NY,MIDDLETOWN 2 NW,402,130
USC00305426,41.7681,-74.155,379.5,NY,MOHONK LAKE,404,133
USC00305925,43.6611,-73.8969,271.3,NY,NORTH CREEK 5 SE,406,148
USC00306047,43.0219,-78.8467,182.9,NY,NORTH TONAWANDA,367,143
USC00306085,42.5117,-75.5197,301.4,NY,NORWICH,393,139
USC00306196,42.0736,-78.4517,432.8,NY,OLEAN,370,135
USC00306314,43.4622,-76.4933,106.7,NY,OSWEGO EAST,386,146
USC00306745,42.5697,-78.04,356,NY,PORTAGEVILLE,373,139
USC00307134,40.9619,-72.7158,30.5,NY,RIVERHEAD RSCH FM,416,126
USC00307210,41.5917,-74.6142,387.1,NY,ROCK HILL 3 SW,401,131
USC00307705,42.6772,-75.5067,333.8,NY,SHERBURNE,393,140
USC00309000,43.9761,-75.8753,151.5,NY,WATERTOWN,390,150
USC00309303,42.6167,-73.6,195.1,NY,WEST SAND LAKE 2 S,409,139
USC00309389,43.5575,-73.4011,36.3,NY,WHITEHALL,410,147
USC00309425,42.0397,-77.765,530.4,NY,WHITESVILLE,375,135
USC00309516,42.3031,-74.2011,512.1,NY,WINDHAM 3 E,404,137
USC00309670,41.2664,-73.7975,204.2,NY,YORKTOWN HEIGHTS 1W,407,129
USC00310286,35.7044,-79.8378,265.2,NC,ASHEBORO 2 W,359,84
USC00310674,35.5731,-76.5847,0,NC,BELHAVEN 3 NE,385,83
USC00311081,35.7425,-81.8372,350.5,NC,BRIDGEWATER HYDRO,343,84
USC00311285,36.1414,-78.7736,108.2,NC,BUTNER FLTR PLT,367,88
USC00311515,35.3319,-79.4067,134.1,NC,CARTHAGE WTP,362,81
USC00311538,35.4967,-81.6131,320,NC,CASAR,345,82
USC00311606,34.9833,-76.3,2.4,NC,CEDAR ISLAND,386,78
USC00311677,35.9086,-79.0794,152.4,NC,CHAPEL HILL 2 W,365,86
USC00311881,35.0247,-78.2758,48.2,NC,CLINTON 2 NE,371,79
USC00311975,35.4111,-80.5833,213.4,NC,CONCORD,353,82
USC00312102,35.0592,-83.4314,685.5,NC,COWEETA EXP STN,330,79
USC00312200,35.3117,-83.1747,668.1,NC,CULLOWHEE,332,81
USC00312238,36.4147,-80.2169,256,NC,DANBURY,356,90
USC00312500,35.3247,-78.6881,61,NC,DUNN 4 NW,368,81
USC00312719,36.3097,-76.205,2.4,NC,ELIZABETH CITY,388,89
USC00312740,36.2544,-80.865,265.2,NC,ELKIN,351,89
USC00312827,36.1686,-77.675,33.5,NC,ENFIELD,376,88
USC00313017,35.0583,-78.8583,29.3,NC,FAYETTEVILLE PWC,367,79
USC00313106,35.4267,-82.5575,630.9,NC,FLETCHER 3 W,337,82
USC00313555,36.0503,-79.3728,201.2,NC,GRAHAM 2 ENE,363,87
USC00313784,34.8872,-79.6922,106.7,NC,HAMLET,360,78
USC00313976,35.3297,-82.4492,658.4,NC,HENDERSONVILLE 1 NE,338,81
USC00314055,35.0567,-83.1983,1173.5,NC,HIGHLANDS,332,79
USC00314063,35.9672,-79.9722,274.3,NC,HIGH POINT,358,86
USC00314464,35.1858,-79.6772,222.5,NC,JACKSON SPRINGS 5 WNW,360,80
USC00314860,34.7508,-79.4664,64,NC,LAURINBURG,362,77
USC00314962,36.1325,-77.1708,15.2,NC,LEWISTON,380,88
USC00314970,35.8458,-80.2597,231.6,NC,LEXINGTON,355,85
USC00314996,35.4606,-81.3289,274.3,NC,LINCOLNTON 4 W,347,82
USC00315116,34.0103,-78.545,12.2,NC,LONGWOOD,369,71
USC00315356,35.8036,-82.6658,609.6,NC,MARSHALL,336,85
USC00315771,34.9797,-80.5233,167.6,NC,MONROE 2 SE,353,78
USC00315830,34.7336,-76.7358,3,NC,MOREHEAD CITY 2 WNW,384,77
USC00315838,35.7297,-81.6728,353.6,NC,MORGANTON,344,84
USC00315890,36.4992,-80.6508,317.3,NC,MT AIRY 2 W,352,90
USC00315913,35.3336,-80.9872,185.9,NC,MT HOLLY 4 NE,350,81
USC00316236,35.6625,-82.3469,755.9,NC,NORTH FORK 2,339,84
USC00316256,36.1631,-81.1494,341.4,NC,NORTH WILKESBORO,348,88
USC00316602,35.9983,-81.565,387.1,NC,PATTERSON,345,86
USC00316805,35.2719,-82.6475,667.5,NC,PISGAH FOREST 3 NE,336,81
USC00316853,35.8722,-76.6592,6.1,NC,PLYMOUTH 5 E,384,85
USC00317074,35.7294,-78.6839,128,NC,RALEIGH 4 SW,368,84
USC00317097,35.8222,-79.7917,246.9,NC,RANDLEMAN,359,85
USC00317202,36.3825,-79.6947,271.3,NC,REIDSVILLE 2 NW,360,90
USC00317229,35.7747,-81.4372,297.5,NC,RHODHISS HYDRO PLT,346,85
USC00317319,36.4783,-77.6717,64,NC,ROANOKE RAPIDS,376,90
USC00317395,35.9519,-77.8183,39.6,NC,ROCKY MOUNT,375,86
USC00317486,35.1417,-82.8231,669,NC,ROSMAN,335,80
USC00317618,35.6967,-80.6228,251.5,NC,SALISBURY 9 WNW,353,84
USC00317656,35.5347,-79.0464,79.9,NC,SANFORD 8 NE,365,83
USC00317924,35.7606,-79.4622,185.9,NC,SILER CITY 2 N,362,85
USC00317994,35.5164,-78.3458,45.7,NC,SMITHFIELD,371,83
USC00318292,35.81,-80.8808,289.6,NC,STATESVILLE 2 NNE,350,85
USC00318492,35.4478,-83.9389,338.3,NC,TAPOCO,326,82
USC00318500,35.8847,-77.5386,10.7,NC,TARBORO 1 S,377,86
USC00318694,36.3919,-81.3039,876.3,NC,TRANSOU,347,90
USC00318706,35.0628,-77.3547,9.1,NC,TRENTON,379,79
USC00318744,35.2058,-82.2517,365.8,NC,TRYON,339,80
USC00318964,34.9603,-80.0772,146.3,NC,WADESBORO,357,78
USC00319100,35.5553,-77.0722,3,NC,WASHINGTON WWTP 4W,381,83
USC00319123,35.7742,-83.0981,438.9,NC,WATERVILLE 2,333,85
USC00319147,35.4867,-82.9683,810.2,NC,WAYNESVILLE 1 E,334,82
USC00319357,34.4094,-78.7914,27.4,NC,WHITEVILLE 7 NW,367,74
USC00319423,34.6611,-78.0456,16.8,NC,WILLARD 4 SW,373,76
USC00319440,35.8528,-77.0306,6.1,NC,WILLIAMSTON 1 E,381,85
USC00319467,34.3208,-77.9206,12.2,NC,WILMINGTON 7 N,374,73
USC00319476,35.6939,-77.9456,33.5,NC,WILSON 3 SW,374,84
USC00319555,36.1308,-81.2275,326.1,NC,W KERR SCOTT RSVR,348,88
USC00319675,36.1306,-80.5481,266.7,NC,YADKINVILLE 6 E,353,88
USC00320022,48.3308,-98.1189,473.7,ND,ADAMS 7 SSW,213,185
USC00320382,46.0406,-99.3742,613.9,ND,ASHLEY,203,167
USC00320941,48.8217,-100.452,493.5,ND,BOTTINEAU,194,189
USC00320995,46.1825,-103.406,908.3,ND,BOWMAN,170,168
USC00321435,48.8628,-97.7014,271.3,ND,CAVALIER 7NW,216,189
USC00321477,46.7958,-97.2686,294.1,ND,CHAFFEE 5 NE,219,173
USC00322304,48.0475,-100.31,466.3,ND,DRAKE 9 NE,195,183
USC00323064,46.0347,-98.9436,627.9,ND,FORBES 10 NW,206,167
USC00323621,47.9217,-97.0981,253,ND,GRAND FORKS UNIV NWS,221,182
USC00324571,47.8967,-102.921,752.9,ND,KEENE 3S,174,182
USC00324958,48.7622,-98.3447,492.3,ND,LANGDON EXP FARM,211,189
USC00325230,46.6611,-98.2267,451.7,ND,LITCHVILLE 2NW,212,172
USC00325479,46.8128,-100.91,533.4,ND,MANDAN EXP STN,190,173
USC00325638,47.8214,-101.292,643.1,ND,MAX,187,181
USC00325730,47.5808,-98.6422,474,ND,MC HENRY 3W,208,179
USC00325754,46.4025,-97.2381,327.7,ND,MC LEOD 3 E,220,170
USC00326105,46.7006,-98.5839,428.2,ND,MONTPELIER,209,172
USC00326255,46.5067,-99.7692,603.5,ND,NAPOLEON,199,171
USC00326365,46.8925,-101.49,655.3,ND,NEW SALEM 5NW,186,174
USC00327311,46.1758,-101.856,755.9,ND,PRETTY ROCK,183,168
USC00327450,46.1089,-102.945,864.1,ND,REEDER,174,167
USC00327664,48.8811,-99.5861,558.7,ND,ROLLA 1NE,201,190
USC00328065,46.2331,-101.129,550.5,ND,SHIELDS,188,168
USC00328276,48.3567,-102.412,694.9,ND,STANLEY 3 NNW,178,185
USC00328627,48.3475,-101.933,661.4,ND,TAGUS,182,185
USC00328812,47.2842,-103.901,737.6,ND,TROTTERS 3 SSE,166,177
USC00328872,47.455,-101.146,623.3,ND,UNDERWOOD,188,178
USC00328913,48.6147,-100.726,434.3,ND,UPHAM 3 N,192,187
USC00328937,46.9558,-98.0203,368.8,ND,VALLEY CITY 3 NNW,213,174
USC00329333,48.9097,-101.019,457.8,ND,WESTHOPE,189,190
USC00329400,48.6631,-103.213,688.8,ND,WILDROSE 3NW,172,188
USC00329430,48.1375,-103.737,641.6,ND,WILLISTON EXP FARM,168,184
USC00330563,40.3533,-83.7747,361.2,OH,BELLEFONTAINE,327,121
USC00331057,39.9519,-82.4817,270.4,OH,BUCKEYE LAKE 1 N,338,118
USC00331072,40.8128,-82.9694,291.1,OH,BUCYRUS,334,125
USC00331152,40.2686,-80.9981,384,OH,CADIZ,350,121
USC00331197,40.0167,-81.5833,243.8,OH,CAMBRIDGE,345,119
USC00331390,40.5694,-84.5364,262.1,OH,CELINA 3 NE,321,123
USC00331458,41.5833,-81.1833,344.4,OH,CHARDON,348,131
USC00331515,39.1547,-84.6233,292.6,OH,CHEVIOT,321,112
USC00331541,41.0517,-81.9361,359.7,OH,CHIPPEWA LAKE,342,127
USC00331592,39.6106,-82.9547,205.1,OH,CIRCLEVILLE,334,115
USC00331777,40.0606,-82.8942,243.8,OH,COLUMBUS HAP CREMEAN W,334,119
USC00331858,40.2211,-82.0667,237.7,OH,COOPERDALE,341,120
USC00331890,40.2403,-81.8711,231.6,OH,COSHOCTON WPC PLT,343,120
USC00331905,40.3708,-81.7908,347.5,OH,COSHOCTON AG RSCH STN,343,121
USC00332044,40.4397,-82.3039,295.7,OH,DANVILLE 2 W,339,122
USC00332067,39.7633,-84.1911,227.1,OH,DAYTON MCD,324,117
USC00332098,41.2778,-84.3853,213.4,OH,DEFIANCE,322,129
USC00332485,39.7347,-84.6336,305.4,OH,EATON,320,116
USC00332599,41.3833,-82.05,222.5,OH,ELYRIA 3 E,341,130
USC00332791,41.0461,-83.6622,234.1,OH,FINDLAY WPCC,328,127
USC00332974,41.3333,-83.1167,182.9,OH,FREMONT,333,129
USC00333021,40.7236,-82.8,356.6,OH,GALION WTR WKS,335,124
USC00333375,40.1,-84.65,312.1,OH,GREENVILLE WTP,320,119
USC00333758,39.2333,-83.6092,296,OH,HILLSBORO,329,112
USC00333780,41.3,-81.15,374.9,OH,HIRAM,348,129
USC00334238,39.3531,-84.2606,228.6,OH,KINGS MILLS,323,113
USC00334434,39.4667,-82.7333,231.6,OH,LAURELVILLE,336,114
USC00334551,40.7247,-84.1294,259.1,OH,LIMA WWTP,324,124
USC00334927,39.4089,-81.4328,176.8,OH,MARIETTA WWTP,346,114
USC00334979,40.2411,-83.3669,304.8,OH,MARYSVILLE,331,120
USC00335029,39.2503,-82.4822,239.3,OH,MC ARTHUR,338,113
USC00335438,41.5886,-84.585,262.1,OH,MONTPELIER,321,131
USC00335505,41.3,-80.7667,277.4,OH,MOSQUITO CREEK LAKE,351,129
USC00335718,39.5014,-82.2439,213.4,OH,NELSONVILLE,340,115
USC00335747,40.0875,-82.4128,254.5,OH,NEWARK WATER WKS,338,119
USC00335786,39.9322,-84.0333,268.2,OH,NEW CARLISLE,325,118
USC00335857,39.7333,-82.2156,271.3,OH,NEW LEXINGTON 2 NW,340,116
USC00336118,41.2667,-82.6167,204.2,OH,NORWALK WWTP,337,129
USC00336196,41.2667,-82.2167,248.7,OH,OBERLIN,340,129
USC00336405,40.9461,-83.9614,234.7,OH,PANDORA,326,126
USC00336465,41.1244,-84.5922,221,OH,PAULDING,321,127
USC00336600,39.8386,-81.9167,310.9,OH,PHILO 3 SW,342,117
USC00336697,40.0494,-84.3458,280.4,OH,PLEASANT HILL,323,119
USC00336781,38.7569,-82.8872,164.6,OH,PORTSMOUTH-SCIOTOVILLE,334,109
USC00336861,40.4833,-83.2,278.9,OH,PROSPECT,332,122
USC00336949,41.1333,-81.2833,337.4,OH,RAVENNA 2 S,347,128
USC00337383,40.5447,-84.4375,266.7,OH,ST MARYS 3 W,322,123
USC00337538,39.7339,-83.4775,326.1,OH,SEDALIA,330,116
USC00337693,40.2706,-84.1506,286.5,OH,SIDNEY 1 S,324,121
USC00337935,39.9667,-83.8167,283.5,OH,SPRINGFIELD NEW WWKS,327,118
USC00338313,41.1167,-83.1667,225.6,OH,TIFFIN,332,127
USC00338332,39.9528,-84.1689,274.3,OH,TIPP CITY,324,118
USC00338552,40.0986,-83.7822,304.8,OH,URBANA WWTP,327,119
USC00338642,40.2197,-84.4822,297.2,OH,VERSAILLES,322,120
USC00338769,41.2,-80.8167,274.3,OH,WARREN 3 S,351,128
USC00338822,41.5183,-84.1453,228.6,OH,WAUSEON WTP,324,131
USC00338951,40.1264,-82.9433,246.9,OH,WESTERVILLE,334,120
USC00338990,39.8731,-84.6556,330.7,OH,WEST MANCHESTER 3 WSW,320,117
USC00339219,39.4833,-83.8167,313.9,OH,WILMINGTON 3 N,327,114
USC00339312,40.7833,-81.9167,310.9,OH,WOOSTER EXP STN,342,125
USC00340017,34.7864,-96.685,309.4,OK,ADA,224,77
USC00340179,34.5903,-99.3344,420.6,OK,ALTUS IRIG RSCH STN,203,75
USC00340184,34.8847,-99.2964,464.8,OK,ALTUS DAM,203,78
USC00340593,36.8125,-100.531,751.3,OK,BEAVER,193,93
USC00340755,36.5297,-97.4472,304.8,OK,BILLINGS,218,91
USC00340818,36.8047,-97.2764,307.8,OK,BLACKWELL,219,93
USC00340908,36.7236,-102.481,1259.7,OK,BOISE CITY 2 E,178,92
USC00341162,34.0497,-94.7381,144.8,OK,BROKEN BOW 1 N,240,71
USC00341745,34.5019,-96.9717,321.6,OK,CHICKASAW NRA,222,75
USC00341750,35.0489,-97.9158,330.7,OK,CHICKASHA EXP STATION,214,79
USC00341828,36.3225,-95.5808,179.2,OK,CLAREMORE 2 ENE,233,89
USC00342054,34.3622,-97.9736,312.4,OK,COMANCHE,214,73
USC00342125,35.3008,-98.9958,476.7,OK,CORDELL,206,81
USC00342196,34.7422,-97.7039,375.5,OK,COX CITY 2 NE,216,76
USC00342354,34.5433,-95.6764,230.1,OK,DAISY 4 ENE,232,75
USC00342668,34.4933,-98.1419,339.9,OK,DUNCAN 10 W,212,74
USC00342944,35.2164,-99.8628,627.9,OK,ERICK,199,80
USC00343070,36.3744,-99.6264,644.7,OK,FARGO,200,89
USC00343304,36.5442,-99.535,618.7,OK,FORT SUPPLY 3SE,201,91
USC00343358,36.7647,-99.1128,461.8,OK,FREEDOM,205,93
USC00344001,34.2331,-97.4203,274.9,OK,HEALDTON 3 E,218,72
USC00344019,36.5381,-98.2661,411.5,OK,HELENA 1 SSE,211,91
USC00344055,36.0942,-97.835,357.8,OK,HENNESSEY 4 ESE,215,87
USC00344861,35.8583,-97.9294,320,OK,KINGFISHER,214,85
USC00344915,34.9614,-96.75,297.2,OK,KONAWA,223,78
USC00345045,36.6992,-99.8967,644.7,OK,LAVERNE,198,92
USC00345329,35.3736,-98.3775,439.5,OK,LOOKEBA 1 N,210,81
USC00345509,34.8911,-99.5017,486.2,OK,MANGUM,201,78
USC00345563,33.8761,-97.1642,244.4,OK,MARIETTA 5SW,220,70
USC00345581,34.6456,-97.9778,381,OK,MARLOW 1 WSW,214,76
USC00345693,35.1447,-94.9669,199.6,OK,MC CURTAIN 1 SE,238,80
USC00345713,34.3094,-95.8672,204.8,OK,MCGEE CREEK DAM,231,73
USC00346035,35.1464,-99.4956,515.1,OK,MORAVIA 2 NNE,202,80
USC00346139,36.2283,-99.17,576.1,OK,MUTUAL,204,88
USC00346638,35.4253,-96.3033,285,OK,OKEMAH,227,82
USC00346926,34.7253,-97.2814,286.5,OK,PAULS VALLEY 4 WSW,219,76
USC00346940,36.3567,-96.8108,254.5,OK,PAWNEE,223,89
USC00347012,36.2886,-97.2897,312.4,OK,PERRY,219,89
USC00347214,34.4997,-96.6275,312.4,OK,PONTOTOC,224,74
USC00347390,36.5044,-96.7439,251.5,OK,RALSTON,224,91
USC00347565,35.1589,-99.3658,541.6,OK,RETROP,203,80
USC00347862,35.4572,-94.8047,201.2,OK,SALLISAW 2 NW,239,82
USC00347952,35.3061,-99.6275,579.1,OK,SAYRE,200,81
USC00348042,35.2317,-96.6531,279.8,OK,SEMINOLE,224,80
USC00348110,35.3553,-96.9203,332.8,OK,SHAWNEE,222,81
USC00348563,35.7975,-96.6658,275.8,OK,STROUD 3 N,224,85
USC00348708,36.0381,-98.9592,519.7,OK,TALOGA,206,87
USC00348884,34.1925,-96.6442,195.7,OK,TISHOMINGO NATL WR,224,72
USC00349086,35.3672,-97.8872,382.5,OK,UNION CITY 3 SE,214,81
USC00349118,33.9981,-95.1433,144.8,OK,VALLIANT 3 W,236,70
USC00349212,34.9003,-99.8614,573,OK,VINSON,199,78
USC00349364,35.8578,-98.4139,466.3,OK,WATONGA,210,85
USC00349575,35.1314,-96.5389,280.4,OK,WEWOKA 3 SW,225,80
USC00349668,35.0522,-99.5125,531.9,OK,WILLOW,201,79
USC00349760,36.4408,-99.3817,574.5,OK,WOODWARD,202,90
USC00350145,44.4044,-123.753,70.1,OR,ALSEA FH (FALL CREEK),7,154
USC00350265,45.7211,-120.206,84.4,OR,ARLINGTON,36,164
USC00350304,42.2128,-122.714,532.2,OR,ASHLAND,16,136
USC00350312,44.7261,-120.753,783.3,OR,ASHWOOD,31,156
USC00350471,43.1497,-124.402,6.1,OR,BANDON 2 NNE,2,144
USC00350897,45.6361,-121.952,18.9,OR,BONNEVILLE DAM,22,164
USC00351149,42.18,-122.985,594.1,OR,BUNCOM 1 NNE,14,136
USC00351433,44.3914,-122.481,292.6,OR,CASCADIA,18,154
USC00351643,46.1081,-123.206,6.7,OR,CLATSKANIE,12,167
USC00351682,45.205,-123.893,3.7,OR,CLOVERDALE,6,160
USC00351836,43.1872,-124.202,7,OR,COQUILLE CITY,4,144
USC00351862,44.6342,-123.19,68.6,OR,CORVALLIS STATE UNIV,12,156
USC00351877,44.5078,-123.457,180.4,OR,CORVALLIS WATER BUREAU,10,155
USC00351897,43.7917,-123.027,181.4,OR,COTTAGE GROVE 2E,13,149
USC00351946,42.8967,-122.133,1973.6,OR,CRATER LAKE NPS HQ,20,142
USC00352292,44.7242,-122.255,371.9,OR,DETROIT DAM,19,156
USC00352325,45.4833,-123.124,50.3,OR,DILLEY 1 S,13,162
USC00352374,43.7819,-122.963,249.9,OR,DORENA,14,149
USC00352406,43.6656,-123.327,89,OR,DRAIN,11,148
USC00352415,43.8081,-118.378,1071.4,OR,DREWSEY,50,149
USC00352693,45.2689,-122.319,137.2,OR,ESTACADA 2 SE,19,161
USC00352997,45.5247,-123.103,54.9,OR,FOREST GROVE,13,163
USC00353047,44.4139,-122.673,167.6,OR,FOSTER DAM,16,154
USC00353402,45.3014,-121.742,1213.1,OR,GOVERNMENT CAMP,24,161
USC00353445,42.4244,-123.324,283.5,OR,GRANTS PASS,11,138
USC00353509,42.1258,-122.545,742.2,OR,GREEN SPRINGS PWR PLT,17,136
USC00353604,44.8736,-117.109,812.3,OR,HALFWAY,61,157
USC00353705,45.3128,-123.35,230.4,OR,HASKINS DAM,11,161
USC00353770,45.4486,-122.155,228,OR,HEADWORKS PORTLAND WTR,20,162
USC00353827,45.3653,-119.564,574.5,OR,HEPPNER,41,161
USC00353971,44.3525,-122.784,185.9,OR,HOLLEY,15,153
USC00354126,43.3708,-122.965,329.2,OR,IDLEYLD PARK 4 NE,14,145
USC00354403,42.1264,-121.931,1254.6,OR,KENO,22,136
USC00354811,44.1014,-122.689,205.7,OR,LEABURG 1 SW,16,151
USC00354835,43.3597,-122.221,1242.7,OR,LEMOLO LAKE 3 NNW,20,145
USC00355026,43.1922,-123.469,225.6,OR,LOOKINGGLASS,10,144
USC00355050,43.9144,-122.76,217,OR,LOOKOUT POINT DAM,15,150
USC00355055,42.6722,-122.675,481.6,OR,LOST CREEK DAM,16,140
USC00355080,44.7328,-120.975,575.2,OR,LOWER HAY CREEK,30,156
USC00355142,44.6633,-121.146,744.6,OR,MADRAS 2 N,28,156
USC00355160,43.9794,-117.025,688.8,OR,MALHEUR BRANCH EXP STN,61,150
USC00355593,45.9428,-118.409,295.7,OR,MILTON FREEWATER,50,166
USC00355734,45.4825,-120.724,570,OR,MORO,32,162
USC00355971,45.8136,-123.775,42.7,OR,NEHALEM 9 NE,7,165
USC00356200,43.4228,-123.3,131.1,OR,OAKLAND,11,146
USC00356366,45.0333,-123.924,45.7,OR,OTIS 2 NE,6,159
USC00356405,43.65,-117.247,731.5,OR,OWYHEE DAM,60,148
USC00356466,45.535,-121.589,463.3,OR,PARKDALE 1 NNE,25,163
USC00356532,44.7275,-121.251,429.8,OR,PELTON DAM,27,156
USC00356540,45.7206,-118.626,453.2,OR,PENDLETON BR EXP STN,48,164
USC00356634,45.4756,-118.825,524.3,OR,PILOT ROCK 1 SE,47,162
USC00356795,42.7386,-124.403,45.7,OR,PORT ORFORD 5 E,2,140
USC00357127,45.3033,-122.913,157,OR,REX 1 S,14,161
USC00357169,42.9506,-123.357,207.3,OR,RIDDLE,11,142
USC00357823,45.0058,-122.774,124.4,OR,SILVERTON,15,159
USC00357940,43.1708,-123.225,210.3,OR,SOUTH DEER CREEK,12,144
USC00358095,44.7892,-122.814,129.5,OR,STAYTON,15,157
USC00358173,42.9592,-120.79,1277.7,OR,SUMMER LAKE 1 S,31,142
USC00358260,43.3964,-123.359,152.4,OR,SUTHERLIN 2 W,11,146
USC00358466,45.1219,-122.07,341.4,OR,THREE LYNX,21,159
USC00358494,45.4583,-123.88,3,OR,TILLAMOOK 1 W,6,162
USC00358536,43.275,-122.45,627.9,OR,TOKETEE FALLS,18,145
USC00358746,45.2081,-117.876,842.8,OR,UNION EXP STN,54,160
USC00358884,45.8653,-123.19,190.5,OR,VERNONIA NO 2,12,165
USC00359083,44.5156,-122.873,112.8,OR,WATERLOO,15,155
USC00359316,43.6825,-121.688,1328.3,OR,WICKIUP DAM,24,148
USC00359372,45.0747,-123.48,73.2,OR,WILLAMINA,10,159
USC00359390,42.2283,-123.286,442,OR,WILLIAMS 1 NW,11,136
USC00359461,43.2828,-123.354,140.2,OR,WINCHESTER,11,145
USC00360457,40.8208,-76.4983,309.4,PA,BEAR GAP,386,125
USC00360475,40.7628,-80.3133,231.6,PA,BEAVER FALLS 1 NE,355,125
USC00360656,39.9356,-77.2578,219.5,PA,BIGLERVILLE,379,118
USC00360861,40.3917,-79.8594,222.5,PA,BRADDOCK LOCK 2,359,122
USC00360868,41.8975,-78.7144,506,PA,BRADFORD 4SW RES 5,368,134
USC00361139,40.85,-79.9167,304.8,PA,BUTLER 2 SW,358,125
USC00361212,41.6517,-76.8464,347.5,PA,CANTON,383,132
USC00361350,39.8508,-79.5833,603.5,PA,CHALK HILL 2 ENE,361,117
USC00361354,39.9353,-77.6394,195.1,PA,CHAMBERSBURG 1 ESE,376,118
USC00361377,40.15,-79.9,228.3,PA,CHARLEROI LOCK 4,358,120
USC00361480,41.0489,-77.9411,423.7,PA,CLARENCE,374,127
USC00361705,39.7994,-79.3664,454.2,PA,CONFLUENCE 1 SW DAM,363,117
USC00361726,39.9969,-79.5964,274.3,PA,CONNELLSVILLE 2 SSW,361,118
USC00362190,40.1636,-79.8694,232.3,PA,DONORA 1 SW,359,120
USC00362470,40.4681,-78.7289,591.3,PA,EBENSBURG SEWAGE PLT,368,122
USC00362671,41.8719,-75.2656,271.3,PA,EQUINUNK 2 NW,395,133
USC00363028,41.4003,-79.8303,309.4,PA,FRANKLIN,359,130
USC00363130,41.7356,-77.6517,410,PA,GALETON,376,132
USC00363321,40.0997,-75.7506,152.4,PA,GLENMOORE,391,119
USC00363343,40.5511,-80.2167,216.4,PA,GLENWILLARD DASHIELDS,356,123
USC00363632,40.5511,-75.9914,116.7,PA,HAMBURG,390,123
USC00364047,40.0789,-75.8975,202.7,PA,HONEY BROOK 2 SSE,390,119
USC00364214,40.5969,-79.1183,335.9,PA,INDIANA 3 SE,365,123
USC00364432,41.6767,-78.8036,533.4,PA,KANE 1NNE,367,132
USC00364763,40.05,-76.2742,82.3,PA,LANCASTER 2NE FLTR PLT,387,119
USC00364778,40.1167,-76.4333,109.7,PA,LANDISVILLE 2 NW,386,119
USC00364992,40.5864,-77.5692,140.2,PA,LEWISTOWN,377,123
USC00365109,41.1167,-77.45,172.5,PA,LOCK HAVEN SWG PLT,378,127
USC00365686,39.7808,-79.0411,609.6,PA,MEYERSDALE 2 SSW,365,117
USC00365902,40.65,-80.3833,210.3,PA,MONTGOMERY L&D,354,124
USC00365915,41.8511,-75.8583,432.8,PA,MONTROSE,391,133
USC00366151,40.6167,-79.7167,231.6,PA,NATRONA LOCK 4,360,123
USC00366194,40.1358,-74.955,18.3,PA,NESHAMINY FALLS,398,120
USC00366233,41.0172,-80.3619,251.5,PA,NEW CASTLE 1 N,355,127
USC00366289,39.7342,-76.5039,243.8,PA,NEW PARK,385,116
USC00366508,39.8,-76.05,79.2,PA,OCTORARO LAKE,389,117
USC00366681,40.3856,-75.5022,91.4,PA,PALM 3 SE,393,122
USC00367103,41.8158,-78.2875,449.6,PA,PORT ALLEGANY,371,133
USC00367229,40.925,-79.2825,390.1,PA,PUTNEYVILLE 2 SE DAM,363,126
USC00367409,41.3297,-77.7381,201.2,PA,RENOVO,376,129
USC00367477,41.4197,-78.7492,414.5,PA,RIDGWAY,368,130
USC00367730,41.8422,-77.4747,609.6,PA,SABINSVILLE 3 SE,378,133
USC00367735,40.7819,-79.2375,353.6,PA,SAGAMORE,364,125
USC00367782,40.51,-79.5458,338,PA,SALINA 3 W,361,123
USC00367846,40.2172,-78.2539,253,PA,SAXTON 1W,371,120
USC00367931,40.7831,-76.8617,128,PA,SELINSGROVE 2 S,383,125
USC00368057,41.1831,-76.1489,208.8,PA,SHICKSHINNY 3 N,388,128
USC00368073,40.05,-77.5167,207.3,PA,SHIPPENSBURG,377,119
USC00368145,41.3203,-78.0958,249.9,PA,SINNEMAHONING,373,129
USC00368184,41.05,-80.0667,381,PA,SLIPPERY ROCK 1 SSW,357,127
USC00368308,39.8583,-77.4775,463.3,PA,SOUTH MTN,378,117
USC00368379,39.8692,-76.8636,137.2,PA,SPRING GROVE,383,117
USC00368449,40.7933,-77.8672,356.6,PA,STATE COLLEGE,375,125
USC00368469,41.4,-78.0167,284.1,PA,STEVENSON DAM,373,130
USC00368596,41.0125,-75.1906,140.2,PA,STROUDSBURG,396,127
USC00368692,41.9478,-75.6047,277.4,PA,SUSQUEHANNA,393,134
USC00368758,40.7947,-75.9753,281.9,PA,TAMAQUA,390,125
USC00368888,41.6333,-79.7,371.9,PA,TITUSVILLE WTR WKS,360,132
USC00369050,39.915,-79.7192,291.4,PA,UNIONTOWN 1 NE,360,118
USC00369367,39.9,-80.1667,286.5,PA,WAYNESBURG 1 E,356,118
USC00369823,40.0417,-78.5278,361.2,PA,WOLFSBURG,369,119
USC00369933,39.9167,-76.75,118.9,PA,YORK 3 SSW PUMP STN,384,118
USC00374266,41.4906,-71.5414,34.7,RI,KINGSTON,425,130
USC00375270,41.8564,-71.7333,192,RI,NORTH FOSTER 1 E,424,133
USC00379423,41.9844,-71.4908,33.5,RI,WOONSOCKET,426,134
USC00380126,33.0167,-81.3167,54.9,SC,ALLENDALE 2 NW,347,63
USC00380506,33.9,-81.5389,201.2,SC,BATESBURG,345,70
USC00381093,33.5183,-79.0922,6.1,SC,BROOKGREEN GARDENS,365,67
USC00381462,34.8561,-80.9175,170.7,SC,CATAWBA,350,77
USC00381530,34.2142,-81.885,144.8,SC,CHAPPELLS 2 NNW,342,72
USC00381588,34.7319,-79.8833,42.7,SC,CHERAW,358,76
USC00381633,34.6847,-81.1958,170.7,SC,CHESTER 1 SE,348,76
USC00381770,34.6603,-82.8236,251.2,SC,CLEMSON UNIV,335,76
USC00381804,35.0269,-82.5011,341.4,SC,CLEVELAND 3S,337,79
USC00381944,33.9831,-81.0167,73.8,SC,COLUMBIA UNIV OF SC,349,70
USC00382712,33.8275,-81.9142,167.6,SC,EDGEFIELD 3 NNE,342,69
USC00382757,34.0628,-79.7556,32.3,SC,EFFINGHAM,359,71
USC00383216,35.0217,-81.0072,173.4,SC,FT MILL 4 NW,349,79
USC00383356,35.0922,-81.5578,198.1,SC,GAFFNEY 6 E,345,79
USC00383433,35.1381,-81.5961,182.9,SC,GASTON SHOALS,345,80
USC00383700,34.5581,-80.8911,108.5,SC,GREAT FALLS,350,75
USC00385017,34.4989,-82.0219,179.5,SC,LAURENS,341,74
USC00385200,34.1942,-81.415,216.7,SC,LITTLE MTN,346,72
USC00385232,34.7794,-81.4564,121.9,SC,LOCKHART,346,77
USC00386527,33.4886,-80.8733,54.9,SC,ORANGEBURG 2,351,66
USC00386616,34.7606,-80.3728,158.5,SC,PAGELAND,355,77
USC00386775,33.8017,-81.2744,137.2,SC,PELION 4 NW,347,69
USC00386831,34.8814,-82.7189,354.2,SC,PICKENS,336,78
USC00387631,33.9978,-81.7747,146.3,SC,SALUDA,343,70
USC00387666,34.1419,-80.87,134.1,SC,SANDHILL RSCH ELGIN,351,72
USC00387722,34.635,-81.5206,158.5,SC,SANTUCK,345,76
USC00388188,34.9078,-81.9139,185.9,SC,SPARTANBURG 3 SSE,342,78
USC00388440,33.9364,-80.3569,53.9,SC,SUMTER,355,70
USC00388887,34.7483,-83.0842,298.7,SC,WALHALLA,333,76
USC00389327,34.3739,-81.0928,170.7,SC,WINNSBORO,349,73
USC00389350,34.9381,-81.0317,210.3,SC,WINTHROP UNIV,349,78
USC00390043,43.4892,-99.0631,512.1,SD,ACADEMY 2NE,205,146
USC00390128,43.6567,-97.7853,412.4,SD,ALEXANDRIA,215,148
USC00391102,44.5547,-97.4686,557.8,SD,BRYANT,218,155
USC00391294,45.5489,-103.974,951,SD,CAMP CROOK,166,163
USC00391579,43.0431,-96.9033,384,SD,CENTERVILLE 6 SE,222,143
USC00391621,43.735,-99.312,506,SD,CHAMBERLAIN 5 S,203,148
USC00391739,44.8817,-97.7325,549.9,SD,CLARK,216,158
USC00391851,43.7847,-96.9275,493.8,SD,COLTON,222,149
USC00391873,45.725,-98.3,396.2,SD,COLUMBIA 8 N,211,164
USC00391972,43.9611,-101.861,735.8,SD,COTTONWOOD 2 E,183,150
USC00392429,45.0481,-101.599,723.9,SD,DUPREE,185,159
USC00392468,44.9964,-101.24,735.2,SD,EAGLE BUTTE,188,158
USC00392557,43.3728,-103.878,1100.3,SD,EDGEMONT,166,145
USC00392647,44.3186,-102.468,806.2,SD,ELM SPRINGS 3 ESE,178,153
USC00392852,45.0203,-102.037,790,SD,FAITH,181,159
USC00392927,45.0364,-99.1342,478.5,SD,FAULKTON 1 NW,204,159
USC00392984,44.0517,-96.5931,475.5,SD,FLANDREAU,225,151
USC00393069,44.41,-103.478,1005.8,SD,FT MEADE,170,154
USC00393076,44.2444,-100.659,484.6,SD,FT PIERRE 17 WSW,192,152
USC00393560,45.36,-103.812,1036.3,SD,HARDING 3 SE,167,161
USC00393775,43.8069,-103.213,-999.9,SD,HERMOSA 3 SSW,172,149
USC00393868,43.9325,-103.559,1482.5,SD,HILL CITY,169,150
USC00394007,43.4378,-103.474,1085.1,SD,HOT SPRINGS,170,146
USC00394206,45.4478,-99.0383,466.3,SD,IPSWICH,205,162
USC00394254,44.3647,-97.8486,426.7,SD,IROQUOIS,215,153
USC00394516,43.9072,-99.8628,518.2,SD,KENNEBEC,199,150
USC00394596,44.6122,-101.337,658.4,SD,KIRLEY 6 N,187,155
USC00394834,44.3533,-103.771,1630.7,SD,LEAD,167,153
USC00395228,43.4206,-97.2567,442,SD,MARION,219,146
USC00395381,45.8383,-101.277,662.9,SD,MC INTOSH 6 SE,187,165
USC00395481,43.2358,-97.5714,403.6,SD,MENNO,217,144
USC00395544,44.5208,-101.619,681.8,SD,MILESVILLE 5 NE,185,155
USC00395620,43.3061,-100.656,788.5,SD,MISSION,192,145
USC00395638,43.1114,-100.608,856.5,SD,MISSION 14 S,193,143
USC00395870,43.8769,-103.458,1600.2,SD,MT RUSHMORE NATL MEM,170,150
USC00396212,43.1878,-103.237,1020.5,SD,OELRICHS,172,144
USC00396292,44.7317,-100.145,563.9,SD,ONIDA 4 NW,196,156
USC00396335,44.8892,-99.0864,487.7,SD,ORIENT,205,158
USC00396427,44.0622,-103.482,1438.7,SD,PACTOLA DAM,170,151
USC00396669,43.3892,-98.8414,490.7,SD,PLATTE,207,146
USC00396712,45.9042,-100.287,498.3,SD,POLLOCK,195,166
USC00397007,44.9439,-97.9247,452.6,SD,RAYMOND 3 NE,214,158
USC00397062,45.3767,-103.368,935.7,SD,REDIG 11 NE,171,162
USC00397545,45.51,-100.036,579.7,SD,SELBY,197,163
USC00398307,45.4283,-101.076,658.4,SD,TIMBER LAKE,189,162
USC00398472,42.9939,-97.8619,432.8,SD,TYNDALL,215,142
USC00398767,43.0833,-98.2894,435.9,SD,WAGNER,211,143
USC00398980,45.4247,-97.3269,557.8,SD,WAUBAY NWR,219,162
USC00399070,44.0761,-98.5706,515.1,SD,WESSINGTON SPRINGS,209,151
USC00399337,45.4081,-96.86,353.6,SD,WILMOT,223,162
USC00399367,43.3686,-99.8403,614.5,SD,WINNER,199,145
USC00400081,36.3806,-84.8744,501.4,TN,ALLARDT,319,90
USC00400137,35.1131,-89.2122,140.2,TN,AMES PLANTATION,284,79
USC00400284,35.4322,-84.5833,286.5,TN,ATHENS,321,82
USC00400876,35.2622,-88.9892,138.7,TN,BOLIVAR WTR WKS,286,81
USC00401145,35.5894,-89.2586,100.6,TN,BROWNSVILLE,283,83
USC00401790,36.5472,-87.3353,122.5,TN,CLARKSVILLE WWTP,299,91
USC00401808,35.2203,-84.7981,243.8,TN,CLEVELAND FLTR PLT,319,80
USC00402009,36.1075,-85.5033,332.2,TN,COOKEVILLE,313,87
USC00402108,35.5497,-89.7,117.3,TN,COVINGTON 3 SW,280,83
USC00402202,36.0147,-85.1311,551.7,TN,CROSSVILLE ED & RESEARCH,316,87
USC00402360,35.4717,-84.9947,263.7,TN,DAYTON 2SE,318,82
USC00402600,36.2833,-88.7,137.2,TN,DRESDEN,288,89
USC00402934,36.1422,-82.4261,524.3,TN,ERWIN 1 W,338,88
USC00403280,35.9417,-86.8686,199.6,TN,FRANKLIN SEWAGE PLT,303,86
USC00403679,36.1056,-82.8436,402.3,TN,GREENEVILLE EXP STN,335,87
USC00404417,36.0028,-88.4253,134.1,TN,HUNTINGDON WTP,290,87
USC00404561,35.6214,-88.8456,121.9,TN,JACKSON EXP STN,287,83
USC00404590,36.4256,-84.9414,515.1,TN,JAMESTOWN,318,90
USC00404858,36.5194,-82.5275,391.4,TN,KINGSPORT,337,91
USC00404871,35.8575,-84.5278,222.5,TN,KINGSTON,321,85
USC00404946,35.8819,-83.9572,253,TN,KNOXVILLE EXP STN,326,86
USC00405118,36.2981,-86.2631,155.4,TN,LEBANON 7 N,307,89
USC00405187,35.4139,-86.8086,239.9,TN,LEWISBURG EXP STN,303,82
USC00405681,36.3444,-88.8636,103.6,TN,MARTIN U OF T BRANCH E,287,89
USC00405882,35.6722,-85.7811,286.5,TN,MC MINNVILLE,311,84
USC00406162,35.2244,-85.8417,563.9,TN,MONTEAGLE,311,80
USC00406170,36.1483,-85.265,566.9,TN,MONTEREY,315,88
USC00406371,35.9203,-86.3728,163.1,TN,MURFREESBORO 5 N,307,86
USC00406435,35.7197,-86.9653,213.4,TN,NEAPOLIS RES & EDU STN,302,84
USC00406493,36.5522,-84.1722,300.2,TN,NEWCOMB,324,91
USC00406534,35.9833,-83.2008,315.8,TN,NEWPORT 1 NW,332,86
USC00406803,36.2953,-86.6569,140.2,TN,OLD HICKORY DAM,304,89
USC00407184,35.5981,-85.1936,263.3,TN,PIKEVILLE,316,83
USC00407459,35.1842,-87.0422,196.3,TN,PULASKI WWTP,301,80
USC00407834,35.8528,-84.705,262.1,TN,ROCKWOOD 2,320,85
USC00408160,35.1647,-88.5994,143.3,TN,SELMER,289,80
USC00408405,35.9419,-85.7892,271.3,TN,SMITHVILLE 2 SE,311,86
USC00408562,36.4711,-86.8414,227.1,TN,SPRINGFIELD EXP STN,303,90
USC00408868,36.465,-83.5603,416.1,TN,TAZEWELL,329,90
USC00409155,35.3453,-86.2089,311.5,TN,TULLAHOMA,308,81
USC00409219,36.3925,-89.0317,106.7,TN,UNION CITY,285,90
USC00409866,35.8375,-86.0894,228.6,TN,WOODBURY 1 WNW,309,85
USC00410190,31.6094,-95.1342,85.3,TX,ALTO 5 SW,236,51
USC00410225,29.4608,-101.029,352.7,TX,AMISTAD DAM,189,34
USC00410235,29.7878,-94.6342,7.3,TX,ANAHUAC,240,37
USC00410246,30.7569,-97.8619,323.1,TX,ANDICE 2 SW,215,45
USC00410257,29.1572,-95.4592,8.2,TX,ANGLETON 2 W,234,32
USC00410271,33.4406,-98.3708,317,TX,ANTELOPE,211,66
USC00410337,32.7572,-97.0736,163.4,TX,ARLINGTON SIX FLAGS,221,61
USC00410394,33.1525,-100.233,509,TX,ASPERMONT,196,64
USC00410404,32.1633,-95.83,136.6,TX,ATHENS,231,56
USC00410518,32.2631,-96.6369,140.5,TX,BARDWELL DAM,224,57
USC00410586,29.9142,-94.9908,7.9,TX,BAYTOWN,238,38
USC00410611,30.0969,-94.0997,6.1,TX,BEAUMONT CITY,245,39
USC00410613,30.0689,-94.2928,8.2,TX,BEAUMONT RSCH CTR,243,39
USC00410691,32.6475,-97.4439,240.8,TX,BENBROOK DAM,218,60
USC00410738,30.7603,-98.0164,347.2,TX,BERTRAM 3 ENE,213,45
USC00410832,30.1061,-98.4286,420.6,TX,BLANCO,210,39
USC00410902,29.7986,-98.7353,440.4,TX,BOERNE,208,37
USC00410944,36.4533,-100.539,838.2,TX,BOOKER,193,90
USC00410958,35.6364,-101.454,934.8,TX,BORGER,186,84
USC00411000,35.5303,-102.256,972.6,TX,BOYS RANCH,179,83
USC00411017,31.1444,-99.3492,521.2,TX,BRADY,203,48
USC00411035,32.6489,-98.1336,256,TX,BRAZOS,212,60
USC00411045,31.1589,-96.6825,143.3,TX,BREMOND,224,48
USC00411048,30.1592,-96.3972,95.4,TX,BRENHAM,226,40
USC00411089,31.305,-94.2703,74.7,TX,BROADDUS,243,49
USC00411128,33.1908,-102.268,1005.8,TX,BROWNFIELD 2,179,64
USC00411215,29.7386,-98.4522,329.2,TX,BULVERDE,210,36
USC00411239,31.9917,-99.2203,474,TX,BURKETT,204,54
USC00411250,30.7586,-98.2339,391.7,TX,BURNET,212,45
USC00411314,30.5322,-96.7022,111.3,TX,CALDWELL,224,43
USC00411337,28.4658,-98.3539,66.4,TX,CALLIHAM,211,26
USC00411416,30.1383,-104.682,876.9,TX,CANDELARIA,160,40
USC00411429,29.8706,-98.1967,304.8,TX,CANYON DAM,212,37
USC00411486,28.4897,-99.8739,186.8,TX,CARRIZO SPRINGS 3W,199,26
USC00411500,32.1614,-94.3397,93,TX,CARTHAGE,243,56
USC00411524,29.1344,-103.515,661.1,TX,CASTOLON,169,32
USC00411541,30.0164,-97.4786,132.9,TX,CEDAR CREEK 5 S,218,39
USC00411578,31.8075,-94.1642,99.1,TX,CENTER,244,53
USC00411580,31.4683,-98.4106,416.1,TX,CENTER CITY,210,50
USC00411596,31.2581,-95.9744,97.5,TX,CENTERVILLE,230,49
USC00411625,32.1561,-97.9369,345.3,TX,CHALK MTN,214,56
USC00411663,28.9275,-98.7494,134.4,TX,CHARLOTTE 5 NNW,208,30
USC00411715,29.2703,-103.3,1615.4,TX,CHISOS BASIN,171,33
USC00411720,28.4675,-98.2525,70.1,TX,CHOKE CANYON DAM,211,26
USC00411772,33.6164,-95.0717,132.6,TX,CLARKSVILLE 2NE,237,67
USC00411800,32.3139,-97.4061,238.7,TX,CLEBURNE,218,57
USC00411810,30.3636,-95.0839,59.7,TX,CLEVELAND,237,41
USC00411875,31.8211,-99.42,526.4,TX,COLEMAN,202,53
USC00411911,29.6989,-96.5731,68.6,TX,COLUMBUS,225,36
USC00411946,36.2353,-102.241,1164.3,TX,CONLEN,180,88
USC00411956,30.3303,-95.4831,74.7,TX,CONROE,234,41
USC00411974,31.5333,-101.284,755.9,TX,COPE RCH,187,51
USC00411990,31.1603,-97.9564,374.9,TX,COPPERAS COVE 5 NW,214,48
USC00412019,32.1225,-96.4867,136.9,TX,CORSICANA,226,55
USC00412096,32.5286,-97.6189,316.7,TX,CRESSON,217,59
USC00412114,31.3072,-95.4508,105.8,TX,CROCKETT,234,49
USC00412121,33.6517,-101.245,917.4,TX,CROSBYTON,188,68
USC00412160,28.6794,-99.8311,176.8,TX,CRYSTAL CITY,199,28
USC00412218,30.4364,-95.7919,73.2,TX,DACUS,231,42
USC00412225,32.9203,-94.7225,91.4,TX,DAINGERFIELD 9 S,240,62
USC00412266,29.0567,-96.2319,21.3,TX,DANEVANG 1 W,228,31
USC00412334,33.2733,-97.5769,297.8,TX,DECATUR,217,65
USC00412404,33.1989,-97.105,192,TX,DENTON 2 SE,221,64
USC00412444,31.9122,-95.2622,187.8,TX,DIALVILLE 2 W,235,54
USC00412464,34.5858,-102.312,1173.5,TX,DIMMITT 2 N,179,75
USC00412621,33.8094,-100.517,612.6,TX,DUMONT,193,69
USC00412633,33.8158,-98.9317,320.3,TX,DUNDEE 6 NNW,206,69
USC00412679,28.7569,-100.479,247.5,TX,EAGLE PASS 3N,194,29
USC00412820,30.3494,-97.3683,176.5,TX,ELGIN,219,41
USC00412824,28.4747,-100.215,246,TX,EL INDIO 7ESE,196,26
USC00413060,26.5581,-99.1372,97.5,TX,FALCON DAM,204,11
USC00413065,28.9614,-98.1103,104.5,TX,FALLS CITY 7 WSW,213,30
USC00413133,32.5339,-96.6608,143.3,TX,FERRIS,224,59
USC00413183,29.6339,-97.0644,143.3,TX,FLATONIA 4SE,221,36
USC00413201,29.1322,-98.1597,121.9,TX,FLORESVILLE,212,32
USC00413214,33.985,-101.334,981.5,TX,FLOYDADA,187,70
USC00413215,33.8761,-101.246,954,TX,FLOYDADA 9 SE,188,70
USC00413247,33.4661,-97.5797,338.3,TX,FORESTBURG 5 S,217,66
USC00413321,31.0328,-96.4889,142.3,TX,FRANKLIN,226,47
USC00413329,30.2392,-98.9089,513.6,TX,FREDERICKSBURG,206,40
USC00413340,28.9844,-95.3808,2.4,TX,FREEPORT 2 NW,234,30
USC00413368,34.64,-102.723,1222.2,TX,FRIONA,176,76
USC00413370,33.1519,-96.8122,225.6,TX,FRISCO,223,64
USC00413508,28.3064,-98.1222,68.6,TX,GEORGE WEST 2 SSW,213,25
USC00413525,30.1872,-96.8594,167.6,TX,GIDDINGS 5E,223,40
USC00413546,32.7464,-95.0497,118.9,TX,GILMER 4 WNW,237,60
USC00413605,30.3481,-98.6861,499.9,TX,GOLD,208,41
USC00413614,31.4403,-98.5903,459.3,TX,GOLDTHWAITE 1 WSW,209,50
USC00413618,28.6617,-97.385,43.3,TX,GOLIAD,218,28
USC00413622,29.5339,-97.45,115.8,TX,GONZALES 1N,218,35
USC00413685,30.715,-97.4483,174.3,TX,GRANGER,218,44
USC00413686,30.7189,-97.3211,169.2,TX,GRANGER DAM,219,44
USC00413691,32.9506,-97.0553,178.3,TX,GRAPEVINE DAM,221,62
USC00413787,36.2631,-101.405,966.2,TX,GRUVER,186,89
USC00413828,33.6267,-100.337,536.4,TX,GUTHRIE,195,68
USC00413873,29.4706,-96.9397,83.8,TX,HALLETTSVILLE 2 N,222,34
USC00413943,26.2028,-97.6728,11.6,TX,HARLINGEN,216,8
USC00413954,30.3011,-99.2681,628.2,TX,HARPER 1W,203,41
USC00414058,27.3194,-98.6775,176.8,TX,HEBBRONVILLE,208,17
USC00414081,32.1808,-94.7964,128,TX,HENDERSON,239,56
USC00414137,31.9844,-98.0311,317.9,TX,HICO,213,54
USC00414140,36.1161,-100.024,781.5,TX,HIGGINS,197,87
USC00414182,32.0161,-97.1094,167.6,TX,HILLSBORO,221,55
USC00414257,33.5881,-95.9039,207.3,TX,HONEY GROVE,230,67
USC00414313,29.8142,-95.7275,38.7,TX,HOUSTON BARKER,232,37
USC00414315,29.7283,-95.1306,10.7,TX,HOUSTON DEER PARK,236,36
USC00414327,29.8733,-95.5275,34.1,TX,HOUSTON NORTH HOUSTON,233,37
USC00414382,30.7064,-95.5422,150.6,TX,HUNTSVILLE,233,44
USC00414390,31.6544,-97.7086,313.9,TX,HURST SPRINGS,216,52
USC00414402,30.2533,-98.5711,443.8,TX,HYE,209,41
USC00414556,30.8472,-97.5994,259.1,TX,JARRELL,217,45
USC00414563,30.9153,-94.0097,88.4,TX,JASPER,245,46
USC00414575,29.7664,-97.3164,126.5,TX,JEDDO 3S,219,37
USC00414605,30.2836,-98.4172,375.5,TX,JOHNSON CITY,210,41
USC00414647,28.9122,-98.5425,157.9,TX,JOURDANTON,209,30
USC00414705,32.5589,-96.2725,128,TX,KAUFMAN 3 SE,227,59
USC00414782,30.0747,-99.1081,544.1,TX,KERRVILLE 3 NNE,205,39
USC00414903,29.9172,-96.8753,108.8,TX,LA GRANGE,222,38
USC00414920,28.9831,-99.8686,231.3,TX,LA PRYOR,199,30
USC00414950,29.2694,-103.757,732.4,TX,LAJITAS,167,33
USC00414982,33.7542,-99.1442,355.7,TX,LAKE KEMP,204,69
USC00415013,32.7228,-101.946,903.7,TX,LAMESA 1 SSE,182,60
USC00415018,31.0717,-98.1847,314.6,TX,LAMPASAS,212,47
USC00415048,29.8097,-101.56,393.2,TX,LANGTRY,185,37
USC00415060,27.5683,-99.4983,131.1,TX,LAREDO 2,202,19
USC00415094,33.0353,-96.4861,155.4,TX,LAVON DAM,226,63
USC00415097,32.1414,-99.7528,594.4,TX,LAWN,199,56
USC00415158,32.3081,-101.878,867.2,TX,LENORAH,182,57
USC00415183,33.55,-102.376,1071.1,TX,LEVELLAND,178,67
USC00415193,30.4064,-97.0136,141.7,TX,LEXINGTON,221,42
USC00415196,30.0592,-94.795,10.7,TX,LIBERTY,239,39
USC00415271,30.7394,-94.9256,54.3,TX,LIVINGSTON 2 NNE,238,44
USC00415272,30.7425,-98.6542,310.9,TX,LLANO,208,44
USC00415415,31.4269,-94.8942,106.7,TX,LUFKIN 11 NW,238,50
USC00415429,29.6756,-97.6578,121.9,TX,LULING,216,36
USC00415477,30.9392,-95.9203,76.8,TX,MADISONVILLE,230,46
USC00415618,32.5403,-94.3508,107.3,TX,MARSHALL,243,59
USC00415659,28.6836,-95.9733,3,TX,MATAGORDA NO 2,230,28
USC00415661,28.0372,-97.8725,42.1,TX,MATHIS 4 SSW,215,23
USC00415757,31.435,-97.4011,220.4,TX,MCGREGOR,218,50
USC00415822,30.9144,-99.7958,612.6,TX,MENARD,199,46
USC00415836,26.0619,-97.8997,22.9,TX,MERCEDES 6 SSE,214,7
USC00415904,31.0706,-95.715,71.6,TX,MIDWAY 4 NE,232,47
USC00416060,32.3842,-98.1703,321.9,TX,MORGAN MILL,212,58
USC00416074,33.7192,-102.76,1149.1,TX,MORTON,175,68
USC00416104,30.7053,-104.023,2069.6,TX,MT LOCKE,165,44
USC00416108,33.1689,-95.0056,129.5,TX,MT PLEASANT,237,64
USC00416119,33.1953,-95.2233,136.2,TX,MT VERNON,236,64
USC00416130,33.6564,-97.3769,315.8,TX,MUENSTER,218,68
USC00416137,33.9544,-102.778,1140,TX,MULESHOE NTL WR,175,70
USC00416177,31.6164,-94.6431,132.6,TX,NACOGDOCHES,240,51
USC00416276,29.7192,-98.1189,189,TX,NEW BRAUNFELS,213,36
USC00416280,30.1375,-95.1783,71.6,TX,NEW CANEY 2 E,236,40
USC00416367,31.1081,-98.3794,414.5,TX,NIX STORE 1 W,210,47
USC00416433,34.2606,-100.601,630.9,TX,NORTHFIELD,193,73
USC00416477,36.1014,-100.589,883.9,TX,NOTLA 3 SE,193,87
USC00416495,32.0567,-100.296,612.3,TX,OAK CREEK LAKE,195,55
USC00416496,31.5914,-95.8442,86.6,TX,OAKWOOD,231,51
USC00416502,31.8797,-102.359,887,TX,ODESSA,179,54
USC00416664,30.0858,-93.7417,3,TX,ORANGE,248,39
USC00416742,33.8083,-100.298,558.4,TX,PADUCAH 15 S,195,69
USC00416766,32.7664,-98.3083,317,TX,PALO PINTO,211,61
USC00416776,35.5544,-100.974,960.1,TX,PAMPA 2,190,83
USC00416785,35.4139,-101.342,1076.6,TX,PANHANDLE,187,82
USC00416952,36.1017,-100.739,909.8,TX,PERRYTON 21 S,192,87
USC00417040,31.2447,-93.9658,67.1,TX,PINELAND,246,48
USC00417079,34.1892,-101.702,1027.2,TX,PLAINVIEW,184,72
USC00417172,29.9044,-93.9708,1.5,TX,PORT ARTHUR CITY,246,38
USC00417184,26.5578,-97.4264,2.7,TX,PORT MANSFIELD,218,11
USC00417215,29.0283,-98.5686,129.5,TX,POTEET,209,31
USC00417300,31.9633,-98.4942,372.2,TX,PROCTOR RSVR,210,54
USC00417327,32.3664,-99.1925,496.8,TX,PUTNAM,204,57
USC00417388,32.2619,-97.7064,197.5,TX,RAINBOW,216,57
USC00417588,32.9964,-96.7428,206.7,TX,RICHARDSON,224,62
USC00417593,31.27,-98.9486,420.6,TX,RICHLAND SPRINGS,206,49
USC00417594,29.5839,-95.7553,30.8,TX,RICHMOND,231,35
USC00417659,33.005,-97.2331,195.4,TX,ROANOKE,220,63
USC00417677,27.7894,-97.6619,25.9,TX,ROBSTOWN,216,21
USC00417685,30.6431,-97.0372,160.9,TX,ROCKDALE,221,44
USC00417704,28.0286,-97.0567,2.7,TX,ROCKPORT,221,23
USC00417707,32.9331,-96.4647,165.5,TX,ROCKWALL,226,62
USC00417773,32.4611,-96.4494,110.9,TX,ROSSER,226,58
USC00417791,30.5414,-97.635,219.8,TX,ROUND ROCK 3 NE,216,43
USC00417836,28.8297,-97.7133,89.9,TX,RUNGE,216,29
USC00417841,31.8086,-95.1428,219.5,TX,RUSK,236,53
USC00417873,29.3283,-99.4653,290.5,TX,SABINAL,202,33
USC00417936,31.0619,-94.1011,57.6,TX,SAM RAYBURN DAM,245,47
USC00418022,30.1414,-102.392,849.8,TX,SANDERSON,178,40
USC00418081,27.2169,-97.6956,11.6,TX,SARITA 7 E,216,16
USC00418126,29.6825,-96.8564,88.4,TX,SCHULENBURG,223,36
USC00418201,32.7131,-102.647,1011,TX,SEMINOLE,176,60
USC00418252,30.6886,-101.827,662.9,TX,SHEFFIELD,183,44
USC00418274,33.7033,-96.6419,231.6,TX,SHERMAN,224,68
USC00418323,34.4722,-101.301,999.7,TX,SILVERTON,187,74
USC00418326,31.9669,-99.5545,597.4,TX,SILVER VALLEY,201,54
USC00418373,33.4367,-101.647,939.4,TX,SLATON,184,66
USC00418446,30.3367,-96.5403,80.2,TX,SOMERVILLE DAM,225,41
USC00418519,29.2728,-96.6858,43.6,TX,SPEAKS 2,224,33
USC00418531,30.4828,-98.1597,259.1,TX,SPICEWOOD,212,42
USC00418544,29.8656,-98.3819,341.1,TX,SPRING BRANCH 2SE,210,37
USC00418658,29.3258,-97.9753,161.5,TX,STOCKDALE 6N,214,33
USC00418696,32.6592,-98.4678,359.7,TX,STRAWN 8 NNE,210,60
USC00418743,33.1481,-95.6269,150.9,TX,SULPHUR SPRINGS,232,64
USC00418818,33.1714,-101.798,951,TX,TAHOKA,183,64
USC00418863,30.9731,-98.9433,557.8,TX,TAYLOR RCH,206,46
USC00418877,30.4333,-98.8097,524.3,TX,TEAGUE RCH,207,42
USC00418929,32.7336,-96.3225,150.9,TX,TERRELL,227,60
USC00418942,33.4367,-94.0772,118.9,TX,TEXARKANA,245,66
USC00419001,30.6167,-97.2,144.8,TX,THORNDALE,220,43
USC00419004,31.3917,-96.5656,144.8,TX,THORNTON 1SSE,225,50
USC00419076,30.1003,-95.6114,64,TX,TOMBALL,233,39
USC00419088,31.4028,-106.058,1074.4,TX,TORNILLO 2 SSE,149,50
USC00419099,30.8797,-98.4728,312.4,TX,TOW,210,46
USC00419153,31.2061,-97.2956,213.4,TX,TROY,219,48
USC00419175,34.5269,-101.839,1072.9,TX,TULIA,183,75
USC00419191,34.3956,-100.897,710.2,TX,TURKEY,190,74
USC00419224,34.9578,-102.104,1141.8,TX,UMBARGER,181,78
USC00419275,30.5525,-104.647,1339.3,TX,VALENTINE 10 WSW,160,43
USC00419491,30.3236,-96.1594,65.5,TX,WASHINGTON SP,228,41
USC00419501,31.8136,-100.629,748.3,TX,WATER VALLEY 11 NNE,192,53
USC00419504,30.9328,-98.0197,306.3,TX,WATSON,213,46
USC00419532,32.7483,-97.77,291.1,TX,WEATHERFORD,215,60
USC00419565,34.8422,-100.21,621.8,TX,WELLINGTON,196,77
USC00419715,31.8611,-97.375,175,TX,WHITNEY DAM,219,53
USC00419717,28.6611,-98.2553,78.6,TX,WHITSETT,211,28
USC00419800,32.7017,-96.015,158.5,TX,WILLS POINT,229,60
USC00419836,32.8892,-95.3331,130.8,TX,WINNSBORO 6 SW,235,62
USC00419859,33.3675,-96.0675,201.2,TX,WOLFE CITY,229,65
USC00419916,33.3042,-94.1728,86,TX,WRIGHT PATMAN DM & LK,244,65
USC00419952,29.2739,-97.1556,89.9,TX,YOAKUM,220,33
USC00419953,28.9803,-97.5186,79.2,TX,YORKTOWN,217,30
USC00420086,37.4403,-112.482,2145.8,UT,ALTON,98,98
USC00420738,37.6131,-109.485,1838.6,UT,BLANDING,122,99
USC00420788,37.2825,-109.558,1316.4,UT,BLUFF,121,97
USC00420820,40.8547,-111.89,1383.8,UT,BOUNTIFUL-VAL VERDA,102,125
USC00420849,37.905,-111.42,2036.1,UT,BOULDER,106,102
USC00421214,39.2078,-111.012,1713,UT,CASTLE DALE,109,112
USC00421918,41.8328,-112.056,1307.6,UT,CUTLER DAM UP&L,101,133
USC00422101,39.2872,-112.652,1399,UT,DESERET,96,113
USC00422385,40.9675,-111.431,1667.3,UT,ECHO DAM,106,126
USC00422578,39.3583,-111.599,1673.4,UT,EPHRAIM,105,113
USC00422592,37.7686,-111.598,1770.9,UT,ESCALANTE,105,101
USC00422798,39.0875,-111.132,1805.3,UT,FERRON,108,111
USC00422828,38.9664,-112.328,1560.6,UT,FILLMORE,99,110
USC00423776,37.6478,-112.433,2100.1,UT,HATCH,98,100
USC00423809,40.4917,-111.426,1703.8,UT,HEBER,106,122
USC00424135,41.2403,-111.713,1566.7,UT,HUNTSVILLE MONASTERY,104,128
USC00424342,40.3642,-109.345,1449.3,UT,JENSEN,123,121
USC00424508,37.0286,-112.537,1493.5,UT,KANAB,97,95
USC00424755,37.5142,-111.988,1769.4,UT,KODACHROME BASIN PARK,102,99
USC00424856,41.825,-111.321,1822.7,UT,LAKETOWN,107,133
USC00424968,37.2008,-113.269,973.5,UT,LA VERKIN,91,96
USC00425402,39.2583,-111.631,1749.6,UT,MANTI,104,113
USC00425582,37.1497,-109.868,1252.4,UT,MEXICAN HAT,119,96
USC00425723,38.2164,-112.921,1609.3,UT,MINERSVILLE,94,104
USC00425733,38.5744,-109.546,1235.4,UT,MOAB,121,107
USC00425805,37.8736,-109.308,2078.7,UT,MONTICELLO 2E,123,101
USC00426135,39.7122,-111.832,1563,UT,NEPHI,103,116
USC00426919,40.3675,-111.734,1436.2,UT,PLEASANT GROVE,104,121
USC00427064,40.2458,-111.651,1392.9,UT,PROVO BYU,104,120
USC00427260,38.7619,-112.077,1615.4,UT,RICHFIELD RADIO KSVC,101,109
USC00427271,41.9064,-111.81,1426.5,UT,RICHMOND,103,134
USC00428119,40.0797,-111.604,1438.7,UT,SPANISH FORK PWR HOUSE,105,119
USC00428771,40.5278,-112.298,1546.6,UT,TOOELE,99,123
USC00429133,40.1053,-112.435,1650.2,UT,VERNON,98,119
USC00429165,40.7908,-111.408,1810.5,UT,WANSHIP DAM,106,125
USC00429368,39.5447,-110.686,1645.9,UT,WELLINGTON 3 E,112,115
USC00429595,41.525,-111.149,1924.8,UT,WOODRUFF,108,131
USC00429717,37.2092,-112.981,1230.8,UT,ZION NP,94,96
USC00430661,43.8833,-72.6344,201.2,VT,BETHEL 4 N,416,150
USC00431243,43.3847,-72.5989,256.6,VT,CAVENDISH,417,146
USC00431433,43.7064,-72.9617,354.5,VT,CHITTENDEN,414,148
USC00435416,44.5247,-72.8153,1204,VT,MT MANSFIELD,415,155
USC00435542,44.9489,-72.1911,240.8,VT,NEWPORT,420,158
USC00436995,43.6253,-72.9781,189,VT,RUTLAND,414,148
USC00437098,43.9256,-73.0992,128,VT,SALISBURY 2 N,413,150
USC00437607,44.6264,-73.3031,33.5,VT,SOUTH HERO,412,156
USC00440327,37.75,-77.4833,67.1,VA,ASHLAND,378,101
USC00440766,37.2017,-80.4133,640.1,VA,BLACKSBURG NWSO,354,96
USC00440792,37.0997,-81.1161,609.6,VA,BLAND,349,95
USC00441136,37.5044,-78.5328,168.2,VA,BUCKINGHAM,369,99
USC00441209,37.0925,-81.3358,935.1,VA,BURKES GARDEN,347,95
USC00441593,38.0328,-78.5225,264,VA,CHARLOTTESVILLE 2W,369,103
USC00441614,36.8225,-79.4106,195.1,VA,CHATHAM,362,93
USC00441955,37.2819,-78.9592,193.5,VA,CONCORD 4 SSW,366,97
USC00441999,37.0864,-80.1422,819.9,VA,COPPER HILL,356,95
USC00442044,37.8106,-79.9883,374.9,VA,COVINGTON FLTR PLT,358,101
USC00442064,38.0517,-79.3858,535.8,VA,CRAIGSVILLE 2 S,362,103
USC00442208,38.4553,-78.9353,426.7,VA,DALE ENTERPRISE,366,106
USC00442245,36.5869,-79.3886,125,VA,DANVILLE,362,91
USC00442790,36.6983,-77.5597,30.5,VA,EMPORIA 1 WNW,377,92
USC00443310,37.9458,-79.9542,539.5,VA,GATHRIGHT DAM,358,102
USC00443375,37.62,-79.4369,225.6,VA,GLASGOW 1 SE,362,99
USC00443470,37.9839,-79.5008,411.5,VA,GOSHEN,361,102
USC00443640,37.2822,-82.0894,356.6,VA,GRUNDY,341,97
USC00444044,36.6831,-76.7683,24.4,VA,HOLLAND 1 E,383,92
USC00444148,37.1264,-79.5264,318.5,VA,HUDDLESTON 4 SW,361,96
USC00444414,36.6003,-78.3011,76.2,VA,JOHN H KERR DAM,371,91
USC00444565,37.8706,-79.5689,457.2,VA,KERRS CREEK 6 WNW,361,101
USC00444568,37.0142,-78.4697,161.5,VA,KEYSVILLE 2 S,370,95
USC00444676,37.2392,-80.1994,402.3,VA,LAFAYETTE 1 NE,356,96
USC00445050,38.0422,-78.0061,128,VA,LOUISA,373,103
USC00445453,36.6667,-80.4481,678.2,VA,MEADOWS OF DAN 5 SW,354,92
USC00445595,38.3064,-79.7197,737.9,VA,MILLGAP,360,105
USC00446475,37.5831,-75.8217,9.1,VA,PAINTER 2W,391,99
USC00446491,37.8142,-78.2644,125,VA,PALMYRA 3S,371,101
USC00446712,38.2322,-78.1203,158.5,VA,PIEDMONT RSCH STN,373,104
USC00446906,37.5144,-77.8858,121.9,VA,POWHATAN,374,99
USC00446955,37.0556,-80.7842,563.9,VA,PULASKI 2 E,351,95
USC00447925,36.6956,-78.8808,103.6,VA,SOUTH BOSTON,366,92
USC00448022,37.2714,-80.7131,594.4,VA,STAFFORDSVILLE 3 ENE,352,97
USC00448062,38.1692,-79.0844,51.5,VA,STAUNTON WATER TRMTMT PLT,365,104
USC00448084,38.9828,-77.4892,87.8,VA,STERLING RCS,378,110
USC00448192,36.7297,-76.6014,6.7,VA,SUFFOLK LAKE KILBY,385,92
USC00448547,36.6542,-81.4061,865.3,VA,TROUT DALE 3 SSE,346,92
USC00448600,37.6458,-78.965,219.5,VA,TYE RIVER 1 SE,366,100
USC00448829,37.7433,-77.04,15.2,VA,WALKERTON 2 NW,381,100
USC00448894,37.9881,-76.7769,42.7,VA,WARSAW 2 NW,383,102
USC00449025,37.5658,-76.8,6.1,VA,WEST POINT 2 NW,383,99
USC00449151,37.3017,-76.7039,21.3,VA,WILLIAMSBURG 2 N,384,97
USC00449181,39.1881,-78.1514,219.5,VA,WINCHESTER,372,112
USC00449213,37.3247,-77.6503,91.4,VA,WINTERPOCK 4 W,376,97
USC00449215,36.9986,-82.5389,776.9,VA,WISE 3E,337,94
USC00449301,36.9317,-81.0942,746.8,VA,WYTHEVILLE 1 S,349,94
USC00450008,46.9658,-123.829,3,WA,ABERDEEN,7,174
USC00450257,48.2006,-122.128,30.5,WA,ARLINGTON,20,184
USC00450294,46.2039,-117.247,1037.2,WA,ASOTIN 14 SW,60,168
USC00450482,45.7717,-122.529,86.6,WA,BATTLE GROUND,17,165
USC00450729,48.9775,-122.793,18.3,WA,BLAINE,15,190
USC00450844,48.9947,-117.354,559.9,WA,BOUNDARY DAM,59,190
USC00450945,47.1694,-122.004,208.8,WA,BUCKLEY 1 NE,21,176
USC00451233,47.4144,-121.756,475.5,WA,CEDAR LAKE,23,178
USC00451276,46.72,-122.953,56.4,WA,CENTRALIA,14,172
USC00451400,47.9967,-119.648,254.2,WA,CHIEF JOSEPH DAM,40,182
USC00451414,47.9522,-122.791,42.7,WA,CHIMACUM 4 S,15,182
USC00451679,48.5397,-121.742,59.4,WA,CONCRETE PPL FISH STN,24,187
USC00451691,46.5086,-118.788,328.6,WA,CONNELL 12 SE,47,171
USC00451939,47.3706,-123.16,6.4,WA,CUSHMAN POWERHOUSE 2,12,177
USC00452157,48.7142,-121.143,271.6,WA,DIABLO DAM,28,188
USC00452531,47.0092,-123.401,21.3,WA,ELMA,10,175
USC00452914,47.9558,-124.354,106.7,WA,FORKS 1 E,3,182
USC00453320,46.8008,-124.086,3,WA,GRAYLAND,5,173
USC00453515,47.4933,-118.25,658.4,WA,HARRINGTON 1 NW,52,178
USC00453883,46.2447,-118.879,112.2,WA,ICE HARBOR DAM,46,168
USC00454154,46.2111,-119.101,118.9,WA,KENNEWICK,45,168
USC00454486,47.3767,-121.961,163.1,WA,LANDSBURG,22,178
USC00454748,46.3675,-124.038,7.6,WA,LONG BEACH EXP STN,5,169
USC00454769,46.1506,-122.916,3.7,WA,LONGVIEW,14,168
USC00455110,46.5044,-122.594,85.3,WA,MAYFIELD PWR PLT,17,171
USC00455133,48.5933,-120.405,641.9,WA,MAZAMA,34,187
USC00455224,47.1358,-122.256,176.5,WA,MC MILLIN RSVR,19,176
USC00455305,45.9547,-122.564,68.3,WA,MERWIN DAM,17,166
USC00455525,47.8453,-121.994,36.6,WA,MONROE,22,181
USC00455688,46.5053,-120.168,472.4,WA,MOXEE CITY 10 E,36,171
USC00455774,46.3725,-123.753,15.2,WA,NASELLE 2 ENE,7,169
USC00455840,48.6758,-121.242,160,WA,NEWHALEM,28,188
USC00455946,48.8742,-117.867,450.2,WA,NORTHPORT,55,189
USC00456039,47.3328,-118.694,470,WA,ODESSA,48,177
USC00456096,48.6117,-122.806,24.4,WA,OLGA 2 SE,16,188
USC00456262,46.6092,-121.674,323.1,WA,PACKWOOD,24,171
USC00456295,47.3058,-121.851,280.4,WA,PALMER 3 ESE,23,177
USC00456534,47.785,-120.646,590.1,WA,PLAIN,32,181
USC00456914,46.6533,-123.73,9.1,WA,RAYMOND 2 S,8,172
USC00457015,46.3119,-119.263,113.7,WA,RICHLAND,43,169
USC00457059,47.1178,-118.372,566.9,WA,RITZVILLE 1 SSE,51,175
USC00457185,48.7272,-121.072,376.7,WA,ROSS DAM,29,188
USC00457507,48.4958,-122.235,18.3,WA,SEDRO WOOLLEY,20,186
USC00457544,48.085,-123.064,15.2,WA,SEQUIM 2 E,13,183
USC00457773,47.5414,-121.836,134.1,WA,SNOQUALMIE FALLS,23,179
USC00458059,48.3508,-120.726,383.1,WA,STEHEKIN 4 NW,32,185
USC00458278,47.2472,-122.412,7.6,WA,TACOMA 1,18,176
USC00458715,48.6525,-121.693,210.3,WA,UPPER BAKER DAM,24,188
USC00459021,47.3725,-122.703,5.2,WA,WAUNA 3 W,16,177
USC00459376,48.4742,-120.189,533.1,WA,WINTHROP 1 WSW,36,186
USC00460094,39.4789,-79.6275,371.6,WV,ALBRIGHT,360,114
USC00460102,37.7272,-80.6592,469.4,WV,ALDERSON,352,100
USC00460939,37.6411,-80.8831,423.7,WV,BLUESTONE LAKE,350,100
USC00461075,38.2347,-82.2033,182.9,WV,BRANCHLAND 1 N,340,104
USC00461215,38.1872,-80.1336,655.3,WV,BUCKEYE,356,104
USC00461282,38.845,-80.6203,239.3,WV,BURNSVILLE LAKE,353,109
USC00461677,39.2683,-80.3522,301.8,WV,CLARKSBURG 1,355,113
USC00462920,39.4667,-80.1333,396.2,WV,FAIRMONT,356,114
USC00463361,38.665,-80.7672,258.5,WV,GASSAWAY,351,108
USC00463464,38.8072,-79.7172,865.6,WV,GLADY 1 N,360,109
USC00463544,38.9339,-80.8325,216.4,WV,GLENVILLE,351,110
USC00463798,38.6197,-80.3822,484.6,WV,HACKER VALLEY,354,107
USC00463846,38.2794,-82.1114,207.3,WV,HAMLIN,341,105
USC00465002,39.72,-79.8561,274.3,WV,LAKE LYNN,359,116
USC00465224,37.8564,-80.4042,701,WV,LEWISBURG 3 N,354,101
USC00465563,38.1025,-81.8464,216.4,WV,MADISON 3NNW,343,103
USC00465600,37.7447,-81.8872,223.1,WV,MAN,342,100
USC00467018,40.1478,-80.7014,195.1,WV,PIKE ISLAND L&D,352,120
USC00467029,37.5742,-81.5356,390.1,WV,PINEVILLE,345,99
USC00467287,38.9189,-81.9114,177.1,WV,RACINE L&D,342,110
USC00468384,38.8008,-81.3583,287.4,WV,SPENCER,347,109
USC00468777,39.4467,-79.5469,801.6,WV,TERRA ALTA 1,361,114
USC00469011,37.5436,-80.5336,643.1,WV,UNION 3 SSE,353,99
USC00469281,39.1139,-78.5811,292.6,WV,WARDENSVILLE RM FARM,369,111
USC00469522,37.7889,-80.3083,585.2,WV,WHITE SULPHUR SPRINGS,355,101
USC00470124,44.3272,-91.9194,204.2,WI,ALMA DAM 4,262,153
USC00470175,45.3011,-92.3631,326.1,WI,AMERY,259,161
USC00470265,44.2769,-88.4378,241.4,WI,APPLETON,290,153
USC00470486,44.9633,-92.3906,335.3,WI,BALDWIN,258,158
USC00470645,43.4447,-88.8478,256,WI,BEAVER DAM,287,146
USC00470696,42.5039,-89.0311,237.7,WI,BELOIT,285,139
USC00470882,44.2906,-91.23,260.6,WI,BLAIR,268,153
USC00470892,42.8122,-89.8622,253.9,WI,BLANCHARDVILLE 2,279,141
USC00470904,45.0956,-91.4886,298.7,WI,BLOOMER,266,159
USC00471064,44.1614,-88.0803,246.9,WI,BRILLION,293,152
USC00471078,42.6181,-89.3861,240.8,WI,BRODHEAD,282,139
USC00471568,44.0328,-88.1469,256,WI,CHILTON,292,151
USC00471667,42.5492,-88.8753,292.6,WI,CLINTON,286,139
USC00471978,46.0086,-92.3736,289.6,WI,DANBURY,259,167
USC00472314,45.9169,-89.2564,494.7,WI,EAGLE RIVER,283,166
USC00472447,44.7331,-89.7581,344.7,WI,EAU PLEINE RSVR,279,156
USC00472556,44.7303,-92.4586,313.9,WI,ELLSWORTH 1 E,258,156
USC00472869,42.905,-88.8589,243.8,WI,FT ATKINSON,287,142
USC00472996,44.0758,-91.3411,233.2,WI,GALESVILLE 1ESE,267,151
USC00473038,43.5706,-91.2294,194.8,WI,GENOA DAM 8,268,147
USC00473182,45.1489,-90.0667,423.7,WI,GOODRICH 1 E,277,160
USC00473186,46.245,-91.8047,317,WI,GORDON,263,168
USC00473453,43.3311,-88.4114,298.7,WI,HARTFORD 2 W,290,145
USC00473654,43.6542,-90.3339,286.5,WI,HILLSBORO,275,148
USC00473756,43.4406,-88.6325,268.2,WI,HORICON,288,146
USC00474080,45.3497,-90.7483,385.6,WI,JUMP RIVER 3E,272,161
USC00474383,46.1211,-89.0758,536.4,WI,LAC VIEUX DESERT,285,167
USC00474546,42.8278,-90.7889,317,WI,LANCASTER 4 WSW,271,141
USC00474582,45.5119,-88.7594,516.6,WI,LAONA 6 SW,287,163
USC00474894,45.5733,-92.485,371.9,WI,LUCK,258,163
USC00474937,43.2117,-91.0986,192.9,WI,LYNXVILLE DAM 9,269,144
USC00475120,44.6319,-90.1314,377,WI,MARSHFIELD EXP FARM,276,156
USC00475255,45.1308,-90.3439,448.1,WI,MEDFORD,275,160
USC00475335,44.8742,-91.9364,237.7,WI,MENOMONIE,262,157
USC00475364,45.1786,-89.6617,381,WI,MERRILL,280,160
USC00475516,45.8864,-89.7322,488,WI,MINOCQUA,280,166
USC00475573,42.5994,-89.6681,301.8,WI,MONROE 1 W,280,139
USC00475581,43.7806,-89.3169,239.6,WI,MONTELLO,283,149
USC00475786,44.0261,-90.0814,281,WI,NECEDAH,277,151
USC00476200,43.1003,-88.5036,260.9,WI,OCONOMOWOC,289,143
USC00476280,43.7194,-90.53,292.6,WI,ONTARIO 3E,273,148
USC00476518,46.0664,-89.0753,542.5,WI,PHELPS,285,167
USC00476646,42.7489,-90.4656,301.8,WI,PLATTEVILLE,274,140
USC00476678,43.73,-87.9714,254.2,WI,PLYMOUTH,294,148
USC00476718,43.5278,-89.4342,236.2,WI,PORTAGE,282,147
USC00476827,43.0514,-91.135,200.6,WI,PRAIRIE DU CHIEN,268,143
USC00477113,45.5986,-89.4508,479.1,WI,RHINELANDER,282,163
USC00477132,45.4164,-91.7719,336.2,WI,RICE LAKE,263,162
USC00477158,43.3314,-90.3889,221.9,WI,RICHLAND CTR,274,145
USC00477480,45.9156,-89.4894,500.8,WI,ST GERMAIN,282,166
USC00477708,44.7631,-88.6183,245.7,WI,SHAWANO 2SSW,289,157
USC00478171,44.5114,-89.5856,328.9,WI,STEVENS POINT,281,155
USC00478241,44.8175,-90.09,375.2,WI,STRATFORD 1 NW,277,157
USC00478267,44.8797,-87.3356,213.1,WI,STURGEON BAY EXP FARM,299,158
USC00478349,46.7,-92.0167,192,WI,SUPERIOR,261,172
USC00478672,44.1431,-87.5678,179.5,WI,TWO RIVERS,297,152
USC00478723,42.6903,-88.0336,222.5,WI,UNION GROVE,293,140
USC00478919,43.1742,-88.7364,251.5,WI,WATERTOWN,288,144
USC00480540,44.38,-108.035,1169.5,WY,BASIN,133,154
USC00480552,42.6339,-106.378,1831.8,WY,BATES CREEK 2,146,140
USC00480740,44.1242,-106.732,1516.4,WY,BILLY CREEK,144,151
USC00481730,41.7594,-104.822,1616.7,WY,CHUGWATER,159,133
USC00481775,44.9367,-109.137,1246.6,WY,CLARK 3NE,124,158
USC00481840,44.5147,-109.045,1546.9,WY,CODY,125,155
USC00481855,44.3367,-109.391,1780,WY,CODY 21 SW,122,153
USC00482580,44.0992,-105.118,1313.7,WY,DILLINGER,157,151
USC00483855,44.2644,-105.492,1414.3,WY,GILLETTE 4SE,154,153
USC00484442,41.15,-105.167,2039.1,WY,HECLA 1E,156,128
USC00485260,41.6378,-104.167,1399,WY,LA GRANGE,164,132
USC00485506,44.85,-106.289,1268,WY,LEITER 9N,147,157
USC00485525,42.1953,-106.856,1839.5,WY,LEO 6 SW,143,136
USC00485770,44.8375,-108.404,1169.5,WY,LOVELL,130,157
USC00486440,43.8567,-110.589,2072,WY,MORAN 5WNW,113,149
USC00486555,41.2708,-110.331,2072.6,WY,MTN VIEW,115,129
USC00486660,43.8497,-104.189,1315.2,WY,NEWCASTLE,164,149
USC00487200,41.6264,-104.494,1518.5,WY,PHILLIPS,162,132
USC00487473,44.1786,-107.938,1225.3,WY,RAIRDEN 2WSW,134,152
USC00487555,43.245,-104.288,1185.7,WY,REDBIRD,163,144
USC00487760,43.0308,-108.374,1510.3,WY,RIVERTON,131,143
USC00488160,44.8406,-106.838,1143,WY,SHERIDAN FLD STA,143,157
USC00488705,44.4125,-104.361,1417.3,WY,SUNDANCE,163,154
USC00489615,42.1106,-104.949,1413.7,WY,WHEATLAND 4 N,158,135
USC00489770,44.0108,-107.969,1237.5,WY,WORLAND,134,151
USW00003103,35.1442,-111.666,2134.5,AZ,FLAGSTAFF PULLIAM AP,104,80
USW00003122,33.8017,-118.341,27.4,CA,TORRANCE AP,51,69
USW00003125,32.8356,-114.394,98.8,AZ,YUMA PROVING GROUND,82,61
USW00003159,34.7411,-118.212,712.6,CA,LANCASTER WM J FOX FLD,52,76
USW00003164,32.6233,-116.473,801.6,CA,CAMPO,66,59
USW00003810,35.7425,-81.3819,348.4,NC,HICKORY FAA AP,346,84
USW00003811,35.5931,-88.9167,132,TN,JACKSON MCKELLAR AP,286,83
USW00003812,35.4319,-82.5375,645.3,NC,ASHEVILLE RGNL AP,337,82
USW00003813,32.6847,-83.6528,104.5,GA,MACON MIDDLE GA RGNL AP,328,60
USW00003816,37.0683,-88.7719,119.5,KY,PADUCAH,287,95
USW00003820,33.3644,-81.9633,40.2,GA,AUGUSTA BUSH FLD AP,342,65
USW00003822,32.13,-81.21,14,GA,SAVANNAH INTL AP,348,56
USW00003841,36.0028,-84.2486,275.8,TN,OAK RIDGE ATDD,324,87
USW00003847,35.9508,-85.0814,569.1,TN,CROSSVILLE MEM AP,317,86
USW00003856,34.6439,-86.7861,190.2,AL,HUNTSVILLE INTL AP,303,76
USW00003859,37.2958,-81.2078,874.8,WV,BLUEFIELD MERCER CO AP,348,97
USW00003860,38.365,-82.555,251.2,WV,HUNTINGTON TRI STATE AP,337,105
USW00003870,34.8831,-82.2203,286.5,SC,GREER GS,340,78
USW00003872,37.7836,-81.1231,766.3,WV,BECKLEY RALEIGH CO AP,349,101
USW00003881,32.8661,-87.2383,137.2,AL,CENTREVILLE 6 SW,300,61
USW00003889,37.5908,-83.3131,415.7,KY,JACKSON,331,99
USW00003904,30.5892,-96.3647,93,TX,COLLEGE STN,227,43
USW00003927,32.8978,-97.0189,170.7,TX,DALLAS FT WORTH AP,221,62
USW00003928,37.6544,-97.4425,406.9,KS,WICHITA,218,100
USW00003935,37.2253,-89.5706,102.4,MO,CAPE GIRARDEAU MUNI AP,281,96
USW00003937,30.125,-93.2158,4,LA,LAKE CHARLES,252,40
USW00003940,32.3206,-90.0778,100.6,MS,JACKSON INTL AP,277,57
USW00003945,38.8169,-92.2183,272.2,MO,COLUMBIA RGNL AP GS,260,109
USW00003947,39.2972,-94.7306,306.3,MO,KANSAS CITY INTL AP,240,113
USW00003951,32.35,-94.65,124.1,TX,LONGVIEW WSMO,240,57
USW00003952,34.8364,-92.2619,173.1,AR,LITTLE ROCK,259,77
USW00003969,32.2314,-98.2319,393.2,TX,STEPHENVILLE,212,56
USW00004725,42.1997,-75.985,489.5,NY,BINGHAMTON,390,136
USW00012815,28.4339,-81.325,27.4,FL,ORLANDO INTL AP,347,26
USW00012816,29.6919,-82.2756,37.5,FL,GAINESVILLE RGNL AP,339,36
USW00012832,29.7333,-85.0333,5.8,FL,APALACHICOLA AP,317,37
USW00012834,29.1828,-81.0483,9.4,FL,DAYTONA BEACH INTL AP,349,32
USW00012835,26.585,-81.8614,4.6,FL,FT MYERS PAGE FLD AP,343,11
USW00012836,24.555,-81.7522,1.2,FL,KEY WEST INTL AP GS,349,0
USW00012838,28.1011,-80.6439,8.2,FL,MELBOURNE INTL AP,352,23
USW00012839,25.7906,-80.3164,8.8,FL,MIAMI INTL AP,355,5
USW00012842,27.9619,-82.5403,5.8,FL,TAMPA INTL AP GS,338,22
USW00012843,27.6531,-80.2428,8.5,FL,VERO BEACH INTL AP,354,20
USW00012844,26.6847,-80.0994,5.8,FL,WEST PALM BEACH INTL AP,357,12
USW00012912,28.8614,-96.9303,35.1,TX,VICTORIA RGNL AP,222,29
USW00012916,29.9933,-90.2511,1.2,LA,NEW ORLEANS INTL AP GS,275,38
USW00012917,29.9506,-94.0206,4.9,TX,PORT ARTHUR SE TX AP,245,38
USW00012918,29.6381,-95.2819,13.4,TX,HOUSTON HOBBY AP,235,36
USW00012919,25.9156,-97.4186,7,TX,BROWNSVILLE,218,6
USW00012921,29.5442,-98.4839,240.5,TX,SAN ANTONIO INTL AP GS,210,35
USW00012924,27.7839,-97.5108,13.7,TX,CORPUS CHRISTI,217,21
USW00012928,27.5,-97.8167,17.1,TX,KINGSVILLE NAAS,215,19
USW00012935,28.7247,-96.2536,3.7,TX,PALACIOS MUNI AP,227,28
USW00012960,29.98,-95.36,29,TX,HOUSTON INTERCONT AP,235,38
USW00013722,35.8922,-78.7819,126.8,NC,RALEIGH DURHAM INTL AP GS,367,86
USW00013723,36.0969,-79.9433,271.3,NC,PIEDMONT TRIAD INTL AP,358,87
USW00013724,39.3792,-74.4242,3,NJ,ATLANTIC CITY,402,114
USW00013729,38.8853,-79.8528,603.2,WV,ELKINS RANDOLPH CO AP,359,110
USW00013733,37.3208,-79.2067,286.5,VA,LYNCHBURG RGNL AP,364,97
USW00013734,39.4019,-77.9844,162.8,WV,MARTINSBURG E WV RGNL AP,374,114
USW00013735,39.3667,-75.0667,21.3,NJ,MILLVILLE MUNI AP,397,113
USW00013736,39.6428,-79.9164,378,WV,MORGANTOWN HART FLD,358,116
USW00013737,36.9033,-76.1922,9.1,VA,NORFOLK INTL AP,388,93
USW00013739,39.8683,-75.2311,3,PA,PHILADELPHIA INTL AP,396,117
USW00013740,37.505,-77.3203,50,VA,RICHMOND INTL AP,379,99
USW00013741,37.3169,-79.9742,358.1,VA,ROANOKE RGNL AP,358,97
USW00013743,38.8483,-77.0342,3,VA,WASHINGTON REAGAN AP GS,381,109
USW00013744,34.1853,-79.7239,44.5,SC,FLORENCE RGNL AP,360,72
USW00013748,34.2675,-77.8997,10.1,NC,WILMINGTON INTL AP,374,73
USW00013781,39.6728,-75.6008,24.1,DE,WILMINGTON NEW CASTLE CO AP,393,116
USW00013782,32.78,-79.9319,3,SC,CHARLESTON CITY,358,61
USW00013802,38.52,-89.8467,137.2,IL,BELLEVILLE SIU RSCH,279,107
USW00013865,32.3347,-88.7442,89.6,MS,MERIDIAN KEY FLD GS,288,57
USW00013866,38.3794,-81.59,277.4,WV,CHARLESTON YEAGER AP,345,106
USW00013867,39.2811,-81.5572,189,WV,PARKERSBURG,345,113
USW00013870,31.5358,-82.5067,58.8,GA,ALMA BACON CO AP,337,51
USW00013871,33.5872,-85.8556,181.1,AL,ANNISTON METRO AP,311,67
USW00013872,35.5953,-82.5567,682.1,NC,ASHEVILLE,337,83
USW00013873,33.9481,-83.3275,239.3,GA,ATHENS BEN EPPS AP,331,70
USW00013874,33.63,-84.4417,307.8,GA,ATLANTA HARTSFIELD INTL AP,322,68
USW00013876,33.5656,-86.745,187.5,AL,BIRMINGHAM AP,304,67
USW00013877,36.4731,-82.4044,457.2,TN,BRISTOL TRI CITY AP,338,90
USW00013878,31.1522,-81.3908,4.9,GA,BRUNSWICK MALCOLM MCKINNON AP,346,48
USW00013880,32.8986,-80.0403,12.2,SC,CHARLESTON INTL AP GS,357,62
USW00013881,35.2236,-80.9553,221.9,NC,CHARLOTTE DOUGLAS AP,350,80
USW00013882,35.0311,-85.2014,204.5,TN,CHATTANOOGA LOVELL AP GS,316,79
USW00013883,33.9486,-81.1186,70.4,SC,COLUMBIA,349,70
USW00013889,30.4844,-81.7019,10.1,FL,JACKSONVILLE,344,42
USW00013891,35.8181,-83.9858,293.2,TN,KNOXVILLE MCGHEE TYSON AP,326,85
USW00013893,35.0564,-89.9864,77.4,TN,MEMPHIS INTL AP,278,79
USW00013894,30.6794,-88.2397,63.4,AL,MOBILE,292,44
USW00013895,32.2997,-86.4075,61.6,AL,MONTGOMERY AP,306,57
USW00013897,36.1189,-86.6892,182.9,TN,NASHVILLE INTL AP,304,87
USW00013899,30.4781,-87.1869,34.1,FL,PENSACOLA RGNL AP,300,42
USW00013942,32.5156,-92.0406,24.1,LA,MONROE RGNL AP,261,59
USW00013957,32.4506,-93.8411,83.2,LA,SHREVEPORT GS,247,58
USW00013958,30.3208,-97.7603,204.2,TX,AUSTIN-CAMP MABRY,215,41
USW00013959,31.6189,-97.2283,152.4,TX,WACO RGNL AP,220,51
USW00013960,32.8519,-96.8556,134.1,TX,DALLAS LOVE FLD,223,61
USW00013962,32.4106,-99.6822,545.6,TX,ABILENE RGNL AP GS,200,58
USW00013963,34.7272,-92.2389,78.6,AR,LITTLE ROCK AP ADAMS FLD,260,76
USW00013964,35.3331,-94.3625,136.9,AR,FT SMITH RGNL AP GS,243,81
USW00013966,33.9786,-98.4928,310,TX,WICHITA FALLS MUNI AP,210,70
USW00013967,35.3889,-97.6006,391.7,OK,OKLAHOMA CITY WILL ROGERS AP GS,217,82
USW00013968,36.1994,-95.8872,198.1,OK,TULSA INTL AP,230,88
USW00013969,36.7367,-97.1019,304.8,OK,PONCA CITY MUNI AP,221,92
USW00013970,30.5372,-91.1469,19.5,LA,BATON ROUGE RYAN AP,268,43
USW00013975,36.2967,-99.7689,667.8,OK,GAGE AP,199,89
USW00013976,30.205,-91.9875,11.6,LA,LAFAYETTE RGNL AP,262,40
USW00013978,33.4964,-90.0867,40.5,MS,GREENWOOD LEFLORE AP,277,66
USW00013980,37.155,-98.0283,408.4,KS,ANTHONY,213,96
USW00013984,39.5514,-97.6508,447.8,KS,CONCORDIA MUNI AP GS,216,115
USW00013987,37.1467,-94.5022,298.7,MO,JOPLIN REGIONAL AIRPORT,241,96
USW00013988,39.1208,-94.5969,226.2,MO,KANSAS CITY DOWNTOWN AP,241,111
USW00013994,38.7525,-90.3736,161.8,MO,ST LOUIS LAMBERT INTL AP,275,109
USW00013995,37.2353,-93.4003,389.5,MO,SPRINGFIELD,250,96
USW00013996,39.0725,-95.6261,267,KS,TOPEKA MUNI AP,232,111
USW00014605,44.3206,-69.7972,106.7,ME,AUGUSTA STATE AP,439,153
USW00014607,46.8706,-68.0172,190.2,ME,CARIBOU MUNI AP GS,453,173
USW00014609,46.1236,-67.7928,145.1,ME,HOULTON INTL AP,455,167
USW00014732,40.7794,-73.8803,3.4,NY,NEW YORK LAGUARDIA AP,406,125
USW00014733,42.9486,-78.7369,211.2,NY,BUFFALO,368,142
USW00014734,40.6825,-74.1694,2.1,NJ,NEWARK INTL AP,404,124
USW00014735,42.7431,-73.8092,95.1,NY,ALBANY AP,407,140
USW00014736,40.2964,-78.3203,451.1,PA,ALTOONA BLAIR CO AP,371,121
USW00014737,40.6508,-75.4492,118.9,PA,ALLENTOWN INTL AP,394,124
USW00014739,42.3606,-71.0106,3.7,MA,BOSTON LOGAN INTL AP,429,137
USW00014740,41.9381,-72.6825,57.9,CT,HARTFORD BRADLEY INTL AP,416,134
USW00014742,44.4683,-73.15,100.6,VT,BURLINGTON INTL AP GS,412,154
USW00014743,44.5772,-75.1097,136.6,NY,CANTON 4 SE,397,155
USW00014745,43.1953,-71.5011,105.5,NH,CONCORD MUNI AP,425,144
USW00014750,43.35,-73.6167,97.8,NY,GLENS FALLS AP,409,145
USW00014753,42.2122,-71.1136,190.5,MA,BLUE HILL GS,429,136
USW00014755,44.2667,-71.2994,1910.2,NH,MT WASHINGTON GS,427,153
USW00014764,43.6497,-70.3003,13.7,ME,PORTLAND INTL JETPORT,435,148
USW00014765,41.7219,-71.4325,18.3,RI,PROVIDENCE T F GREEN AP,426,132
USW00014768,43.1167,-77.6767,162.5,NY,ROCHESTER GTR INTL AP,376,143
USW00014771,43.1111,-76.1039,125.9,NY,SYRACUSE HANCOCK INTL AP GS,389,143
USW00014777,41.3336,-75.7269,283.5,PA,WILKES-BARRE INTL AP,392,129
USW00014778,41.2433,-76.9217,158.5,PA,WILLIAMSPORT,382,128
USW00014819,41.7861,-87.7522,186.5,IL,CHICAGO MIDWAY AP,295,133
USW00014820,41.4131,-81.86,232.6,OH,CLEVELAND,343,130
USW00014821,39.9914,-82.8808,246.9,OH,COLUMBUS PORT COLUMBUS INTL AP,334,118
USW00014825,41.0136,-83.6686,243.8,OH,FINDLAY AP,328,127
USW00014826,42.9667,-83.7494,234.7,MI,FLINT BISHOP INTL AP,328,142
USW00014827,40.9706,-85.2064,241.1,IN,FT WAYNE INTL AP,316,126
USW00014833,42.2667,-84.4667,304.2,MI,JACKSON REYNOLDS FLD,322,137
USW00014836,42.7803,-84.5789,256.3,MI,LANSING CAPITAL CITY AP,321,141
USW00014837,43.1406,-89.3453,264,WI,MADISON DANE RGNL AP,283,144
USW00014839,42.955,-87.9044,204.2,WI,MILWAUKEE MITCHELL AP,294,142
USW00014840,43.1711,-86.2367,190.5,MI,MUSKEGON CO AP,308,144
USW00014841,45.5644,-84.7928,214.9,MI,PELLSTON RGNL AP,319,163
USW00014842,40.6675,-89.6839,198.1,IL,PEORIA GTR PEORIA AP GS,280,124
USW00014847,46.4794,-84.3572,220.1,MI,SAULT STE MARIE SANDERSON FLD,323,170
USW00014848,41.7072,-86.3164,235.6,IN,SOUTH BEND MICHIANA RGNL AP,307,132
USW00014852,41.2544,-80.6739,359.7,OH,YOUNGSTOWN RGNL AP,352,129
USW00014860,42.08,-80.1825,222.5,PA,ERIE INTL AP,356,135
USW00014891,40.8203,-82.5178,394.7,OH,MANSFIELD LAHM MUNI AP,337,125
USW00014895,40.9167,-81.4333,368.2,OH,AKRON CANTON RGNL AP,346,126
USW00014897,44.9258,-89.6256,360,WI,WAUSAU DWTN AP,280,158
USW00014898,44.4983,-88.1111,207.9,WI,GREEN BAY,293,154
USW00014913,46.8369,-92.2097,435.3,MN,DULUTH,260,173
USW00014914,46.9253,-96.8111,274.3,ND,FARGO HECTOR INTL AP,223,174
USW00014916,47.9428,-97.1839,256.6,ND,GRAND FORKS INTL AP,220,182
USW00014918,48.5614,-93.3981,360.6,MN,INTL FALLS INTL AP,250,187
USW00014919,46.9258,-98.6692,455.4,ND,JAMESTOWN MUNI AP,208,174
USW00014920,43.8789,-91.2528,198.7,WI,LA CROSSE MUNI AP,267,150
USW00014922,44.8831,-93.2289,265.8,MN,MINNEAPOLIS/ST PAUL AP GS,252,158
USW00014923,41.4653,-90.5233,180.4,IL,MOLINE QUAD CITY INTL AP,273,130
USW00014924,48.9711,-97.2417,240.8,ND,PEMBINA,220,190
USW00014925,43.9042,-92.4917,397.5,MN,ROCHESTER INTL AP,258,150
USW00014926,45.5433,-94.0514,310.3,MN,ST CLOUD RGNL AP,245,163
USW00014929,45.4558,-98.4131,396.8,SD,ABERDEEN,210,162
USW00014933,41.5339,-93.6531,291.7,IA,DES MOINES INTL AP GS,248,131
USW00014935,40.9611,-98.3136,560.8,NE,GRAND ISLAND AP,211,126
USW00014936,44.3981,-98.2231,390.1,SD,HURON RGNL AP GS,212,154
USW00014939,40.8508,-96.7475,362.7,NE,LINCOLN MUNI AP,224,125
USW00014940,43.1544,-93.3269,373.4,IA,MASON CITY MUNI AP,251,144
USW00014941,41.9856,-97.4353,472.7,NE,NORFOLK KARL STEFAN AP GS,218,134
USW00014942,41.3103,-95.8992,299.3,NE,OMAHA EPPLEY AIRFIELD,230,129
USW00014943,42.3914,-96.3792,333.8,IA,SIOUX CITY GATEWAY AP,226,138
USW00014944,43.5878,-96.7289,435.9,SD,SIOUX FALLS,224,147
USW00014946,44.9047,-97.1494,532.8,SD,WATERTOWN RGNL AP,220,158
USW00014950,41.1078,-92.4467,256.6,IA,OTTUMWA INDUSTRIAL AP,258,127
USW00014991,44.8664,-91.4878,269.7,WI,EAU CLAIRE RGNL AP,266,157
USW00014992,44.5483,-95.0803,311.2,MN,REDWOOD FALLS MUNI AP,237,155
USW00014995,45.7728,-92.6886,301.8,WI,GRANTSBURG,256,165
USW00022010,29.3783,-100.927,304.5,TX,DEL RIO INTL AP,190,34
USW00023007,34.4272,-100.283,594.7,TX,CHILDRESS MUNI AP,195,74
USW00023009,33.3075,-104.508,1112.2,NM,ROSWELL IND AIR PK,161,65
USW00023023,31.9433,-102.189,874.2,TX,MIDLAND ODESSA,180,54
USW00023034,31.3711,-100.492,576.1,TX,SAN ANGELO,194,49
USW00023040,31.78,-103.202,855.6,TX,WINKLER CO AP,172,53
USW00023041,32.2442,-101.454,765,TX,BIG SPRING,186,56
USW00023042,33.6542,-101.814,993.3,TX,LUBBOCK,183,68
USW00023044,31.8111,-106.376,1194.2,TX,EL PASO INTL AP GS,146,53
USW00023047,35.2333,-101.709,1093.3,TX,AMARILLO,184,80
USW00023050,35.0419,-106.616,1618.5,NM,ALBUQUERQUE INTL AP GS,145,79
USW00023061,37.4389,-105.861,2296.1,CO,ALAMOSA SAN LUIS AP,151,98
USW00023062,39.7633,-104.869,1611.2,CO,DENVER-STAPLETON,159,117
USW00023065,39.3669,-101.7,1112.8,KS,GOODLAND,184,113
USW00023066,39.1342,-108.54,1480.7,CO,GRAND JUNCTION WALKER FLD GS,129,112
USW00023070,37.2622,-104.338,1749.9,CO,TRINIDAD PERRY STOKES AP,163,97
USW00023072,34.9325,-100.89,823,TX,CLARENDON,190,78
USW00023081,35.5144,-108.794,1972.4,NM,GALLUP MUNI AP,127,83
USW00023129,33.8117,-118.146,9.4,CA,LONG BEACH DAUGHERTY FLD,52,69
USW00023152,34.2006,-118.357,225.9,CA,BURBANK GLENDALE PASADENA AP,51,72
USW00023153,38.0511,-117.09,1644.4,NV,TONOPAH,61,103
USW00023154,39.2953,-114.847,1908.7,NV,ELY YELLAND FLD AP GS,79,113
USW00023155,35.4344,-119.054,149,CA,BAKERSFIELD AP,45,82
USW00023157,37.3711,-118.358,1250.3,CA,BISHOP AP,51,97
USW00023158,33.6186,-114.714,120.4,CA,BLYTHE AP,80,67
USW00023160,32.1314,-110.955,776.9,AZ,TUCSON INTL AP,110,56
USW00023161,34.8536,-116.786,584.3,CA,BARSTOW DAGGETT AP,63,77
USW00023162,39.3375,-112.586,1408.2,UT,DELTA,97,113
USW00023169,36.0719,-115.163,649.5,NV,LAS VEGAS MCCARRAN AP GS,76,87
USW00023170,38.3706,-110.715,1313.1,UT,HANKSVILLE,112,105
USW00023174,33.9381,-118.389,29.6,CA,LOS ANGELES INTL AP,50,70
USW00023183,33.4278,-112.004,337.4,AZ,PHOENIX SKY HARBOR INTL AP GS,101,66
USW00023185,39.4839,-119.771,1344.2,NV,RENO TAHOE INTL AP,39,114
USW00023188,32.7336,-117.183,4.6,CA,SAN DIEGO LINDBERGH FLD GS,60,60
USW00023194,35.0281,-110.721,1489.3,AZ,WINSLOW MUNI AP,112,79
USW00023232,38.5069,-121.495,4.6,CA,SACRAMENTO EXECUTIVE AP GS,26,107
USW00023233,36.6636,-121.608,22.6,CA,SALINAS MUNICIPAL AP,25,92
USW00023234,37.6197,-122.365,2.4,CA,SAN FRANCISCO INTL AP,19,99
USW00023237,37.8892,-121.226,7.9,CA,STOCKTON METRO AP,28,102
USW00023258,37.6242,-120.951,22.3,CA,MODESTO CITY CO AP,30,99
USW00023271,38.5556,-121.417,11.6,CA,SACRAMENTO 5 ESE,26,107
USW00023272,37.7706,-122.427,45.7,CA,SAN FRANCISCO DWTN,18,101
USW00023273,34.8994,-120.449,73.8,CA,SANTA MARIA PUBLIC AP,34,78
USW00024011,46.7708,-100.76,505.4,ND,BISMARCK GS,191,173
USW00024012,46.7994,-102.797,786.4,ND,THEODORE ROOSEVELT AP,175,173
USW00024013,48.2553,-101.273,507.5,ND,MINOT INTL AP,187,185
USW00024018,41.1519,-104.806,1867.8,WY,CHEYENNE,159,128
USW00024020,40.5233,-101.034,928.1,NE,HAYES CENTER 1NW,189,123
USW00024021,42.8153,-108.726,1704.4,WY,LANDER HUNT FLD AP GS,128,141
USW00024022,41.3119,-105.675,2214.7,WY,LARAMIE RGNL AP,152,129
USW00024023,41.1214,-100.669,846.7,NE,NORTH PLATTE RGNL AP GS,192,127
USW00024025,44.3814,-100.286,531,SD,PIERRE RGNL AP,195,154
USW00024027,41.5944,-109.053,2054.7,WY,ROCK SPRINGS AP,125,131
USW00024028,41.8706,-103.593,1202.4,NE,SCOTTSBLUFF HEILIG AP,169,133
USW00024029,44.7694,-106.969,1202.4,WY,SHERIDAN CO AP GS,142,157
USW00024032,42.8783,-100.55,789.4,NE,VALENTINE MILLER FLD,193,142
USW00024033,45.8069,-108.542,1091.5,MT,BILLINGS LOGAN INTL AP,129,165
USW00024036,47.0492,-109.458,1263.4,MT,LEWISTOWN MUNI AP,122,175
USW00024037,46.4267,-105.882,799.8,MT,MILES CITY F WILEY FLD,150,170
USW00024057,41.8056,-107.2,2053.1,WY,RAWLINS MUNI AP,140,133
USW00024062,43.9658,-107.951,1271.6,WY,WORLAND,134,150
USW00024089,42.8975,-106.464,1627,WY,CASPER NATRONA CO AP,146,142
USW00024090,44.0433,-103.054,963.2,SD,RAPID CITY RGNL AP,173,151
USW00024119,40.6117,-116.892,1373.1,NV,BATTLE MOUNTAIN 4SE,62,123
USW00024120,40.9139,-111.398,1691.6,UT,COALVILLE,106,126
USW00024121,40.8289,-115.789,1533.1,NV,ELKO RGNL AP,71,125
USW00024127,40.7781,-111.969,1287.8,UT,SALT LAKE CITY INTL AP,102,125
USW00024128,40.9017,-117.808,1309.4,NV,WINNEMUCCA MUNI AP GS,55,126
USW00024130,44.8428,-117.809,1024.4,OR,BAKER CITY MUNI AP,55,157
USW00024131,43.5667,-116.241,857.7,ID,BOISE AIR TERMINAL GS,68,147
USW00024133,42.5417,-113.766,1262.5,ID,BURLEY MUNI AP,87,139
USW00024135,45.9647,-112.501,1678.2,MT,BUTTE BERT MOONEY AP,97,166
USW00024137,48.6033,-112.375,1169.8,MT,CUT BANK MUNI AP,98,187
USW00024139,46.6383,-113.176,1219.2,MT,DRUMMOND AVIATION,92,172
USW00024141,47.3078,-119.515,381.6,WA,EPHRATA MUNI AP,41,177
USW00024143,47.4733,-111.382,1116.8,MT,GREAT FALLS INTL AP,106,178
USW00024144,46.6056,-111.964,1166.8,MT,HELENA RGNL AP GS,102,171
USW00024149,46.3747,-117.016,437.7,ID,LEWISTON NEZ PERCE CO AP,61,169
USW00024150,45.6983,-110.441,1415.2,MT,LIVINGSTON MISSION FLD,114,164
USW00024153,46.9208,-114.092,972.9,MT,MISSOULA INTL AP,85,174
USW00024155,45.6906,-118.853,461.8,OR,PENDLETON GS,47,164
USW00024156,42.9203,-112.571,1364.9,ID,POCATELLO RGNL AP GS,97,142
USW00024157,47.6217,-117.528,717.2,WA,SPOKANE INTL AP,57,179
USW00024213,40.8097,-124.16,6.1,CA,EUREKA WFO WOODLEY ISLAND GS,4,125
USW00024219,45.6194,-121.166,71.6,WA,THE DALLES MUNI AP,28,163
USW00024221,44.1278,-123.221,107.6,OR,EUGENE MAHLON SWEET AP,12,152
USW00024225,42.3811,-122.872,395.3,OR,MEDFORD ROGUE VLY AP,15,138
USW00024227,46.9733,-122.903,57.3,WA,OLYMPIA AP GS,14,174
USW00024229,45.5908,-122.6,5.8,OR,PORTLAND INTL AP,17,163
USW00024232,44.905,-123.001,62.5,OR,SALEM MCNARY FLD,13,158
USW00024233,47.4444,-122.314,112.8,WA,SEATTLE TACOMA INTL AP,19,178
USW00024243,46.5683,-120.543,324.3,WA,YAKIMA AIR TERMINAL,33,171
USW00024284,43.4133,-124.244,5.2,OR,NORTH BEND RGNL AP,4,146
USW00053919,33.6361,-91.7556,88.4,AR,MONTICELLO MUNI AP,263,68
USW00054742,44.42,-72.0194,213.4,VT,SAINT JOHNSBURY,421,154
USW00092806,27.7628,-82.6261,2.4,FL,ST PETERSBURG AP,336,21
USW00092811,25.8064,-80.1336,0.3,FL,MIAMI BEACH,356,5
USW00093026,31.4583,-109.606,1251.2,AZ,DOUGLAS BISBEE INL AP,121,50
USW00093033,32.3336,-104.258,985.1,NM,CARLSBAD CAVERN CITY AP,163,57
USW00093037,38.81,-104.688,1884,CO,COLORADO SPRINGS MUNI AP,160,109
USW00093042,36.0167,-102.55,1216.2,TX,DALHART MUNI AP,177,87
USW00093057,35.1664,-107.899,1987.3,NM,GRANTS MILAN MUNI AP,134,80
USW00093058,38.29,-104.498,1438.7,CO,PUEBLO MEM AP,162,105
USW00093129,37.7086,-113.094,1702.6,UT,CEDAR CITY MUNI AP,93,100
USW00093134,34.0511,-118.235,70.1,CA,LOS ANGELES DWTN USC CAMPUS,52,71
USW00093193,36.78,-119.719,101.5,CA,FRESNO YOSEMITE INTL AP GS,40,93
USW00093209,35.6697,-120.628,246.9,CA,PASO ROBLES MUNI AP,32,84
USW00093720,38.3406,-75.5103,14.6,MD,SALISBURY WICOMICO RGNL AP,393,105
USW00093721,39.1667,-76.6833,47.5,MD,BALTIMORE WASH INTL AP,384,112
USW00093729,35.2325,-75.6219,3.4,NC,CAPE HATTERAS AP GS,389,82
USW00093730,39.4494,-74.5672,18.3,NJ,ATLANTIC CITY INTL AP,401,114
USW00093738,38.9408,-77.4636,88.4,VA,WASHINGTON DC DULLES AP,378,110
USW00093739,37.9406,-75.4631,11.6,VA,WALLOPS ISLAND FLIGHT FAC,394,102
USW00093805,30.3975,-84.3289,19.2,FL,TALLAHASSEE,323,42
USW00093808,36.9647,-86.4239,160.9,KY,BOWLING GREEN WARREN CO AP,306,94
USW00093812,39.1033,-84.4189,149.4,OH,CINCINNATI LUNKEN AP,322,111
USW00093814,39.0431,-84.6717,264.9,KY,CINCINNATI NORTHERN KY AP,320,111
USW00093815,39.9061,-84.2186,304.8,OH,DAYTON INTL AP,324,118
USW00093817,38.0442,-87.5206,121.9,IN,EVANSVILLE REGIONAL AP GS,297,103
USW00093819,39.7075,-86.2803,240.8,IN,INDIANAPOLIS,307,116
USW00093820,38.0408,-84.6058,298.7,KY,LEXINGTON BLUEGRASS AP GS,321,103
USW00093821,38.1811,-85.7392,148.7,KY,LOUISVILLE INTL AP,312,104
USW00093822,39.8447,-89.6839,181.1,IL,SPRINGFIELD CAPITAL AP,280,117
USW00093824,39.9444,-81.8922,268.2,OH,ZANESVILLE MUNI AP,342,118
USW00093842,32.5161,-84.9422,119.5,GA,COLUMBUS METRO AP,318,59
USW00093846,34.4978,-82.7097,231.6,SC,ANDERSON CO AP,336,74
USW00093862,34.2622,-88.7714,110,MS,TUPELO RGNL AP,287,73
USW00093914,31.7831,-95.6039,141.7,TX,PALESTINE 2 NE,233,53
USW00093919,31.1828,-90.4708,125.9,MS,MCCOMB/PIKE CO/JOHN E LEWIS AP,274,48
USW00093986,34.9894,-99.0525,474.3,OK,HOBART MUNI AP,205,78
USW00093987,31.2361,-94.7544,87.8,TX,LUFKIN ANGELINA CO AP,239,48
USW00093989,39.9369,-91.1919,234.4,IL,QUINCY RGNL AP,268,118
USW00093992,33.2208,-92.8142,76.8,AR,EL DORADO S AR RGNL AP,255,64
USW00094008,48.2064,-106.624,693.7,MT,GLASGOW GS,145,184
USW00094012,48.5428,-109.763,787.9,MT,HAVRE CITY CO AP,119,187
USW00094014,48.1739,-103.637,579.7,ND,WILLISTON SLOULIN INTL AP,168,184
USW00094030,40.4422,-109.514,1603.2,UT,VERNAL MUNICIPAL AP,121,122
USW00094040,40.2064,-100.591,771.1,NE,MCCOOK MUNI AP,193,120
USW00094185,43.595,-118.956,1261.9,OR,BURNS MUNI AP,46,147
USW00094224,46.1569,-123.882,2.7,OR,ASTORIA RGNL AP,6,168
USW00094225,46.9728,-123.93,3.7,WA,HOQUIAM BOWERMAN AP,6,174
USW00094239,47.3978,-120.201,374.6,WA,WENATCHEE PANGBORN AP,36,178
USW00094240,47.9375,-124.555,56.4,WA,QUILLAYUTE STATE AP,1,182
USW00094702,41.1583,-73.1289,1.5,CT,BRIDGEPORT SIKORSKY MEM AP,412,128
USW00094705,44.2033,-72.5794,343.2,VT,BARRE MONTPELIER AP,417,152
USW00094725,44.9358,-74.8458,65.2,NY,MASSENA INTL AP,399,158
USW00094728,40.7789,-73.9692,39.6,NY,NEW YORK CNTRL PK TWR,406,125
USW00094746,42.2706,-71.8731,304.8,MA,WORCESTER RGNL AP,423,137
USW00094789,40.6386,-73.7622,3.4,NY,NEW YORK JFK INTL AP,407,124
USW00094790,43.9922,-76.0217,96.9,NY,WATERTOWN INTL AP,389,150
USW00094814,44.3592,-84.6739,350.8,MI,HOUGHTON LK ROSCOMMON AP,320,153
USW00094822,42.1928,-89.0931,222.5,IL,ROCKFORD GTR ROCKFORD AP,285,136
USW00094823,40.4847,-80.2144,366.7,PA,PITTSBURGH INTL AP GS,356,122
USW00094830,41.5886,-83.8014,203.9,OH,TOLEDO EXPRESS AP,327,131
USW00094846,41.995,-87.9336,200.6,IL,CHICAGO OHARE INTL AP,294,134
USW00094847,42.2314,-83.3308,192.3,MI,DETROIT METRO AP,331,136
USW00094849,45.0717,-83.5644,208.5,MI,ALPENA CO RGNL AP,329,159
USW00094850,46.5311,-87.5483,430.1,MI,MARQUETTE,297,171
USW00094860,42.8939,-85.5447,237.1,MI,GRAND RAPIDS,313,142
USW00094871,42.1244,-86.4267,196,MI,BENTON HARBOR AP,306,135
USW00094908,42.3978,-90.7036,321.9,IA,DUBUQUE RGNL AP,272,138
USW00094910,42.5544,-92.4011,264.6,IA,WATERLOO MUNI AP,258,139
USW00094911,42.8783,-97.3633,359.7,SD,YANKTON 2 E,219,142
USW00094931,47.3864,-92.8389,412.1,MN,HIBBING CHISHOLM HIBBING AP,255,178
USW00094957,40.0803,-95.5919,298.7,NE,FALLS CITY BRENNER FLD,233,119
